{"type":"FeatureCollection","features":[{"type":"Feature","geometry":{"type":"Polygon","coordinates":[[[-79.412375,43.665483],[-79.404528,43.647386],[-79.41055,43.646305],[-79.40816,43.642996],[-79.428097,43.639103],[-79.426107,43.63417],[-79.430349,43.63237],[-79.427659,43.629487],[-79.409651,43.630297],[-79.402612,43.630386],[-79.392011,43.635654],[-79.373676,43.639395],[-79.347541,43.650329],[-79.354613,43.658131],[-79.356426,43.664793],[-79.366541,43.662683],[-79.371248,43.673783],[-79.412375,43.665483]]]},"properties":{}},{"type":"Feature","geometry":{"type":"Polygon","coordinates":[[[-73.531384,45.535261],[-73.538559,45.535709],[-73.544171,45.522672],[-73.563209,45.53131],[-73.573958,45.505956],[-73.593068,45.48772],[-73.588378,45.485858],[-73.608598,45.471625],[-73.595126,45.464155],[-73.580539,45.46356],[-73.578001,45.469603],[-73.572689,45.473784],[-73.569383,45.474032],[-73.561651,45.471052],[-73.549351,45.470034],[-73.545103,45.465248],[-73.535623,45.467632],[-73.53111,45.468764],[-73.531384,45.535261]]]},"properties":{}},{"type":"Feature","geometry":{"type":"Polygon","coordinates":[[[-71.215233,46.821794],[-71.233404,46.838336],[-71.236457,46.838947],[-71.247578,46.833411],[-71.256825,46.825409],[-71.275383,46.809961],[-71.28556,46.796145],[-71.26206,46.795083],[-71.244123,46.802789],[-71.202157,46.803283],[-71.193617,46.818533],[-71.194299,46.827796],[-71.215233,46.821794]]]},"properties":{}},{"type":"Feature","geometry":{"type":"Polygon","coordinates":[[[-75.693615,45.426444],[-75.698173,45.431576],[-75.709728,45.432494],[-75.715521,45.432945],[-75.716641,45.426364],[-75.721764,45.42621],[-75.725009,45.429324],[-75.726018,45.429118],[-75.722621,45.423571],[-75.725217,45.420347],[-75.71169,45.411257],[-75.686994,45.421549],[-75.680189,45.418933],[-75.677158,45.419267],[-75.685578,45.429347],[-75.693615,45.426444]]]},"properties":{}},{"type":"Feature","geometry":{"type":"Polygon","coordinates":[[[-114.094618,51.048426],[-114.106857,51.048406],[-114.115388,51.046938],[-114.107832,51.04254],[-114.099669,51.042296],[-114.099964,51.037697],[-114.069374,51.037407],[-114.061751,51.03712],[-114.061427,51.033414],[-114.0499,51.036286],[-114.040898,51.045403],[-114.048852,51.048727],[-114.057216,51.051518],[-114.063344,51.053401],[-114.066406,51.056201],[-114.071283,51.057037],[-114.076242,51.055442],[-114.083896,51.051126],[-114.094618,51.048426]]]},"properties":{}},{"type":"Feature","geometry":{"type":"Polygon","coordinates":[[[-123.155871,49.295096],[-123.152535,49.286916],[-123.138571,49.278189],[-123.139753,49.263067],[-123.075957,49.261808],[-123.076153,49.285859],[-123.109938,49.295295],[-123.155871,49.295096]]]},"properties":{}}]}