{"type": "FeatureCollection", "features": [{"type": "Feature", "geometry": {"type": "Polygon", "coordinates": [[[-79.537253, 8.975375], [-79.543774, 8.960109], [-79.552235, 8.946907], [-79.549098, 8.932873], [-79.51703, 8.897151], [-79.50922, 8.918628], [-79.537954, 8.936535], [-79.488291, 8.973585], [-79.493686, 9.002815], [-79.49707, 9.008375], [-79.488914, 9.014481], [-79.497885, 9.028684], [-79.508517, 9.030104], [-79.520331, 9.024727], [-79.523439, 9.013186], [-79.53741, 8.991372], [-79.537253, 8.975375]]]}, "properties": {}}]}