{"type": "FeatureCollection", "features": [{"type": "Feature", "geometry": {"type": "Polygon", "coordinates": [[[-73.977143, 40.806281], [-74.017511, 40.74469], [-74.021099, 40.695512], [-74.010932, 40.698006], [-73.995383, 40.707527], [-73.972422, 40.711863], [-73.966143, 40.735657], [-73.961373, 40.748196], [-73.947511, 40.760563], [-73.938291, 40.771318], [-73.938668, 40.779457], [-73.936157, 40.787852], [-73.928179, 40.795819], [-73.927415, 40.801408], [-73.931846, 40.807207], [-73.933596, 40.810028], [-73.963743, 40.822846], [-73.977143, 40.806281]]]}, "properties": {}}]}