{"type":"FeatureCollection","features":[{"type":"Feature","properties":{"GID_2":"HKG.1_1","GID_0":"CHN","COUNTRY":"China","GID_1":"CHN.HKG","NAME_1":"HongKong","NL_NAME_1":"NA","NAME_2":"CentralandWestern","VARNAME_2":"NA","NL_NAME_2":"NA","TYPE_2":"District","ENGTYPE_2":"District","CC_2":"NA","HASC_2":"HK.CW"},"geometry":{"type":"MultiPolygon","coordinates":[[[[114.1633,22.2604],[114.1586,22.259],[114.1531,22.2611],[114.1515,22.2577],[114.146,22.2548],[114.1355,22.2724],[114.1312,22.275],[114.1179,22.2732],[114.116,22.2751],[114.1165,22.2793],[114.119,22.2821],[114.1251,22.2838],[114.1257,22.286],[114.1315,22.2876],[114.1335,22.2899],[114.1435,22.291],[114.1499,22.2893],[114.1524,22.2904],[114.1537,22.2885],[114.1612,22.2885],[114.161,22.284],[114.166,22.2826],[114.1683,22.2787],[114.1658,22.27],[114.1658,22.2641],[114.1633,22.2604]]],[[[114.1137,22.2854],[114.1151,22.2838],[114.1113,22.2826],[114.111,22.2846],[114.1137,22.2854]]]]}}]}