{"type":"FeatureCollection","features":[{"type":"Feature","properties":{"GID_2":"HKG.2_1","GID_0":"CHN","COUNTRY":"China","GID_1":"CHN.HKG","NAME_1":"HongKong","NL_NAME_1":"NA","NAME_2":"Eastern","VARNAME_2":"NA","NL_NAME_2":"NA","TYPE_2":"District","ENGTYPE_2":"District","CC_2":"NA","HASC_2":"HK.EA"},"geometry":{"type":"MultiPolygon","coordinates":[[[[114.1779,22.2835],[114.1854,22.2868],[114.1879,22.2862],[114.1935,22.2924],[114.2026,22.2951],[114.2132,22.2926],[114.2215,22.2887],[114.226,22.286],[114.2282,22.2824],[114.2349,22.2846],[114.2418,22.2787],[114.2426,22.2751],[114.2449,22.2738],[114.2429,22.2682],[114.2454,22.2699],[114.246,22.2726],[114.2474,22.2699],[114.2524,22.2674],[114.2574,22.2621],[114.2554,22.2546],[114.2568,22.2524],[114.2538,22.2479],[114.2518,22.2488],[114.2505,22.2471],[114.247,22.2535],[114.2382,22.2569],[114.231,22.2548],[114.2285,22.2573],[114.2205,22.2577],[114.2146,22.2611],[114.1982,22.2588],[114.1992,22.265],[114.2065,22.2703],[114.2064,22.2734],[114.2016,22.2775],[114.1979,22.2738],[114.1923,22.283],[114.1874,22.2807],[114.1854,22.2828],[114.1779,22.2835]]]]}}]}