{"type":"FeatureCollection","features":[{"type":"Feature","properties":{"GID_2":"HKG.3_1","GID_0":"CHN","COUNTRY":"China","GID_1":"CHN.HKG","NAME_1":"HongKong","NL_NAME_1":"NA","NAME_2":"Islands","VARNAME_2":"NA","NL_NAME_2":"NA","TYPE_2":"District","ENGTYPE_2":"District","CC_2":"NA","HASC_2":"HK.IS"},"geometry":{"type":"MultiPolygon","coordinates":[[[[114.251,22.1599],[114.249,22.1596],[114.249,22.1604],[114.2515,22.1615],[114.251,22.1599]]],[[[114.2526,22.1626],[114.2543,22.1649],[114.251,22.164],[114.2499,22.1663],[114.2571,22.176],[114.2637,22.1774],[114.264,22.1799],[114.2663,22.1807],[114.2718,22.1765],[114.2732,22.1732],[114.2721,22.169],[114.2746,22.1654],[114.2746,22.1624],[114.2663,22.1624],[114.2649,22.1643],[114.2615,22.1607],[114.2613,22.1582],[114.2557,22.1551],[114.2579,22.1599],[114.2518,22.1612],[114.2526,22.1626]]],[[[114.256,22.1893],[114.2571,22.184],[114.2549,22.181],[114.251,22.1793],[114.246,22.1815],[114.2449,22.1787],[114.2435,22.1882],[114.256,22.1893]]],[[[114.3035,22.181],[114.3018,22.1824],[114.3046,22.1849],[114.3051,22.1885],[114.3068,22.189],[114.3065,22.1854],[114.3035,22.181]]],[[[114.291,22.1896],[114.2893,22.1813],[114.2846,22.181],[114.2829,22.1863],[114.2857,22.1865],[114.2865,22.1896],[114.291,22.1896]]],[[[114.1188,22.2396],[114.1229,22.2376],[114.1226,22.234],[114.1204,22.2335],[114.1201,22.2318],[114.121,22.2285],[114.1256,22.226],[114.1251,22.2229],[114.1285,22.2196],[114.1315,22.219],[114.1346,22.2213],[114.1371,22.219],[114.1368,22.2162],[114.1349,22.2165],[114.1357,22.214],[114.1318,22.2135],[114.1271,22.2088],[114.1265,22.206],[114.1293,22.2029],[114.1304,22.206],[114.1354,22.209],[114.1407,22.2093],[114.1454,22.2076],[114.1468,22.2113],[114.1504,22.2124],[114.1529,22.2099],[114.159,22.2101],[114.1604,22.2082],[114.1574,22.2038],[114.1543,22.2035],[114.151,22.2062],[114.1488,22.2051],[114.149,22.2032],[114.146,22.2024],[114.1457,22.1993],[114.1435,22.1979],[114.1401,22.1985],[114.1399,22.1957],[114.1432,22.1949],[114.1488,22.181],[114.1382,22.1885],[114.1371,22.1913],[114.1346,22.1885],[114.1376,22.1826],[114.1374,22.1776],[114.1346,22.1787],[114.1321,22.1832],[114.126,22.1774],[114.1229,22.1813],[114.1196,22.1793],[114.1146,22.1818],[114.1143,22.1871],[114.1201,22.1904],[114.1212,22.2035],[114.1226,22.2038],[114.1196,22.2065],[114.1218,22.2107],[114.1199,22.2185],[114.1137,22.2201],[114.1129,22.2162],[114.1035,22.216],[114.1026,22.2185],[114.1074,22.2243],[114.1107,22.2257],[114.1085,22.2276],[114.1101,22.231],[114.1057,22.234],[114.1165,22.2385],[114.1176,22.2412],[114.1188,22.2396]]],[[[114.136,22.2237],[114.1335,22.2229],[114.1324,22.224],[114.1363,22.2265],[114.136,22.2237]]],[[[114.0557,22.2637],[114.0554,22.2601],[114.0512,22.2571],[114.0485,22.2571],[114.0465,22.259],[114.0496,22.2643],[114.0546,22.2649],[114.0557,22.2637]]],[[[114.079,22.284],[114.079,22.2821],[114.0754,22.2818],[114.0738,22.2843],[114.079,22.2868],[114.079,22.284]]],[[[114.0446,22.2907],[114.0404,22.286],[114.0462,22.2868],[114.0474,22.2838],[114.0449,22.2801],[114.0399,22.2787],[114.0371,22.2824],[114.0349,22.2896],[114.0437,22.2924],[114.0446,22.2907]]],[[[114.0596,22.2893],[114.059,22.2871],[114.0563,22.2888],[114.0585,22.2901],[114.0596,22.2893]]],[[[113.9238,22.1546],[113.9232,22.1532],[113.9215,22.1537],[113.9232,22.1571],[113.9238,22.1546]]],[[[113.9126,22.1696],[113.9165,22.1685],[113.9163,22.1665],[113.9129,22.166],[113.9157,22.159],[113.9138,22.1599],[113.9118,22.1579],[113.9063,22.1582],[113.9037,22.156],[113.8988,22.159],[113.901,22.1632],[113.9049,22.1638],[113.9065,22.1624],[113.9096,22.1649],[113.909,22.1699],[113.9121,22.171],[113.9126,22.1696]]],[[[113.9021,22.1718],[113.8996,22.1707],[113.8974,22.1715],[113.9013,22.1735],[113.9021,22.1718]]],[[[113.9054,22.1749],[113.906,22.1729],[113.9051,22.1726],[113.9037,22.1746],[113.9054,22.1749]]],[[[113.9246,22.179],[113.9262,22.1782],[113.926,22.1771],[113.9229,22.1801],[113.9246,22.179]]],[[[113.909,22.1871],[113.9112,22.1837],[113.9151,22.184],[113.9168,22.1818],[113.9196,22.1824],[113.9212,22.1801],[113.9207,22.1779],[113.9174,22.1804],[113.9168,22.1771],[113.9149,22.1796],[113.9129,22.1785],[113.9124,22.1821],[113.909,22.1815],[113.9076,22.1785],[113.9051,22.179],[113.906,22.1876],[113.909,22.1871]]],[[[113.8374,22.2176],[113.8388,22.2165],[113.8363,22.2143],[113.8346,22.2176],[113.8374,22.2176]]],[[[113.9379,22.3232],[113.9354,22.3226],[113.9354,22.3213],[113.9429,22.3218],[113.946,22.3235],[113.946,22.3201],[113.9401,22.3115],[113.9393,22.3026],[113.9365,22.3021],[113.9385,22.2943],[113.9332,22.2899],[113.916,22.2951],[113.891,22.2935],[113.8985,22.3012],[113.896,22.3071],[113.8899,22.3076],[113.8929,22.3115],[113.9329,22.3243],[113.9379,22.3232]]],[[[113.9904,22.2013],[113.9926,22.1976],[113.9915,22.1949],[113.9946,22.1954],[113.9946,22.1904],[113.9901,22.1876],[113.9821,22.1943],[113.9849,22.2007],[113.9871,22.2024],[113.9904,22.2013]]],[[[114.0354,22.2221],[114.0357,22.2201],[114.0326,22.2182],[114.036,22.2182],[114.0362,22.2168],[114.031,22.2154],[114.0293,22.214],[114.0296,22.2115],[114.0338,22.2071],[114.0382,22.2082],[114.0404,22.2057],[114.039,22.2029],[114.0362,22.2018],[114.036,22.1999],[114.0335,22.2029],[114.0304,22.2021],[114.0279,22.199],[114.0249,22.1982],[114.0249,22.1965],[114.0185,22.1974],[114.0174,22.2013],[114.021,22.2015],[114.0232,22.2057],[114.0279,22.2074],[114.0263,22.2107],[114.0229,22.2113],[114.0221,22.2132],[114.0263,22.2165],[114.0246,22.2185],[114.0254,22.2204],[114.0276,22.2224],[114.0321,22.2218],[114.034,22.224],[114.0354,22.2221]]],[[[114.0326,22.2588],[114.0418,22.2585],[114.0449,22.2565],[114.044,22.2501],[114.0471,22.246],[114.0451,22.2415],[114.0435,22.241],[114.0404,22.2429],[114.0382,22.2496],[114.0346,22.2504],[114.0329,22.2538],[114.0276,22.254],[114.0265,22.2557],[114.0276,22.2588],[114.0326,22.2588]]],[[[114.0362,22.3118],[114.0371,22.3107],[114.0329,22.3093],[114.0315,22.3118],[114.0285,22.3129],[114.0246,22.3099],[114.0185,22.3104],[114.0174,22.3076],[114.0157,22.3074],[114.0157,22.3032],[114.019,22.3032],[114.0199,22.301],[114.0151,22.2996],[114.0146,22.2974],[114.0193,22.296],[114.0201,22.2979],[114.0224,22.2971],[114.0243,22.299],[114.0276,22.2926],[114.0268,22.2912],[114.0229,22.2915],[114.0207,22.2938],[114.019,22.2929],[114.021,22.291],[114.0188,22.2893],[114.0196,22.2857],[114.0229,22.2838],[114.0218,22.2807],[114.0232,22.2782],[114.0212,22.2776],[114.0207,22.2754],[114.0226,22.2738],[114.0215,22.266],[114.0193,22.2665],[114.0168,22.2649],[114.0104,22.2663],[114.0096,22.2687],[114.0065,22.269],[114.0032,22.2721],[114.001,22.2721],[113.9987,22.2693],[113.9987,22.2676],[114.0026,22.2654],[114.0024,22.2632],[114.0074,22.2601],[114.0118,22.2518],[114.001,22.2482],[113.9999,22.2454],[113.9938,22.2426],[113.9938,22.241],[113.9962,22.2396],[113.9987,22.2407],[114.0046,22.2332],[114.0074,22.2329],[114.0099,22.2351],[114.0121,22.2324],[114.0196,22.2304],[114.0174,22.229],[114.0174,22.226],[114.0115,22.2237],[114.0096,22.2215],[114.0101,22.2199],[114.0057,22.2188],[114.004,22.2149],[114.001,22.2149],[114.0001,22.2171],[113.9971,22.2182],[113.9901,22.2143],[113.9896,22.2118],[113.9865,22.2118],[113.9863,22.2151],[113.9837,22.2149],[113.9804,22.2171],[113.984,22.2232],[113.9774,22.2285],[113.9815,22.2371],[113.9732,22.2404],[113.969,22.2374],[113.9649,22.2365],[113.9624,22.2349],[113.9618,22.2324],[113.9576,22.231],[113.9568,22.2335],[113.9515,22.234],[113.9418,22.231],[113.939,22.2282],[113.9362,22.2285],[113.9332,22.2251],[113.9285,22.2235],[113.9257,22.226],[113.9232,22.2254],[113.9215,22.2215],[113.9187,22.2207],[113.9187,22.2185],[113.924,22.2171],[113.9262,22.2193],[113.9307,22.2174],[113.9307,22.2113],[113.9324,22.2096],[113.921,22.2071],[113.9176,22.2113],[113.9151,22.2115],[113.9135,22.2068],[113.9115,22.206],[113.9049,22.2107],[113.9035,22.2101],[113.9013,22.2138],[113.8985,22.2143],[113.8968,22.2182],[113.8982,22.2218],[113.894,22.2213],[113.8918,22.2232],[113.8918,22.2207],[113.8896,22.2193],[113.8882,22.2213],[113.8854,22.221],[113.8815,22.2179],[113.8785,22.2143],[113.8796,22.2107],[113.8751,22.2113],[113.8724,22.2096],[113.8668,22.2015],[113.864,22.2015],[113.8643,22.2038],[113.8607,22.2038],[113.8538,22.2015],[113.8526,22.1993],[113.8543,22.1974],[113.8526,22.196],[113.8479,22.1971],[113.8468,22.1943],[113.8446,22.196],[113.8468,22.1982],[113.8468,22.2018],[113.849,22.2018],[113.8493,22.204],[113.8463,22.204],[113.8415,22.2076],[113.8435,22.216],[113.8396,22.219],[113.839,22.2279],[113.8432,22.2354],[113.8463,22.2354],[113.8507,22.231],[113.8529,22.2346],[113.8521,22.2401],[113.8507,22.241],[113.8518,22.244],[113.8596,22.2457],[113.8629,22.2482],[113.8626,22.2521],[113.8601,22.2526],[113.8607,22.254],[113.8576,22.2546],[113.8557,22.2526],[113.8529,22.2526],[113.8518,22.2565],[113.8551,22.2601],[113.8593,22.2615],[113.8646,22.259],[113.8715,22.269],[113.8757,22.2687],[113.8804,22.2704],[113.8821,22.2726],[113.8843,22.2718],[113.8857,22.2685],[113.8876,22.2693],[113.886,22.2779],[113.894,22.2824],[113.894,22.2882],[113.8962,22.2896],[113.8965,22.2918],[113.9021,22.2896],[113.9037,22.2929],[113.911,22.2904],[113.9157,22.2935],[113.9243,22.2899],[113.9249,22.2857],[113.929,22.2804],[113.9335,22.2807],[113.9326,22.2826],[113.9385,22.2932],[113.9413,22.2946],[113.9465,22.2932],[113.9474,22.2946],[113.9549,22.2954],[113.959,22.2979],[113.9704,22.3004],[113.9773,22.304],[113.9824,22.3093],[113.9924,22.3124],[113.9946,22.3144],[114.0362,22.314],[114.0362,22.3118]]]]}}]}