{"type":"FeatureCollection","features":[{"type":"Feature","properties":{"GID_2":"HKG.4_1","GID_0":"CHN","COUNTRY":"China","GID_1":"CHN.HKG","NAME_1":"HongKong","NL_NAME_1":"NA","NAME_2":"KowloonCity","VARNAME_2":"NA","NL_NAME_2":"NA","TYPE_2":"District","ENGTYPE_2":"District","CC_2":"NA","HASC_2":"HK.KC"},"geometry":{"type":"MultiPolygon","coordinates":[[[[114.2093,22.3155],[114.2018,22.3213],[114.2004,22.3207],[114.2113,22.3099],[114.2146,22.3096],[114.217,22.3051],[114.2157,22.3029],[114.196,22.3201],[114.1918,22.3135],[114.194,22.309],[114.1932,22.3024],[114.1848,22.2979],[114.1847,22.3028],[114.1759,22.3141],[114.1725,22.3234],[114.1763,22.3322],[114.1763,22.3369],[114.1721,22.3423],[114.1733,22.3482],[114.1797,22.3491],[114.1813,22.3453],[114.1843,22.344],[114.1834,22.3402],[114.186,22.339],[114.1872,22.3331],[114.1902,22.3343],[114.1948,22.3318],[114.2016,22.336],[114.2041,22.3356],[114.2049,22.3259],[114.2028,22.3238],[114.2095,22.3175],[114.2104,22.3158],[114.2093,22.3155]]]]}}]}