{"type":"FeatureCollection","features":[{"type":"Feature","properties":{"GID_2":"HKG.5_1","GID_0":"CHN","COUNTRY":"China","GID_1":"CHN.HKG","NAME_1":"HongKong","NL_NAME_1":"NA","NAME_2":"KwaiTsing","VARNAME_2":"NA","NL_NAME_2":"NA","TYPE_2":"District","ENGTYPE_2":"District","CC_2":"NA","HASC_2":"HK.KI"},"geometry":{"type":"MultiPolygon","coordinates":[[[[114.1004,22.3637],[114.1085,22.3613],[114.1082,22.3557],[114.1126,22.3487],[114.1115,22.3443],[114.1137,22.3418],[114.1146,22.3371],[114.1087,22.3251],[114.1049,22.3279],[114.101,22.3268],[114.0982,22.3296],[114.0951,22.3288],[114.0954,22.326],[114.0921,22.3257],[114.0885,22.3304],[114.091,22.3362],[114.0904,22.3376],[114.089,22.3371],[114.0901,22.3382],[114.089,22.3421],[114.0907,22.3424],[114.0851,22.3437],[114.084,22.3479],[114.0818,22.3479],[114.081,22.3501],[114.0818,22.3535],[114.0796,22.359],[114.0865,22.3618],[114.0874,22.3637],[114.0893,22.3635],[114.0904,22.3613],[114.1004,22.3637]]],[[[114.1489,22.3787],[114.1443,22.3739],[114.1468,22.371],[114.1439,22.3676],[114.1456,22.3638],[114.1409,22.3583],[114.1418,22.3499],[114.1447,22.3486],[114.1477,22.3427],[114.1451,22.3406],[114.135,22.3423],[114.1333,22.3402],[114.1308,22.3402],[114.1317,22.3385],[114.1355,22.3377],[114.1356,22.3345],[114.1401,22.3335],[114.1403,22.3304],[114.1307,22.3211],[114.1327,22.3176],[114.1282,22.3168],[114.1224,22.3204],[114.1215,22.3229],[114.1226,22.3249],[114.1346,22.3276],[114.1343,22.3293],[114.1257,22.3288],[114.124,22.336],[114.1288,22.3371],[114.1285,22.3385],[114.1232,22.3374],[114.1196,22.3476],[114.1174,22.3468],[114.1143,22.3493],[114.1146,22.356],[114.111,22.3604],[114.1199,22.3655],[114.1241,22.3718],[114.1361,22.3726],[114.1371,22.3798],[114.135,22.3827],[114.1439,22.3849],[114.1439,22.3794],[114.1489,22.3802],[114.1489,22.3787]]]]}}]}