{"type":"FeatureCollection","features":[{"type":"Feature","properties":{"GID_2":"HKG.6_1","GID_0":"CHN","COUNTRY":"China","GID_1":"CHN.HKG","NAME_1":"HongKong","NL_NAME_1":"NA","NAME_2":"KwunTong","VARNAME_2":"NA","NL_NAME_2":"NA","TYPE_2":"District","ENGTYPE_2":"District","CC_2":"NA","HASC_2":"HK.KU"},"geometry":{"type":"MultiPolygon","coordinates":[[[[114.2093,22.3155],[114.2104,22.3158],[114.2095,22.3175],[114.2028,22.3238],[114.2049,22.3259],[114.2049,22.3348],[114.2112,22.3352],[114.2142,22.3326],[114.2289,22.3343],[114.2344,22.3225],[114.2394,22.3204],[114.2432,22.3213],[114.2403,22.3158],[114.2449,22.3137],[114.2394,22.3074],[114.2403,22.3049],[114.2437,22.3028],[114.2449,22.299],[114.2453,22.2952],[114.242,22.296],[114.2411,22.2948],[114.2424,22.2905],[114.2407,22.2884],[114.2438,22.286],[114.2376,22.2865],[114.2371,22.2901],[114.2176,22.3093],[114.2171,22.3115],[114.2101,22.3132],[114.2093,22.3155]]]]}}]}