{"type":"FeatureCollection","features":[{"type":"Feature","properties":{"GID_2":"HKG.7_1","GID_0":"CHN","COUNTRY":"China","GID_1":"CHN.HKG","NAME_1":"HongKong","NL_NAME_1":"NA","NAME_2":"North","VARNAME_2":"<Null>","NL_NAME_2":"NA","TYPE_2":"District","ENGTYPE_2":"District","CC_2":"NA","HASC_2":"HK.NO"},"geometry":{"type":"MultiPolygon","coordinates":[[[[114.1885,22.5555],[114.1919,22.5549],[114.202,22.5579],[114.2049,22.5562],[114.2176,22.5554],[114.2285,22.5478],[114.2268,22.5432],[114.2185,22.5432],[114.2126,22.5337],[114.2093,22.5343],[114.209,22.5249],[114.214,22.5257],[114.216,22.5276],[114.2182,22.5249],[114.2215,22.5307],[114.2257,22.5293],[114.229,22.5315],[114.2293,22.5337],[114.2351,22.5326],[114.2376,22.5357],[114.2421,22.5493],[114.2468,22.5496],[114.2487,22.5449],[114.2501,22.5476],[114.2546,22.5462],[114.2549,22.5496],[114.2576,22.5493],[114.2604,22.5482],[114.2574,22.5443],[114.261,22.5462],[114.2624,22.546],[114.2588,22.544],[114.2562,22.5385],[114.2626,22.5401],[114.2637,22.5388],[114.2618,22.534],[114.264,22.5368],[114.2668,22.5365],[114.2676,22.5349],[114.2671,22.5329],[114.2632,22.531],[114.2632,22.5254],[114.2665,22.5268],[114.2729,22.5257],[114.2746,22.5276],[114.274,22.5299],[114.276,22.5282],[114.2813,22.529],[114.2785,22.5243],[114.2793,22.5226],[114.286,22.5257],[114.2854,22.5224],[114.2799,22.5179],[114.2787,22.5132],[114.2726,22.5168],[114.2726,22.5138],[114.2749,22.5135],[114.2738,22.5099],[114.2751,22.5085],[114.2776,22.5104],[114.2846,22.511],[114.2838,22.5085],[114.2879,22.5085],[114.2893,22.5062],[114.2893,22.5082],[114.2921,22.5088],[114.2943,22.5051],[114.2965,22.5049],[114.2982,22.509],[114.2957,22.5107],[114.2946,22.5124],[114.3015,22.5132],[114.3043,22.5104],[114.3099,22.5182],[114.3087,22.5263],[114.3154,22.5238],[114.3168,22.519],[114.3193,22.519],[114.321,22.516],[114.3165,22.5118],[114.3121,22.5107],[114.3104,22.5082],[114.3051,22.509],[114.3035,22.5062],[114.2976,22.5038],[114.2985,22.5024],[114.3046,22.4993],[114.3093,22.5026],[114.3268,22.5062],[114.3332,22.511],[114.3346,22.5095],[114.3274,22.5032],[114.3232,22.5027],[114.3026,22.4893],[114.2946,22.4914],[114.2845,22.4977],[114.271,22.4973],[114.2639,22.4935],[114.2516,22.4939],[114.2424,22.5027],[114.242,22.5048],[114.239,22.5036],[114.2386,22.5002],[114.2323,22.4977],[114.2289,22.4926],[114.226,22.4918],[114.2243,22.4872],[114.2201,22.4901],[114.2133,22.4914],[114.2079,22.4905],[114.1961,22.4935],[114.1944,22.4952],[114.1843,22.4964],[114.1754,22.4922],[114.1721,22.4846],[114.1683,22.4872],[114.1645,22.4863],[114.1641,22.4905],[114.1527,22.4893],[114.1515,22.4867],[114.154,22.4804],[114.151,22.4813],[114.1468,22.4758],[114.1333,22.4686],[114.1216,22.4661],[114.114,22.472],[114.1077,22.4699],[114.103,22.4703],[114.0967,22.4674],[114.0891,22.4669],[114.0891,22.4808],[114.0929,22.4926],[114.09,22.4981],[114.0917,22.5002],[114.0896,22.5065],[114.0896,22.509],[114.0929,22.5112],[114.0904,22.5158],[114.0917,22.5213],[114.0883,22.5229],[114.0845,22.52],[114.0866,22.5259],[114.0807,22.5314],[114.0879,22.5339],[114.0912,22.5377],[114.0942,22.5377],[114.0979,22.5348],[114.103,22.5356],[114.1026,22.5326],[114.1039,22.5322],[114.1098,22.5368],[114.1115,22.5309],[114.114,22.5301],[114.1173,22.533],[114.1173,22.5351],[114.1216,22.5351],[114.1237,22.5368],[114.1232,22.5385],[114.127,22.541],[114.1291,22.5402],[114.1312,22.5423],[114.1414,22.5444],[114.1456,22.5419],[114.1493,22.5427],[114.1493,22.5448],[114.1536,22.5478],[114.151,22.5503],[114.1531,22.5549],[114.1578,22.5554],[114.1586,22.5596],[114.1616,22.5621],[114.1645,22.56],[114.1675,22.5617],[114.1725,22.5604],[114.1771,22.5613],[114.1792,22.5566],[114.1885,22.5555]]],[[[114.2868,22.5207],[114.2888,22.5204],[114.2888,22.5193],[114.2851,22.5196],[114.2851,22.5213],[114.2868,22.5207]]],[[[114.2265,22.5393],[114.2271,22.5379],[114.2249,22.536],[114.2215,22.5379],[114.2265,22.5393]]],[[[114.2935,22.5546],[114.294,22.5513],[114.3168,22.5501],[114.3115,22.5468],[114.3082,22.5485],[114.3079,22.5468],[114.3054,22.5471],[114.3037,22.5443],[114.2982,22.5488],[114.2946,22.5471],[114.294,22.544],[114.2971,22.5432],[114.2988,22.5393],[114.3029,22.5363],[114.3054,22.5368],[114.304,22.5318],[114.2996,22.5324],[114.2993,22.5357],[114.2949,22.5335],[114.2854,22.5332],[114.2876,22.5385],[114.294,22.5393],[114.2862,22.5468],[114.2896,22.5488],[114.2876,22.551],[114.2879,22.5535],[114.2899,22.5551],[114.2935,22.5546]]],[[[114.3204,22.5365],[114.3215,22.5315],[114.3201,22.5271],[114.3218,22.5246],[114.3207,22.5232],[114.3187,22.5229],[114.3182,22.5246],[114.3154,22.5246],[114.3082,22.5287],[114.309,22.5351],[114.3124,22.5337],[114.3146,22.5293],[114.3165,22.529],[114.3182,22.5318],[114.3176,22.5365],[114.3204,22.5365]]],[[[114.3093,22.5415],[114.3104,22.5399],[114.3051,22.5374],[114.3057,22.5413],[114.3093,22.5415]]],[[[114.331,22.5421],[114.3318,22.541],[114.3301,22.5393],[114.329,22.5421],[114.331,22.5421]]]]}}]}