{"type":"FeatureCollection","features":[{"type":"Feature","properties":{"GID_2":"HKG.10_1","GID_0":"CHN","COUNTRY":"China","GID_1":"CHN.HKG","NAME_1":"HongKong","NL_NAME_1":"NA","NAME_2":"ShamShuiPo","VARNAME_2":"NA","NL_NAME_2":"NA","TYPE_2":"District","ENGTYPE_2":"District","CC_2":"NA","HASC_2":"HK.SS"},"geometry":{"type":"MultiPolygon","coordinates":[[[[114.1729,22.347],[114.1721,22.3423],[114.1763,22.3369],[114.1742,22.3272],[114.1616,22.328],[114.1619,22.3259],[114.1569,22.3229],[114.154,22.3263],[114.1518,22.3229],[114.1443,22.3271],[114.1429,22.3249],[114.1468,22.3215],[114.1435,22.3185],[114.1432,22.3154],[114.1399,22.3179],[114.1327,22.3176],[114.1307,22.3211],[114.1392,22.3279],[114.1401,22.3335],[114.1356,22.3345],[114.1355,22.3377],[114.1317,22.3385],[114.1308,22.3402],[114.1333,22.3402],[114.135,22.3423],[114.1451,22.3406],[114.1477,22.3427],[114.1466,22.3446],[114.1498,22.3453],[114.151,22.3474],[114.1586,22.3457],[114.1628,22.3491],[114.1653,22.347],[114.1729,22.347]]]]}}]}