{"type":"FeatureCollection","features":[{"type":"Feature","properties":{"GID_2":"HKG.9_1","GID_0":"CHN","COUNTRY":"China","GID_1":"CHN.HKG","NAME_1":"HongKong","NL_NAME_1":"NA","NAME_2":"ShaTin","VARNAME_2":"NA","NL_NAME_2":"NA","TYPE_2":"District","ENGTYPE_2":"District","CC_2":"NA","HASC_2":"HK.ST"},"geometry":{"type":"MultiPolygon","coordinates":[[[[114.1797,22.3491],[114.1742,22.3491],[114.1729,22.347],[114.1679,22.3465],[114.1628,22.3491],[114.1586,22.3457],[114.151,22.3474],[114.1498,22.3453],[114.1472,22.3453],[114.1413,22.3512],[114.1409,22.3583],[114.1451,22.3625],[114.1439,22.3676],[114.1468,22.371],[114.1443,22.3739],[114.1451,22.376],[114.1477,22.3764],[114.151,22.3823],[114.1557,22.3836],[114.167,22.395],[114.1662,22.4004],[114.1679,22.4013],[114.1679,22.4042],[114.1658,22.4088],[114.1662,22.4124],[114.1726,22.413],[114.1748,22.4154],[114.1845,22.4152],[114.1855,22.418],[114.1983,22.4181],[114.2005,22.4258],[114.2032,22.4231],[114.204,22.4263],[114.2073,22.426],[114.2085,22.4274],[114.2121,22.4237],[114.2154,22.4237],[114.2135,22.4118],[114.2174,22.4074],[114.1971,22.3874],[114.1882,22.3774],[114.1896,22.3768],[114.2188,22.4068],[114.2215,22.4071],[114.2207,22.4101],[114.2229,22.4193],[114.2268,22.4271],[114.2307,22.4285],[114.2337,22.4274],[114.2387,22.4315],[114.2371,22.4363],[114.239,22.436],[114.2401,22.4376],[114.2429,22.4374],[114.2449,22.4351],[114.2479,22.4354],[114.2449,22.4338],[114.2443,22.4315],[114.2483,22.4316],[114.247,22.4278],[114.2491,22.427],[114.2491,22.4227],[114.2474,22.4143],[114.2512,22.4122],[114.2512,22.4072],[114.2538,22.4021],[114.2521,22.3987],[114.2521,22.3907],[114.2538,22.3878],[114.2462,22.3878],[114.247,22.3853],[114.2394,22.3764],[114.2331,22.3726],[114.226,22.371],[114.2226,22.3646],[114.223,22.3596],[114.2176,22.3596],[114.2133,22.3583],[114.2129,22.3566],[114.2074,22.3558],[114.1994,22.3562],[114.1973,22.3529],[114.1919,22.3541],[114.1914,22.3508],[114.1834,22.3508],[114.1797,22.3491]]]]}}]}