{"type":"FeatureCollection","features":[{"type":"Feature","properties":{"GID_2":"HKG.11_1","GID_0":"CHN","COUNTRY":"China","GID_1":"CHN.HKG","NAME_1":"HongKong","NL_NAME_1":"NA","NAME_2":"Southern","VARNAME_2":"NA","NL_NAME_2":"NA","TYPE_2":"District","ENGTYPE_2":"District","CC_2":"NA","HASC_2":"HK.SO"},"geometry":{"type":"MultiPolygon","coordinates":[[[[114.1851,22.2174],[114.1876,22.2162],[114.1879,22.2138],[114.1843,22.2138],[114.1832,22.2174],[114.1851,22.2174]]],[[[114.1876,22.2363],[114.1896,22.2351],[114.1879,22.2326],[114.1837,22.2318],[114.1815,22.2343],[114.1821,22.236],[114.1876,22.2363]]],[[[114.1588,22.2446],[114.1618,22.2401],[114.1601,22.2337],[114.1618,22.2329],[114.1624,22.2285],[114.1596,22.2301],[114.1585,22.2343],[114.1537,22.2354],[114.1526,22.2385],[114.1479,22.2388],[114.1454,22.2432],[114.1474,22.2451],[114.1579,22.2457],[114.1588,22.2446]]],[[[114.2593,22.2263],[114.2588,22.2246],[114.2557,22.2257],[114.2562,22.2265],[114.2593,22.2263]]],[[[114.1197,22.2733],[114.1312,22.275],[114.1355,22.2724],[114.146,22.2548],[114.1515,22.2577],[114.1531,22.2611],[114.1586,22.259],[114.1637,22.2607],[114.1704,22.2573],[114.1759,22.2561],[114.1793,22.2577],[114.186,22.2552],[114.1982,22.2588],[114.2146,22.2611],[114.2205,22.2577],[114.2285,22.2573],[114.231,22.2548],[114.2382,22.2569],[114.247,22.2535],[114.2505,22.2471],[114.2471,22.2465],[114.2471,22.2446],[114.2513,22.2415],[114.251,22.239],[114.254,22.236],[114.2521,22.2315],[114.2607,22.231],[114.2593,22.2288],[114.2515,22.229],[114.2504,22.2276],[114.2551,22.2207],[114.2551,22.2107],[114.259,22.2113],[114.2615,22.2088],[114.261,22.204],[114.2585,22.2049],[114.2599,22.2074],[114.2465,22.2062],[114.2421,22.2082],[114.2418,22.2176],[114.2387,22.2179],[114.2351,22.2224],[114.2365,22.2265],[114.2337,22.2351],[114.2346,22.2385],[114.231,22.2412],[114.2263,22.2404],[114.2251,22.2454],[114.2235,22.2463],[114.2235,22.241],[114.229,22.2379],[114.2299,22.2301],[114.2263,22.229],[114.2235,22.2324],[114.2215,22.2293],[114.2182,22.2288],[114.2149,22.2196],[114.2229,22.2149],[114.2226,22.2118],[114.2213,22.2121],[114.2188,22.2085],[114.2246,22.1974],[114.2218,22.1949],[114.2135,22.194],[114.2113,22.1968],[114.2113,22.2088],[114.2143,22.2118],[114.2143,22.2149],[114.2107,22.2179],[114.2071,22.2157],[114.206,22.2124],[114.2018,22.2126],[114.2004,22.2104],[114.1971,22.2101],[114.1974,22.2154],[114.2018,22.2171],[114.2004,22.221],[114.1935,22.2237],[114.1935,22.2249],[114.1976,22.2246],[114.1963,22.229],[114.1979,22.2299],[114.1979,22.2337],[114.1954,22.2376],[114.1907,22.2354],[114.1882,22.2371],[114.1862,22.2404],[114.1874,22.2446],[114.1793,22.2443],[114.1746,22.2368],[114.1732,22.2304],[114.1715,22.2296],[114.1663,22.2329],[114.1668,22.2357],[114.1654,22.2363],[114.1638,22.2418],[114.1618,22.2424],[114.1607,22.2465],[114.1357,22.2482],[114.1318,22.2524],[114.1312,22.2568],[114.1288,22.2585],[114.1224,22.2707],[114.1182,22.2729],[114.1197,22.2733]]]]}}]}