{"type":"FeatureCollection","features":[{"type":"Feature","properties":{"GID_2":"HKG.8_1","GID_0":"CHN","COUNTRY":"China","GID_1":"CHN.HKG","NAME_1":"HongKong","NL_NAME_1":"NA","NAME_2":"SaiKung","VARNAME_2":"<Null>","NL_NAME_2":"NA","TYPE_2":"District","ENGTYPE_2":"District","CC_2":"NA","HASC_2":"HK.SK"},"geometry":{"type":"MultiPolygon","coordinates":[[[[114.2982,22.256],[114.2968,22.2524],[114.299,22.2485],[114.2968,22.2465],[114.2957,22.2412],[114.291,22.2421],[114.2904,22.2385],[114.2879,22.2374],[114.2865,22.2385],[114.2879,22.2407],[114.2871,22.2418],[114.2801,22.2446],[114.2799,22.2496],[114.2832,22.2535],[114.2857,22.2549],[114.2888,22.2538],[114.2888,22.2551],[114.2957,22.259],[114.296,22.2568],[114.2982,22.256]]],[[[114.296,22.3312],[114.3024,22.3257],[114.3018,22.3218],[114.2943,22.324],[114.2926,22.3279],[114.2932,22.3312],[114.296,22.3312]]],[[[114.2424,22.2859],[114.2407,22.2884],[114.2424,22.2905],[114.2411,22.2948],[114.242,22.296],[114.2453,22.2952],[114.2453,22.2964],[114.2437,22.3028],[114.2403,22.3049],[114.2394,22.3074],[114.2449,22.3137],[114.2403,22.3158],[114.2432,22.3213],[114.2394,22.3204],[114.2344,22.3225],[114.2289,22.3343],[114.223,22.3339],[114.2213,22.3596],[114.223,22.3596],[114.2226,22.3646],[114.226,22.371],[114.2331,22.3726],[114.2394,22.3764],[114.247,22.3853],[114.2462,22.3878],[114.2538,22.3878],[114.2521,22.3945],[114.2575,22.3987],[114.2723,22.3987],[114.2777,22.4038],[114.2815,22.403],[114.2866,22.4088],[114.2883,22.4156],[114.2921,22.4168],[114.3039,22.4156],[114.3064,22.4173],[114.3051,22.419],[114.3072,22.4219],[114.3064,22.4261],[114.3093,22.4282],[114.3186,22.4265],[114.3232,22.4236],[114.3245,22.4227],[114.322,22.4206],[114.3236,22.4185],[114.3304,22.4147],[114.3346,22.4152],[114.3375,22.419],[114.3388,22.4185],[114.346,22.4105],[114.3518,22.4093],[114.3518,22.4067],[114.3548,22.4059],[114.3657,22.4152],[114.3687,22.4253],[114.3662,22.4278],[114.367,22.432],[114.3641,22.435],[114.3649,22.4421],[114.3674,22.4429],[114.3704,22.4376],[114.3746,22.4376],[114.3768,22.4393],[114.3776,22.4374],[114.3812,22.4365],[114.3868,22.439],[114.3907,22.4387],[114.3924,22.4415],[114.3926,22.4371],[114.3951,22.4385],[114.3965,22.4351],[114.4024,22.436],[114.396,22.429],[114.3982,22.4265],[114.3979,22.4224],[114.3999,22.4201],[114.4035,22.4196],[114.4057,22.4126],[114.399,22.4112],[114.3946,22.4151],[114.3926,22.4201],[114.389,22.4193],[114.3854,22.421],[114.3824,22.4165],[114.3804,22.4171],[114.3782,22.414],[114.3793,22.4093],[114.3763,22.411],[114.3746,22.4093],[114.3749,22.4024],[114.3696,22.3999],[114.3721,22.3963],[114.3757,22.3971],[114.376,22.3985],[114.3785,22.396],[114.3804,22.3963],[114.3821,22.391],[114.384,22.3913],[114.3849,22.389],[114.3874,22.391],[114.3874,22.3893],[114.391,22.3885],[114.3924,22.3774],[114.3879,22.3757],[114.3918,22.3701],[114.3913,22.3657],[114.3887,22.3649],[114.386,22.3662],[114.3826,22.3754],[114.3801,22.3735],[114.3768,22.3754],[114.3754,22.3735],[114.3763,22.3699],[114.3812,22.3671],[114.3815,22.3646],[114.3799,22.3626],[114.3771,22.3629],[114.3751,22.3596],[114.3796,22.3576],[114.3754,22.3574],[114.374,22.3532],[114.3718,22.3532],[114.3715,22.3518],[114.3654,22.3546],[114.3643,22.3524],[114.3679,22.3507],[114.3657,22.3485],[114.3613,22.3518],[114.3599,22.3513],[114.3599,22.3446],[114.3615,22.341],[114.3599,22.3404],[114.3587,22.336],[114.3562,22.3351],[114.3549,22.3365],[114.3546,22.3415],[114.3513,22.3471],[114.3521,22.3543],[114.3496,22.3529],[114.3496,22.3499],[114.3457,22.3501],[114.3435,22.3465],[114.3379,22.354],[114.3415,22.3546],[114.341,22.3565],[114.3343,22.359],[114.3313,22.3624],[114.3337,22.3676],[114.3349,22.3776],[114.3324,22.376],[114.3268,22.3782],[114.3229,22.381],[114.3224,22.3835],[114.3185,22.3815],[114.319,22.3863],[114.3168,22.3835],[114.3146,22.3846],[114.3174,22.3885],[114.3174,22.3924],[114.3187,22.3926],[114.3176,22.3935],[114.3107,22.3924],[114.3087,22.3879],[114.3104,22.3846],[114.3046,22.3838],[114.304,22.3854],[114.3024,22.3854],[114.2988,22.3838],[114.2965,22.389],[114.291,22.3885],[114.2879,22.3943],[114.284,22.3951],[114.2821,22.3926],[114.2785,22.394],[114.2765,22.3893],[114.2776,22.3843],[114.2718,22.3788],[114.274,22.3782],[114.2754,22.3754],[114.2721,22.3701],[114.2732,22.3649],[114.2787,22.3593],[114.2757,22.3504],[114.2732,22.3515],[114.2715,22.3549],[114.2696,22.3546],[114.271,22.3571],[114.2649,22.3568],[114.2654,22.3599],[114.2682,22.361],[114.2699,22.3643],[114.2693,22.3665],[114.2657,22.3668],[114.2663,22.3701],[114.2649,22.3715],[114.2632,22.3671],[114.261,22.3679],[114.2604,22.3621],[114.2576,22.3621],[114.2596,22.3574],[114.2529,22.3546],[114.259,22.3543],[114.2601,22.3568],[114.2663,22.3518],[114.269,22.3513],[114.2663,22.3454],[114.2665,22.341],[114.271,22.3349],[114.2721,22.3235],[114.2765,22.3224],[114.2785,22.3199],[114.2843,22.3218],[114.2876,22.3201],[114.2893,22.3215],[114.2904,22.314],[114.2926,22.3132],[114.291,22.3074],[114.2929,22.3074],[114.2932,22.3046],[114.2954,22.3049],[114.2951,22.3074],[114.2979,22.3099],[114.3037,22.3104],[114.3046,22.3074],[114.3121,22.3007],[114.3121,22.2976],[114.3104,22.2974],[114.311,22.2932],[114.3035,22.2899],[114.3021,22.2868],[114.2949,22.2879],[114.2935,22.2907],[114.2907,22.2907],[114.2885,22.2885],[114.2888,22.286],[114.291,22.2865],[114.2904,22.2843],[114.2879,22.2832],[114.2893,22.2799],[114.2954,22.2796],[114.2965,22.2768],[114.2996,22.2801],[114.3032,22.2799],[114.3007,22.2782],[114.301,22.2754],[114.3043,22.2687],[114.3076,22.2687],[114.3065,22.2651],[114.3037,22.2643],[114.301,22.2663],[114.301,22.2613],[114.299,22.2601],[114.2954,22.2651],[114.2901,22.2674],[114.2896,22.2699],[114.2821,22.2713],[114.2826,22.2687],[114.2799,22.2674],[114.2799,22.2646],[114.2765,22.2615],[114.2729,22.2624],[114.2693,22.2696],[114.2718,22.2721],[114.2751,22.2718],[114.2718,22.274],[114.2732,22.2765],[114.2682,22.2735],[114.2643,22.2754],[114.2671,22.2801],[114.2685,22.2912],[114.266,22.2932],[114.2637,22.3007],[114.2576,22.3015],[114.2571,22.304],[114.2554,22.3037],[114.2562,22.2988],[114.2529,22.2971],[114.2468,22.2904],[114.2474,22.2893],[114.2424,22.2859]]],[[[114.2865,22.3621],[114.2854,22.3632],[114.2876,22.3643],[114.2871,22.364],[114.2865,22.3621]]],[[[114.3568,22.3246],[114.3538,22.321],[114.3535,22.3168],[114.3515,22.3154],[114.3487,22.3163],[114.3485,22.3129],[114.3471,22.3129],[114.346,22.3174],[114.3493,22.3243],[114.3532,22.3238],[114.3549,22.326],[114.3568,22.326],[114.3568,22.3246]]],[[[114.3351,22.3356],[114.3363,22.3343],[114.3349,22.3335],[114.3321,22.3343],[114.3335,22.3376],[114.3351,22.3356]]],[[[114.3087,22.3801],[114.3138,22.3801],[114.3126,22.3765],[114.3174,22.3785],[114.3185,22.3762],[114.3174,22.3721],[114.3207,22.366],[114.3196,22.3613],[114.3279,22.3568],[114.3262,22.3482],[114.324,22.3474],[114.3243,22.3421],[114.3307,22.334],[114.3307,22.3312],[114.3304,22.3276],[114.3285,22.3276],[114.3268,22.3254],[114.3246,22.3268],[114.3196,22.3263],[114.3154,22.3379],[114.3165,22.3421],[114.3185,22.3432],[114.3165,22.3432],[114.3143,22.3457],[114.3124,22.3429],[114.311,22.3432],[114.3071,22.3457],[114.3032,22.3521],[114.306,22.3574],[114.3051,22.3604],[114.3063,22.3618],[114.3043,22.3662],[114.3007,22.3682],[114.3004,22.3804],[114.306,22.3796],[114.3065,22.3749],[114.3082,22.3771],[114.3071,22.3807],[114.3087,22.3801]]],[[[114.324,22.3762],[114.3296,22.3729],[114.3288,22.3662],[114.3271,22.3651],[114.3262,22.3729],[114.3243,22.374],[114.3229,22.3704],[114.3204,22.3726],[114.3207,22.3762],[114.324,22.3762]]],[[[114.2951,22.374],[114.296,22.3729],[114.2946,22.3735],[114.2926,22.3729],[114.2951,22.3668],[114.2976,22.366],[114.2957,22.3626],[114.2974,22.356],[114.2962,22.3526],[114.2949,22.3532],[114.296,22.3565],[114.2929,22.3574],[114.2924,22.3629],[114.2871,22.3671],[114.2901,22.3693],[114.2918,22.3743],[114.2949,22.3754],[114.2951,22.374]]],[[[114.2865,22.374],[114.2854,22.3735],[114.2843,22.3746],[114.2865,22.376],[114.2865,22.374]]],[[[114.2896,22.3782],[114.289,22.3779],[114.2874,22.3799],[114.2893,22.3796],[114.2896,22.3782]]],[[[114.2813,22.381],[114.2829,22.3804],[114.2826,22.3785],[114.279,22.3815],[114.2813,22.381]]],[[[114.3465,22.2546],[114.3476,22.254],[114.3476,22.2529],[114.3454,22.2535],[114.3451,22.2557],[114.3465,22.2546]]],[[[114.3529,22.2604],[114.3529,22.2538],[114.3487,22.2532],[114.3479,22.2576],[114.3507,22.2574],[114.3513,22.261],[114.3529,22.2604]]],[[[114.3515,22.2707],[114.3496,22.264],[114.3449,22.2626],[114.3485,22.2704],[114.3504,22.2718],[114.3515,22.2707]]],[[[114.3151,22.2768],[114.316,22.274],[114.314,22.2732],[114.3118,22.276],[114.3135,22.2776],[114.3151,22.2768]]],[[[114.3701,22.2654],[114.3709,22.2649],[114.371,22.2637],[114.3688,22.2663],[114.3701,22.2654]]],[[[114.3665,22.321],[114.3696,22.316],[114.369,22.3135],[114.3718,22.3121],[114.3707,22.3101],[114.3679,22.3096],[114.3679,22.3063],[114.3643,22.3074],[114.3651,22.3104],[114.3624,22.3121],[114.3607,22.3157],[114.3613,22.3199],[114.3657,22.3224],[114.3665,22.321]]],[[[114.3699,22.3254],[114.3665,22.3249],[114.3662,22.3263],[114.369,22.3271],[114.3699,22.3254]]],[[[114.371,22.3335],[114.3782,22.329],[114.3782,22.3276],[114.3721,22.3279],[114.3699,22.3351],[114.371,22.3335]]],[[[114.3682,22.3388],[114.3662,22.3285],[114.3604,22.3299],[114.361,22.3382],[114.3682,22.3388]]],[[[114.3865,22.4007],[114.3854,22.4007],[114.3851,22.4037],[114.3865,22.4032],[114.3865,22.4007]]],[[[114.4287,22.4651],[114.4282,22.4646],[114.4268,22.4671],[114.4282,22.4671],[114.4287,22.4651]]]]}}]}