{"type":"FeatureCollection","features":[{"type":"Feature","properties":{"GID_2":"HKG.13_1","GID_0":"CHN","COUNTRY":"China","GID_1":"CHN.HKG","NAME_1":"HongKong","NL_NAME_1":"NA","NAME_2":"TsuenWan","VARNAME_2":"NA","NL_NAME_2":"NA","TYPE_2":"District","ENGTYPE_2":"District","CC_2":"NA","HASC_2":"HK.TW"},"geometry":{"type":"MultiPolygon","coordinates":[[[[114.0351,22.314],[114.0139,22.3139],[113.9946,22.3146],[113.9987,22.321],[114.0013,22.3204],[114.0113,22.3249],[114.011,22.3276],[114.0174,22.3296],[114.0193,22.3329],[114.0201,22.3312],[114.0235,22.3324],[114.0221,22.3362],[114.0246,22.3351],[114.0246,22.3332],[114.0204,22.3257],[114.0243,22.3271],[114.0296,22.3338],[114.0385,22.3388],[114.0401,22.3418],[114.0418,22.3424],[114.0437,22.3407],[114.0446,22.3471],[114.049,22.3463],[114.0549,22.3418],[114.0579,22.3354],[114.0546,22.334],[114.0568,22.329],[114.0535,22.3232],[114.0557,22.3207],[114.0535,22.3215],[114.0507,22.3182],[114.0465,22.3185],[114.0449,22.316],[114.0429,22.3168],[114.0382,22.3249],[114.034,22.3251],[114.0365,22.3176],[114.0362,22.314],[114.0351,22.314]]],[[[114.0607,22.3557],[114.0651,22.3557],[114.0618,22.3501],[114.0643,22.349],[114.066,22.3454],[114.059,22.3424],[114.054,22.3496],[114.0571,22.3504],[114.0574,22.3532],[114.0557,22.3538],[114.0565,22.3557],[114.0607,22.3557]]],[[[114.1116,22.3617],[114.1115,22.3618],[114.1119,22.3618],[114.1118,22.3615],[114.1116,22.3617]]],[[[114.1461,22.3791],[114.1439,22.3794],[114.1439,22.3849],[114.135,22.3827],[114.1371,22.3798],[114.1361,22.3726],[114.1241,22.3718],[114.1199,22.3655],[114.1121,22.3618],[114.1115,22.3654],[114.1087,22.3688],[114.1032,22.3712],[114.099,22.3685],[114.0885,22.3654],[114.0829,22.3685],[114.0782,22.369],[114.0732,22.3665],[114.0713,22.3635],[114.0682,22.3629],[114.0632,22.3654],[114.0579,22.3657],[114.0501,22.3618],[114.049,22.3599],[114.0432,22.3607],[114.0388,22.3568],[114.0351,22.3571],[114.0307,22.3549],[114.0263,22.3562],[114.0264,22.3596],[114.034,22.3667],[114.0374,22.3672],[114.039,22.3693],[114.0386,22.3705],[114.0336,22.3705],[114.0323,22.3743],[114.0302,22.3747],[114.0302,22.3781],[114.0348,22.3785],[114.0382,22.3823],[114.0458,22.3798],[114.0449,22.384],[114.0466,22.3865],[114.0534,22.3844],[114.055,22.3861],[114.063,22.3861],[114.0635,22.3899],[114.0689,22.3937],[114.0719,22.3933],[114.0744,22.3975],[114.079,22.3975],[114.0849,22.4025],[114.0921,22.4004],[114.1009,22.408],[114.1064,22.4059],[114.1119,22.4072],[114.1161,22.4114],[114.1216,22.4105],[114.1245,22.4168],[114.1244,22.4153],[114.1288,22.4167],[114.1455,22.416],[114.146,22.4122],[114.1662,22.4124],[114.1658,22.4088],[114.1679,22.4042],[114.1679,22.4013],[114.1662,22.4004],[114.167,22.395],[114.1557,22.3836],[114.1461,22.3791]]]]}}]}