{"type":"FeatureCollection","features":[{"type":"Feature","properties":{"GID_2":"HKG.12_1","GID_0":"CHN","COUNTRY":"China","GID_1":"CHN.HKG","NAME_1":"HongKong","NL_NAME_1":"NA","NAME_2":"TaiPo","VARNAME_2":"NA","NL_NAME_2":"NA","TYPE_2":"District","ENGTYPE_2":"District","CC_2":"NA","HASC_2":"HK.TP"},"geometry":{"type":"MultiPolygon","coordinates":[[[[114.3649,22.4421],[114.3641,22.435],[114.367,22.432],[114.3662,22.4278],[114.3687,22.4253],[114.3657,22.4152],[114.3561,22.4063],[114.3531,22.4059],[114.3518,22.4093],[114.346,22.4105],[114.3388,22.4185],[114.3375,22.419],[114.3346,22.4152],[114.3304,22.4147],[114.3236,22.4185],[114.322,22.4206],[114.3245,22.4227],[114.3232,22.4236],[114.3186,22.4265],[114.3093,22.4282],[114.3064,22.4261],[114.3072,22.4219],[114.3051,22.419],[114.3064,22.4173],[114.3039,22.4156],[114.2933,22.4168],[114.2883,22.4156],[114.2866,22.4088],[114.2815,22.403],[114.2777,22.4038],[114.2723,22.3987],[114.2575,22.3987],[114.2521,22.3945],[114.2538,22.4021],[114.2512,22.4072],[114.2512,22.4122],[114.2474,22.4143],[114.2491,22.427],[114.247,22.4278],[114.2483,22.4316],[114.2458,22.4312],[114.2457,22.4315],[114.2538,22.4351],[114.2557,22.4321],[114.2685,22.4349],[114.2709,22.431],[114.2715,22.424],[114.2682,22.419],[114.2701,22.419],[114.2754,22.411],[114.276,22.419],[114.2824,22.4221],[114.2876,22.4268],[114.2874,22.4287],[114.2849,22.4285],[114.2851,22.4307],[114.281,22.439],[114.2832,22.4429],[114.2779,22.4426],[114.2771,22.4454],[114.2862,22.454],[114.2913,22.4504],[114.2924,22.4588],[114.2954,22.456],[114.2996,22.4565],[114.2999,22.4546],[114.3018,22.4546],[114.3032,22.4571],[114.3021,22.4629],[114.3046,22.4638],[114.3057,22.4682],[114.3087,22.4715],[114.3132,22.4729],[114.3154,22.4765],[114.3201,22.4771],[114.3213,22.4804],[114.3249,22.4768],[114.3235,22.4743],[114.3243,22.4724],[114.3313,22.4735],[114.3315,22.4704],[114.3293,22.4699],[114.3279,22.4618],[114.3315,22.4643],[114.3365,22.4638],[114.336,22.4663],[114.3393,22.471],[114.3374,22.4749],[114.3396,22.4751],[114.3415,22.4793],[114.3479,22.4626],[114.3446,22.4604],[114.3379,22.4626],[114.339,22.4601],[114.3371,22.4546],[114.3388,22.4518],[114.3385,22.4482],[114.3415,22.4471],[114.3418,22.4449],[114.339,22.4401],[114.3343,22.4404],[114.3376,22.4346],[114.3349,22.4282],[114.3382,22.4293],[114.3385,22.4318],[114.3418,22.4318],[114.3418,22.4357],[114.3463,22.4393],[114.3507,22.4282],[114.3504,22.4262],[114.3476,22.4254],[114.3479,22.4238],[114.3493,22.4224],[114.3554,22.4224],[114.3535,22.4251],[114.3551,22.4254],[114.3538,22.4329],[114.3557,22.4396],[114.354,22.4407],[114.3543,22.4385],[114.3529,22.4385],[114.3521,22.4418],[114.3538,22.4471],[114.3524,22.4499],[114.3571,22.4507],[114.3587,22.4529],[114.3618,22.4521],[114.3601,22.4562],[114.3607,22.4613],[114.3676,22.4588],[114.3707,22.4546],[114.3701,22.4504],[114.3671,22.4471],[114.3685,22.4419],[114.3649,22.4421]]],[[[114.2232,22.4396],[114.2224,22.4379],[114.2213,22.4382],[114.2218,22.4413],[114.2232,22.4413],[114.2232,22.4396]]],[[[114.2329,22.4582],[114.2346,22.4563],[114.2318,22.4521],[114.2257,22.4488],[114.2232,22.4499],[114.229,22.4576],[114.2329,22.4582]]],[[[114.1321,22.469],[114.1346,22.469],[114.1468,22.4758],[114.151,22.4813],[114.154,22.4804],[114.1515,22.4867],[114.1527,22.4893],[114.1641,22.4905],[114.1645,22.4863],[114.1683,22.4872],[114.1721,22.4846],[114.1754,22.4922],[114.1843,22.4964],[114.1944,22.4952],[114.1961,22.4935],[114.2079,22.4905],[114.2133,22.4914],[114.2201,22.4901],[114.2243,22.4872],[114.226,22.4918],[114.2289,22.4926],[114.2323,22.4977],[114.2386,22.5002],[114.239,22.5036],[114.242,22.5048],[114.2424,22.5027],[114.2516,22.4939],[114.2639,22.4935],[114.271,22.4973],[114.2845,22.4977],[114.2946,22.4914],[114.3026,22.4893],[114.3232,22.5027],[114.3274,22.5032],[114.3312,22.5057],[114.3346,22.5095],[114.334,22.511],[114.3368,22.5088],[114.3343,22.5054],[114.3254,22.4999],[114.3151,22.4888],[114.309,22.4882],[114.3079,22.4863],[114.3093,22.4846],[114.3076,22.4832],[114.2954,22.4787],[114.2935,22.476],[114.2801,22.4704],[114.2735,22.4707],[114.2721,22.469],[114.2743,22.4688],[114.2735,22.4671],[114.2626,22.4615],[114.2546,22.4526],[114.251,22.4535],[114.2471,22.4499],[114.2474,22.4551],[114.2326,22.4679],[114.231,22.4718],[114.2188,22.4674],[114.2171,22.4676],[114.2157,22.4721],[114.2138,22.4721],[114.2096,22.4674],[114.2087,22.4599],[114.2243,22.4549],[114.2243,22.4535],[114.2201,22.4529],[114.2174,22.456],[114.2151,22.454],[114.2215,22.4507],[114.221,22.4485],[114.2171,22.4493],[114.2176,22.4476],[114.2162,22.4468],[114.2149,22.4488],[114.2101,22.449],[114.2113,22.4524],[114.206,22.4518],[114.2054,22.4549],[114.2082,22.456],[114.2026,22.4579],[114.2024,22.4593],[114.1988,22.4568],[114.1988,22.4535],[114.1937,22.4507],[114.1826,22.4526],[114.1807,22.4493],[114.1785,22.4488],[114.1779,22.4468],[114.1796,22.4444],[114.184,22.4429],[114.1862,22.4401],[114.1951,22.4404],[114.1985,22.4371],[114.2024,22.4363],[114.2032,22.4335],[114.2021,22.4318],[114.2046,22.4287],[114.2084,22.4274],[114.2073,22.426],[114.204,22.4263],[114.2032,22.4231],[114.2005,22.4258],[114.1983,22.4181],[114.1855,22.418],[114.1845,22.4152],[114.1748,22.4154],[114.1726,22.413],[114.1605,22.4129],[114.1571,22.4115],[114.146,22.4122],[114.1455,22.416],[114.1288,22.4167],[114.1244,22.4153],[114.124,22.4207],[114.1164,22.4296],[114.1156,22.435],[114.1115,22.4434],[114.1262,22.4632],[114.1275,22.4669],[114.1321,22.469]]],[[[114.2221,22.4632],[114.2237,22.4601],[114.221,22.4599],[114.2199,22.4621],[114.2221,22.4632]]],[[[114.3621,22.486],[114.3651,22.4829],[114.364,22.4793],[114.3679,22.4749],[114.3637,22.4707],[114.364,22.4671],[114.3601,22.4649],[114.3579,22.4663],[114.3579,22.4749],[114.3549,22.4757],[114.3532,22.4807],[114.3587,22.4863],[114.3621,22.486]]],[[[114.3321,22.4804],[114.3318,22.4768],[114.3307,22.4765],[114.3307,22.481],[114.3321,22.4804]]],[[[114.3718,22.4824],[114.3701,22.4829],[114.3699,22.484],[114.3726,22.4832],[114.3718,22.4824]]],[[[114.3613,22.5046],[114.3649,22.5049],[114.3651,22.5035],[114.3624,22.5021],[114.3607,22.496],[114.3576,22.496],[114.3551,22.4996],[114.3571,22.501],[114.3562,22.5038],[114.3613,22.5046]]],[[[114.4304,22.5526],[114.4307,22.5454],[114.436,22.5413],[114.441,22.5413],[114.439,22.5379],[114.434,22.5374],[114.426,22.5421],[114.424,22.5485],[114.4257,22.5515],[114.4304,22.5526]]]]}}]}