{"type":"FeatureCollection","features":[{"type":"Feature","properties":{"GID_2":"HKG.14_1","GID_0":"CHN","COUNTRY":"China","GID_1":"CHN.HKG","NAME_1":"HongKong","NL_NAME_1":"NA","NAME_2":"TuenMun","VARNAME_2":"NA","NL_NAME_2":"NA","TYPE_2":"District","ENGTYPE_2":"District","CC_2":"NA","HASC_2":"HK.TM"},"geometry":{"type":"MultiPolygon","coordinates":[[[[113.9662,22.334],[113.9662,22.3326],[113.969,22.3318],[113.9674,22.3288],[113.9646,22.3293],[113.9649,22.3335],[113.9662,22.334]]],[[[113.9826,22.3404],[113.9835,22.339],[113.9804,22.334],[113.9821,22.3412],[113.9826,22.3404]]],[[[114.0632,22.3891],[114.063,22.3861],[114.055,22.3861],[114.0534,22.3844],[114.0466,22.3865],[114.0449,22.384],[114.0458,22.3798],[114.0382,22.3823],[114.0348,22.3785],[114.0302,22.3781],[114.0302,22.3747],[114.0323,22.3743],[114.0336,22.3705],[114.0386,22.3705],[114.039,22.3693],[114.0374,22.3672],[114.034,22.3667],[114.0264,22.3596],[114.0271,22.3549],[114.0204,22.3557],[114.0143,22.3629],[114.011,22.3618],[114.0099,22.3654],[113.9993,22.3618],[113.9957,22.3646],[113.9926,22.3649],[113.9918,22.3679],[113.9893,22.3699],[113.9868,22.3643],[113.9818,22.3629],[113.9793,22.3654],[113.9799,22.3607],[113.9771,22.3607],[113.9763,22.3643],[113.9699,22.3688],[113.9679,22.3688],[113.9685,22.3643],[113.9671,22.3635],[113.9626,22.3626],[113.9596,22.3657],[113.9607,22.3596],[113.9632,22.3582],[113.9613,22.3565],[113.9596,22.359],[113.956,22.3601],[113.9571,22.3551],[113.956,22.3546],[113.9557,22.3571],[113.9518,22.356],[113.9479,22.3599],[113.946,22.3587],[113.9418,22.3615],[113.941,22.3657],[113.9388,22.3679],[113.934,22.3613],[113.934,22.3685],[113.9315,22.3688],[113.9265,22.366],[113.9204,22.369],[113.9196,22.3738],[113.9176,22.3715],[113.9149,22.3776],[113.9199,22.381],[113.9201,22.3899],[113.9149,22.3924],[113.9138,22.3968],[113.9151,22.4004],[113.9135,22.4024],[113.9032,22.4046],[113.9015,22.4063],[113.9071,22.4135],[113.9132,22.4179],[113.9143,22.4218],[113.9224,22.424],[113.9287,22.4232],[113.9383,22.4268],[113.9388,22.4198],[113.9452,22.427],[113.9485,22.4337],[113.9692,22.4333],[113.9704,22.4312],[113.9856,22.4303],[113.9953,22.4328],[113.9936,22.4265],[113.9965,22.4227],[114.0058,22.4227],[114.0062,22.4164],[114.0108,22.4147],[114.0113,22.4059],[114.05,22.4059],[114.0508,22.4093],[114.0584,22.4093],[114.0588,22.4059],[114.0559,22.4042],[114.0559,22.3979],[114.0647,22.3971],[114.0632,22.3891]]],[[[113.8885,22.3471],[113.8904,22.3463],[113.8913,22.3474],[113.8918,22.346],[113.8904,22.3421],[113.8863,22.3476],[113.8885,22.3471]]],[[[113.8862,22.3524],[113.8874,22.3538],[113.8887,22.3529],[113.886,22.3507],[113.8862,22.3524]]],[[[113.8801,22.3815],[113.8854,22.3796],[113.8826,22.3696],[113.8801,22.3704],[113.8818,22.3774],[113.8771,22.3796],[113.8771,22.3821],[113.8801,22.3815]]],[[[113.9385,22.4271],[113.9383,22.4269],[113.9383,22.4268],[113.9382,22.4271],[113.9385,22.4271]]]]}}]}