{"type":"FeatureCollection","features":[{"type":"Feature","properties":{"GID_2":"HKG.15_1","GID_0":"CHN","COUNTRY":"China","GID_1":"CHN.HKG","NAME_1":"HongKong","NL_NAME_1":"NA","NAME_2":"WanChai","VARNAME_2":"NA","NL_NAME_2":"NA","TYPE_2":"District","ENGTYPE_2":"District","CC_2":"NA","HASC_2":"HK.WC"},"geometry":{"type":"MultiPolygon","coordinates":[[[[114.1637,22.2607],[114.1658,22.2641],[114.1666,22.2733],[114.1683,22.275],[114.167,22.2815],[114.1712,22.2818],[114.1715,22.2849],[114.1746,22.2849],[114.1754,22.2826],[114.1854,22.2828],[114.1874,22.2807],[114.1923,22.283],[114.1979,22.2738],[114.2016,22.2775],[114.2068,22.2726],[114.2065,22.2703],[114.1992,22.265],[114.1982,22.2586],[114.1957,22.2577],[114.186,22.2552],[114.1793,22.2577],[114.1759,22.2561],[114.1637,22.2607]]]]}}]}