{"type":"FeatureCollection","features":[{"type":"Feature","properties":{"GID_2":"HKG.16_1","GID_0":"CHN","COUNTRY":"China","GID_1":"CHN.HKG","NAME_1":"HongKong","NL_NAME_1":"NA","NAME_2":"WongTaiSin","VARNAME_2":"NA","NL_NAME_2":"NA","TYPE_2":"District","ENGTYPE_2":"District","CC_2":"NA","HASC_2":"HK.WT"},"geometry":{"type":"MultiPolygon","coordinates":[[[[114.2049,22.3348],[114.2016,22.336],[114.1948,22.3318],[114.1902,22.3343],[114.1872,22.3331],[114.186,22.339],[114.1834,22.3402],[114.1843,22.344],[114.1813,22.3453],[114.1797,22.3491],[114.1834,22.3508],[114.1914,22.3508],[114.1919,22.3541],[114.1973,22.3529],[114.1994,22.3562],[114.2104,22.3562],[114.2129,22.3566],[114.2133,22.3583],[114.2213,22.3596],[114.223,22.3339],[114.2142,22.3326],[114.2112,22.3352],[114.2049,22.3348]]]]}}]}