{"type":"FeatureCollection","features":[{"type":"Feature","properties":{"GID_2":"HKG.18_1","GID_0":"CHN","COUNTRY":"China","GID_1":"CHN.HKG","NAME_1":"HongKong","NL_NAME_1":"NA","NAME_2":"YuenLong","VARNAME_2":"NA","NL_NAME_2":"NA","TYPE_2":"District","ENGTYPE_2":"District","CC_2":"NA","HASC_2":"HK.YL"},"geometry":{"type":"MultiPolygon","coordinates":[[[[114.0297,22.4957],[114.0386,22.5044],[114.042,22.5057],[114.0483,22.504],[114.0555,22.5044],[114.0584,22.5074],[114.0597,22.5137],[114.0639,22.517],[114.0736,22.5191],[114.0782,22.5162],[114.0883,22.5229],[114.0917,22.5213],[114.0904,22.5158],[114.0929,22.5112],[114.0896,22.509],[114.0896,22.5065],[114.0917,22.5002],[114.09,22.4981],[114.0929,22.4926],[114.0891,22.4808],[114.0891,22.4669],[114.0967,22.4674],[114.103,22.4703],[114.1077,22.4699],[114.114,22.472],[114.1216,22.4661],[114.1275,22.4669],[114.1262,22.4632],[114.1115,22.4434],[114.1156,22.435],[114.1164,22.4296],[114.1241,22.4204],[114.1241,22.4143],[114.1216,22.4105],[114.1161,22.4114],[114.1119,22.4072],[114.1064,22.4059],[114.1035,22.408],[114.0997,22.4076],[114.0921,22.4004],[114.0849,22.4025],[114.079,22.3975],[114.0744,22.3975],[114.0719,22.3933],[114.0689,22.3937],[114.0643,22.3907],[114.0647,22.3971],[114.0559,22.3979],[114.0559,22.4042],[114.0588,22.4059],[114.0584,22.4093],[114.0508,22.4093],[114.05,22.4059],[114.0113,22.4059],[114.0108,22.4147],[114.0062,22.4164],[114.0058,22.4227],[113.9965,22.4227],[113.9936,22.4265],[113.9953,22.4328],[113.9856,22.4303],[113.9704,22.4312],[113.9692,22.4333],[113.9485,22.4337],[113.9452,22.427],[113.9388,22.4198],[113.9385,22.4274],[113.9457,22.4315],[113.9468,22.4376],[113.9532,22.4438],[113.9535,22.4476],[113.9651,22.4538],[113.9704,22.4543],[113.9768,22.4576],[113.9818,22.4688],[113.9924,22.4776],[113.9957,22.4865],[113.9996,22.4901],[114.0118,22.4868],[114.011,22.4785],[114.0088,22.4785],[114.0074,22.4718],[114.0093,22.4726],[114.0146,22.466],[114.021,22.4688],[114.0179,22.4713],[114.0204,22.474],[114.0254,22.4751],[114.0287,22.4724],[114.0282,22.4643],[114.0296,22.4688],[114.0324,22.4693],[114.0443,22.4632],[114.0437,22.4657],[114.0332,22.4707],[114.0235,22.4799],[114.0165,22.476],[114.0146,22.4679],[114.014,22.4729],[114.0096,22.476],[114.014,22.476],[114.0154,22.479],[114.0251,22.4835],[114.0246,22.4879],[114.0297,22.4957]]]]}}]}