{"type":"FeatureCollection","features":[{"type":"Feature","properties":{"GID_2":"HKG.17_1","GID_0":"CHN","COUNTRY":"China","GID_1":"CHN.HKG","NAME_1":"HongKong","NL_NAME_1":"NA","NAME_2":"YauTsimMong","VARNAME_2":"NA","NL_NAME_2":"NA","TYPE_2":"District","ENGTYPE_2":"District","CC_2":"NA","HASC_2":"HK.YT"},"geometry":{"type":"MultiPolygon","coordinates":[[[[114.1742,22.3272],[114.1725,22.3234],[114.1733,22.3204],[114.1759,22.3141],[114.1847,22.3028],[114.1849,22.2976],[114.1832,22.2962],[114.1796,22.2982],[114.1746,22.2924],[114.1693,22.2926],[114.1651,22.2943],[114.1676,22.2954],[114.1674,22.2974],[114.1654,22.2974],[114.1654,22.2996],[114.1668,22.2999],[114.1663,22.3043],[114.156,22.2993],[114.1549,22.3149],[114.1579,22.316],[114.1524,22.3226],[114.1523,22.3246],[114.154,22.3263],[114.1569,22.3229],[114.1619,22.3259],[114.1616,22.328],[114.1742,22.3272]]]]}}]}