{"type": "FeatureCollection", "features": [{"type": "Feature", "geometry": {"type": "Polygon", "coordinates": [[[-17.436101, 14.683151], [-17.441212, 14.694725], [-17.440687, 14.699032], [-17.438875, 14.721531], [-17.452666, 14.714403], [-17.453919, 14.715108], [-17.455524, 14.715067], [-17.45691, 14.713381], [-17.456118, 14.711975], [-17.460767, 14.706749], [-17.452045, 14.696958], [-17.448323, 14.69254], [-17.444489, 14.680562], [-17.447097, 14.678145], [-17.442289, 14.67276], [-17.444228, 14.671454], [-17.452418, 14.675056], [-17.452882, 14.673826], [-17.446832, 14.670009], [-17.446414, 14.659502], [-17.430102, 14.640789], [-17.42837, 14.664997], [-17.411038, 14.67177], [-17.436101, 14.683151]]]}, "properties": {}}]}