{"type": "FeatureCollection", "features": [{"type": "Feature", "properties": {}, "geometry": {"type": "Polygon", "coordinates": [[[31.370006, -26.4975], [31.364249, -26.497411], [31.364192, -26.498128], [31.37022, -26.498497], [31.372576, -26.499666], [31.373561, -26.501352], [31.37537, -26.504648], [31.379554, -26.503033], [31.378529, -26.500221], [31.38422, -26.498095], [31.383053, -26.495623], [31.387636, -26.493975], [31.389113, -26.493227], [31.387032, -26.492475], [31.38245, -26.494181], [31.38184, -26.493069], [31.375555, -26.495484], [31.370006, -26.4975]]]}}]}