{"type": "FeatureCollection", "features": [{"type": "Feature", "properties": {}, "geometry": {"type": "Polygon", "coordinates": [[[-77.146034, -12.052132], [-77.176576, -12.068789], [-77.168694, -12.079765], [-77.145585, -12.069742], [-77.124093, -12.075777], [-77.117218, -12.065987], [-77.112799, -12.065077], [-77.078013, -12.060998], [-77.076101, -12.045985], [-77.105142, -12.048139], [-77.126632, -12.043225], [-77.146034, -12.052132]]]}}, {"type": "Feature", "properties": {}, "geometry": {"type": "Polygon", "coordinates": [[[-77.051552, -12.043195], [-77.050859, -12.050174], [-77.042806, -12.051464], [-77.042784, -12.059149], [-77.057826, -12.078947], [-77.041519, -12.076935], [-77.029014, -12.074857], [-77.034454, -12.059731], [-77.037832, -12.048634], [-77.042328, -12.042093], [-77.051552, -12.043195]]]}}]}