{"type": "FeatureCollection", "features": [{"type": "Feature", "geometry": {"type": "Polygon", "coordinates": [[[-57.640323, -25.275688], [-57.648074, -25.286894], [-57.626058, -25.29973], [-57.613445, -25.305533], [-57.594782, -25.309949], [-57.589504, -25.291268], [-57.576873, -25.29656], [-57.570471, -25.287118], [-57.559837, -25.283449], [-57.549804, -25.277632], [-57.552004, -25.275849], [-57.572822, -25.282923], [-57.604051, -25.287224], [-57.623649, -25.283798], [-57.640323, -25.275688]]]}, "properties": {}}]}