{"type":"FeatureCollection","features":[{"type":"Feature","geometry":{"type":"Polygon","coordinates":[[[-58.384114,-34.585798],[-58.383466,-34.608285],[-58.383356,-34.624643],[-58.383144,-34.631561],[-58.358424,-34.626167],[-58.334065,-34.612495],[-58.352188,-34.592495],[-58.382211,-34.584986],[-58.384114,-34.585798]]]},"properties":{}},{"type":"Feature","geometry":{"type":"Polygon","coordinates":[[[-64.171369,-31.422932],[-64.173832,-31.41617],[-64.181078,-31.414102],[-64.187093,-31.412175],[-64.191697,-31.410982],[-64.192429,-31.412751],[-64.190854,-31.417103],[-64.190502,-31.419802],[-64.192681,-31.421402],[-64.194744,-31.425995],[-64.183803,-31.429433],[-64.171369,-31.422932]]]},"properties":{}},{"type":"Feature","geometry":{"type":"Polygon","coordinates":[[[-68.855814,-32.902663],[-68.850866,-32.903984],[-68.850834,-32.900074],[-68.841239,-32.900048],[-68.840014,-32.896016],[-68.851053,-32.895761],[-68.840452,-32.863477],[-68.845319,-32.863904],[-68.850298,-32.879052],[-68.855814,-32.902663]]]},"properties":{}}]}