{"type":"FeatureCollection","features":[{"type":"Feature","geometry":{"type":"Polygon","coordinates":[[[-46.635762,-23.538272],[-46.637589,-23.53942],[-46.640216,-23.541622],[-46.648154,-23.537115],[-46.666295,-23.541769],[-46.667378,-23.551511],[-46.657157,-23.562431],[-46.640238,-23.578123],[-46.635557,-23.558173],[-46.625554,-23.557199],[-46.623567,-23.550165],[-46.627571,-23.540102],[-46.635762,-23.538272]]]},"properties":{}},{"type":"Feature","geometry":{"type":"Polygon","coordinates":[[[-43.200559,-22.892371],[-43.213179,-22.898217],[-43.223289,-22.907827],[-43.23734,-22.906982],[-43.235454,-22.916134],[-43.209532,-22.914652],[-43.170608,-22.9011],[-43.161591,-22.89681],[-43.19254,-22.888898],[-43.200559,-22.892371]]]},"properties":{}},{"type":"Feature","geometry":{"type":"Polygon","coordinates":[[[-43.21069,-22.950789],[-43.205152,-22.963806],[-43.168733,-22.950789],[-43.165903,-22.934785],[-43.167095,-22.924587],[-43.151655,-22.912689],[-43.166363,-22.897658],[-43.185855,-22.904865],[-43.17855,-22.924861],[-43.200511,-22.939358],[-43.21069,-22.950789]]]},"properties":{}},{"type":"Feature","geometry":{"type":"Polygon","coordinates":[[[-38.526373,-12.981642],[-38.541525,-13.014068],[-38.522474,-13.012173],[-38.50964,-12.991005],[-38.505954,-12.985582],[-38.499734,-12.977421],[-38.490627,-12.966318],[-38.492965,-12.961958],[-38.508905,-12.955298],[-38.526373,-12.981642]]]},"properties":{}},{"type":"Feature","geometry":{"type":"Polygon","coordinates":[[[-60.027183,-3.112094],[-60.027347,-3.115291],[-60.029944,-3.115032],[-60.028218,-3.1251],[-60.032504,-3.127077],[-60.035676,-3.130489],[-60.026858,-3.14252],[-60.019411,-3.146467],[-60.015837,-3.138693],[-60.011304,-3.138989],[-60.007468,-3.136428],[-60.006139,-3.115547],[-60.019269,-3.111977],[-60.027183,-3.112094]]]},"properties":{}}]}