{"type":"FeatureCollection","features":[{"type":"Feature","properties":{},"geometry":{"type":"Polygon","coordinates":[[[-70.693825,-33.412856],[-70.692496,-33.422226],[-70.693508,-33.436385],[-70.69361,-33.449761],[-70.690027,-33.462036],[-70.688696,-33.478499],[-70.65257,-33.478755],[-70.65557,-33.461366],[-70.628845,-33.456147],[-70.631543,-33.444126],[-70.634588,-33.433644],[-70.659452,-33.427492],[-70.674075,-33.423371],[-70.693825,-33.412856]]]}},{"type":"Feature","properties":{},"geometry":{"type":"Polygon","coordinates":[[[-70.410933,-23.671004],[-70.400126,-23.674551],[-70.395663,-23.667179],[-70.392871,-23.662687],[-70.392453,-23.660282],[-70.389372,-23.653498],[-70.38959,-23.627279],[-70.386997,-23.612925],[-70.389985,-23.581764],[-70.396089,-23.581993],[-70.398305,-23.588756],[-70.421612,-23.627215],[-70.410933,-23.671004]]]}},{"type":"Feature","properties":{},"geometry":{"type":"Polygon","coordinates":[[[-72.921232,-41.480183],[-72.908766,-41.467184],[-72.918705,-41.461951],[-72.922603,-41.460057],[-72.924617,-41.45598],[-72.95636,-41.447857],[-72.95636,-41.462208],[-72.950935,-41.480742],[-72.921232,-41.480183]]]}}]}