{"type":"FeatureCollection","features":[{"type":"Feature","properties":{},"geometry":{"type":"Polygon","coordinates":[[[-74.087264,4.680306],[-74.121316,4.63701],[-74.125926,4.626185],[-74.066018,4.619886],[-74.057694,4.670527],[-74.0547,4.688016],[-74.06913,4.69164],[-74.087264,4.680306]]]}},{"type":"Feature","properties":{},"geometry":{"type":"Polygon","coordinates":[[[-75.569589,6.259527],[-75.594798,6.273443],[-75.602997,6.253527],[-75.604217,6.230129],[-75.601215,6.224848],[-75.601504,6.220027],[-75.593628,6.206745],[-75.589803,6.20423],[-75.576465,6.198432],[-75.568299,6.239988],[-75.559192,6.253982],[-75.569589,6.259527]]]}}]}