{"type":"FeatureCollection","features":[{"type":"Feature","properties":{},"geometry":{"type":"Polygon","coordinates":[[[-78.498007,-0.160005],[-78.503645,-0.172746],[-78.508155,-0.179849],[-78.514187,-0.191125],[-78.512721,-0.204091],[-78.521075,-0.218181],[-78.527926,-0.233697],[-78.538638,-0.249482],[-78.533958,-0.251568],[-78.517778,-0.24999],[-78.499794,-0.245423],[-78.483322,-0.207057],[-78.465921,-0.164476],[-78.498007,-0.160005]]]}},{"type":"Feature","properties":{},"geometry":{"type":"Polygon","coordinates":[[[-79.877351,-2.138555],[-79.883898,-2.137825],[-79.90693,-2.149633],[-79.904385,-2.178258],[-79.888317,-2.184644],[-79.870137,-2.183315],[-79.873841,-2.149642],[-79.877351,-2.138555]]]}}]}