{"type":"FeatureCollection","features":[{"type":"Feature","geometry":{"type":"Polygon","coordinates":[[[-57.640323,-25.275688],[-57.648074,-25.286894],[-57.626058,-25.29973],[-57.613445,-25.305533],[-57.594782,-25.309949],[-57.589504,-25.291268],[-57.576873,-25.29656],[-57.570471,-25.287118],[-57.559837,-25.283449],[-57.549804,-25.277632],[-57.552004,-25.275849],[-57.572822,-25.282923],[-57.604051,-25.287224],[-57.623649,-25.283798],[-57.640323,-25.275688]]]},"properties":{}},{"type":"Feature","geometry":{"type":"Polygon","coordinates":[[[-54.600667,-25.508451],[-54.616518,-25.508381],[-54.625143,-25.509854],[-54.639052,-25.505703],[-54.643519,-25.515737],[-54.639387,-25.524186],[-54.637366,-25.523157],[-54.64077,-25.514883],[-54.633925,-25.512381],[-54.618934,-25.511666],[-54.612355,-25.525741],[-54.608899,-25.525426],[-54.613467,-25.510925],[-54.600932,-25.511372],[-54.600667,-25.508451]]]},"properties":{}}]}