{"type":"FeatureCollection","features":[{"type":"Feature","properties":{},"geometry":{"type":"Polygon","coordinates":[[[120.822262,24.587634],[120.82325,24.57754],[120.813,24.577447],[120.810123,24.574289],[120.807161,24.572198],[120.808557,24.569303],[120.805782,24.568033],[120.807059,24.565772],[120.809953,24.565091],[120.808882,24.560534],[120.811112,24.554944],[120.806626,24.55482],[120.806745,24.548037],[120.806711,24.542477],[120.810235,24.542307],[120.81158,24.543592],[120.813211,24.53617],[120.819119,24.537347],[120.828398,24.544131],[120.826348,24.552118],[120.828571,24.559345],[120.830344,24.565137],[120.830344,24.569422],[120.841797,24.573856],[120.843926,24.574278],[120.84325,24.578139],[120.839751,24.578266],[120.838841,24.575381],[120.835879,24.574745],[120.83287,24.578181],[120.828391,24.578881],[120.828461,24.584608],[120.82758,24.588029],[120.824828,24.594943],[120.816081,24.596916],[120.806914,24.596767],[120.805001,24.591868],[120.808411,24.586742],[120.813305,24.58315],[120.81169,24.579554],[120.810669,24.577274],[120.813278,24.576484],[120.816034,24.582153],[120.815684,24.587647],[120.815708,24.591656],[120.820795,24.589065],[120.822262,24.587634]]]}},{"type":"Feature","properties":{},"geometry":{"type":"Polygon","coordinates":[[[120.821419,24.605382],[120.820537,24.604329],[120.824183,24.601337],[120.829372,24.607128],[120.825813,24.607844],[120.824144,24.606806],[120.821419,24.605382]]]}},{"type":"Feature","properties":{},"geometry":{"type":"Polygon","coordinates":[[[120.720314,24.279945],[120.693306,24.253431],[120.702445,24.23627],[120.696536,24.215039],[120.698875,24.206246],[120.686281,24.20507],[120.664011,24.20336],[120.658804,24.203514],[120.660288,24.207936],[120.655572,24.208448],[120.650426,24.204688],[120.643665,24.200566],[120.6345,24.186153],[120.62688,24.173743],[120.62312,24.161744],[120.620956,24.15059],[120.618917,24.134065],[120.605739,24.112484],[120.583484,24.12117],[120.578432,24.11802],[120.576967,24.109908],[120.618629,24.101086],[120.630024,24.092775],[120.648046,24.090457],[120.660061,24.083107],[120.670032,24.081297],[120.682377,24.070219],[120.686894,24.069914],[120.695593,24.074954],[120.726785,24.085862],[120.734827,24.086142],[120.736818,24.082771],[120.738909,24.083719],[120.73712,24.089763],[120.735642,24.093521],[120.734103,24.099007],[120.738537,24.107202],[120.738976,24.112621],[120.740833,24.117459],[120.737499,24.122242],[120.738305,24.129633],[120.736949,24.134147],[120.734787,24.138662],[120.739697,24.143912],[120.739514,24.149863],[120.743691,24.15528],[120.746073,24.159459],[120.737949,24.16225],[120.736446,24.169204],[120.739598,24.17472],[120.739634,24.176559],[120.743995,24.17589],[120.745607,24.177328],[120.742896,24.181941],[120.737802,24.180804],[120.731353,24.179267],[120.72527,24.183612],[120.725014,24.192671],[120.722215,24.19833],[120.712582,24.201624],[120.715948,24.204512],[120.71236,24.209058],[120.713637,24.218568],[120.708315,24.219249],[120.711108,24.226035],[120.716334,24.228341],[120.718694,24.232425],[120.72587,24.234885],[120.732317,24.246654],[120.735568,24.246435],[120.743203,24.250193],[120.746382,24.254409],[120.745949,24.256363],[120.74802,24.261019],[120.744167,24.265168],[120.737617,24.268505],[120.733378,24.264686],[120.732415,24.266179],[120.723914,24.264949],[120.722854,24.273928],[120.723432,24.279526],[120.721675,24.279767],[120.720314,24.279945]]]}},{"type":"Feature","properties":{},"geometry":{"type":"Polygon","coordinates":[[[120.607534,24.152541],[120.61095,24.145826],[120.619531,24.145031],[120.628074,24.178567],[120.628645,24.185195],[120.621983,24.188038],[120.623604,24.191042],[120.618335,24.193237],[120.625967,24.206106],[120.631192,24.225033],[120.627467,24.228474],[120.622194,24.220092],[120.615063,24.220244],[120.612015,24.212038],[120.605533,24.213538],[120.601102,24.199871],[120.602055,24.188275],[120.59518,24.191695],[120.586966,24.194057],[120.572931,24.186521],[120.570822,24.169709],[120.586782,24.166358],[120.59906,24.162053],[120.602719,24.154255],[120.607534,24.152541]]]}},{"type":"Feature","properties":{},"geometry":{"type":"Polygon","coordinates":[[[120.553891,24.102267],[120.549588,24.0992],[120.539412,24.097661],[120.537082,24.095618],[120.533728,24.098221],[120.528471,24.094598],[120.532119,24.089757],[120.529062,24.084322],[120.528082,24.076486],[120.524986,24.075703],[120.52097,24.069658],[120.517085,24.06918],[120.511108,24.065178],[120.51166,24.061736],[120.510863,24.05695],[120.506296,24.051632],[120.506694,24.049057],[120.507154,24.04483],[120.508687,24.042983],[120.516433,24.054204],[120.51919,24.054644],[120.522912,24.053165],[120.529528,24.05562],[120.534856,24.053017],[120.541482,24.058268],[120.543012,24.05661],[120.543848,24.052011],[120.542216,24.051211],[120.539725,24.04497],[120.538441,24.040091],[120.541948,24.039774],[120.542356,24.035417],[120.548962,24.035789],[120.548574,24.040853],[120.557017,24.04699],[120.560222,24.052371],[120.553364,24.052717],[120.548264,24.055534],[120.557932,24.061005],[120.562525,24.064978],[120.559661,24.0711],[120.567397,24.066337],[120.568569,24.071435],[120.560747,24.074487],[120.562002,24.07955],[120.56808,24.081063],[120.577073,24.073186],[120.592245,24.077792],[120.596172,24.069421],[120.611047,24.073024],[120.604479,24.081389],[120.595243,24.083077],[120.5776,24.090407],[120.568674,24.09478],[120.561507,24.099876],[120.553891,24.102267]]]}},{"type":"Feature","properties":{},"geometry":{"type":"Polygon","coordinates":[[[120.568108,23.976464],[120.564614,23.974199],[120.562443,23.969061],[120.559582,23.968967],[120.558506,23.964825],[120.555066,23.96283],[120.561506,23.95738],[120.554194,23.957255],[120.55245,23.95356],[120.550383,23.95216],[120.56209,23.945319],[120.559832,23.940741],[120.566454,23.938283],[120.569558,23.943886],[120.580125,23.943051],[120.587013,23.94218],[120.590179,23.954511],[120.584154,23.967279],[120.580845,23.972808],[120.578841,23.975765],[120.575984,23.975934],[120.575506,23.978408],[120.572396,23.978755],[120.56912,23.983268],[120.568108,23.976464]]]}},{"type":"Feature","properties":{},"geometry":{"type":"Polygon","coordinates":[[[120.661488,23.944828],[120.661684,23.940241],[120.650995,23.922607],[120.654188,23.917841],[120.651125,23.911466],[120.653928,23.91081],[120.663248,23.917007],[120.670256,23.918735],[120.672602,23.909797],[120.676382,23.901396],[120.680879,23.89502],[120.690916,23.897642],[120.69222,23.902945],[120.69763,23.904733],[120.699324,23.911704],[120.692155,23.918198],[120.684073,23.925109],[120.68127,23.935654],[120.67248,23.94415],[120.662312,23.94695],[120.661488,23.944828]]]}},{"type":"Feature","properties":{},"geometry":{"type":"Polygon","coordinates":[[[120.676348,23.986387],[120.673219,23.98204],[120.674718,23.979182],[120.678107,23.973822],[120.681822,23.971142],[120.680388,23.957682],[120.686645,23.957861],[120.689997,23.964625],[120.689177,23.970761],[120.690075,23.977645],[120.690582,23.978787],[120.694134,23.978787],[120.701591,23.971046],[120.706587,23.973329],[120.707485,23.978465],[120.704167,23.979571],[120.70202,23.982674],[120.693822,23.983352],[120.692723,23.989296],[120.690816,23.995407],[120.685618,23.995234],[120.681869,23.987471],[120.67749,23.988075],[120.677182,23.987611],[120.676348,23.986387]]]}},{"type":"Feature","properties":{},"geometry":{"type":"Polygon","coordinates":[[[120.966192,23.974543],[120.954718,23.971886],[120.950061,23.974817],[120.943059,23.975639],[120.935583,23.978228],[120.939825,23.971963],[120.945777,23.967115],[120.948309,23.968944],[120.958688,23.963602],[120.960939,23.960288],[120.966692,23.958345],[120.969904,23.956222],[120.97353,23.955936],[120.977313,23.957508],[120.978188,23.958565],[120.97872,23.970563],[120.980689,23.974677],[120.974374,23.975077],[120.966192,23.974543]]]}},{"type":"Feature","properties":{},"geometry":{"type":"Polygon","coordinates":[[[120.539927,23.722331],[120.530049,23.718711],[120.528313,23.716746],[120.523395,23.714978],[120.525357,23.712646],[120.528543,23.713161],[120.528167,23.710975],[120.525855,23.710765],[120.527603,23.701825],[120.519922,23.699786],[120.519821,23.695471],[120.524451,23.693042],[120.524067,23.690058],[120.530766,23.688151],[120.532817,23.691516],[120.533311,23.688138],[120.539578,23.688737],[120.539916,23.696478],[120.553095,23.701718],[120.556454,23.698354],[120.558866,23.700046],[120.561797,23.701161],[120.561977,23.703597],[120.555958,23.706775],[120.557919,23.712328],[120.556882,23.715031],[120.548517,23.718655],[120.544249,23.718973],[120.542008,23.720487],[120.541181,23.72183],[120.539927,23.722331]]]}},{"type":"Feature","properties":{},"geometry":{"type":"Polygon","coordinates":[[[120.430515,23.71564],[120.42611,23.709434],[120.41896,23.708038],[120.41591,23.70537],[120.417213,23.704073],[120.418346,23.702718],[120.420521,23.702166],[120.422019,23.698836],[120.425547,23.69651],[120.427356,23.696209],[120.437407,23.701865],[120.440619,23.702392],[120.443141,23.701856],[120.44866,23.703982],[120.450963,23.706425],[120.456939,23.703697],[120.459643,23.7044],[120.459424,23.705153],[120.454691,23.706174],[120.453978,23.708081],[120.451858,23.708784],[120.4529,23.70962],[120.452096,23.713335],[120.447354,23.713983],[120.4439,23.713876],[120.436465,23.71866],[120.430515,23.71564]]]}},{"type":"Feature","properties":{},"geometry":{"type":"Polygon","coordinates":[[[120.47453,23.684374],[120.468885,23.682949],[120.467878,23.679093],[120.465865,23.674258],[120.471784,23.667328],[120.476696,23.665456],[120.480693,23.66526],[120.486098,23.674599],[120.488379,23.677922],[120.486639,23.678987],[120.48785,23.681046],[120.48306,23.6848],[120.476951,23.6847],[120.47453,23.684374]]]}}]}