{"type":"FeatureCollection","features":[{"type":"Feature","properties":{},"geometry":{"type":"Polygon","coordinates":[[[121.46584,25.131733],[121.464328,25.127177],[121.464707,25.124286],[121.461135,25.123599],[121.439449,25.090998],[121.405956,25.113891],[121.34161,25.089138],[121.328626,25.028608],[121.405892,25.027209],[121.3907,25.014868],[121.413429,24.9936],[121.40264,24.981056],[121.387495,24.974772],[121.371817,24.961042],[121.34782,24.961526],[121.360619,24.970421],[121.376591,25.005124],[121.375342,25.028793],[121.330805,25.028887],[121.3097,25.03867],[121.316892,25.04402],[121.3299,25.043095],[121.325549,25.05315],[121.30526,25.047801],[121.304352,25.051128],[121.317218,25.054113],[121.300192,25.059543],[121.291721,25.076044],[121.268798,25.071979],[121.265974,25.052454],[121.277722,25.036591],[121.2502,25.026538],[121.251976,25.017741],[121.260429,25.010967],[121.234882,24.989919],[121.223547,24.97836],[121.212993,24.977341],[121.21227,24.973688],[121.201405,24.962651],[121.197596,24.937227],[121.212777,24.934745],[121.224245,24.923111],[121.237309,24.924025],[121.255603,24.912614],[121.262224,24.930221],[121.281052,24.957621],[121.278019,24.920097],[121.260781,24.902276],[121.263262,24.873968],[121.283295,24.867819],[121.296262,24.878231],[121.305386,24.895297],[121.297383,24.911109],[121.312456,24.924945],[121.328835,24.930627],[121.336838,24.928096],[121.364817,24.934218],[121.354578,24.920484],[121.355942,24.902898],[121.372861,24.905566],[121.376255,24.924107],[121.39695,24.930825],[121.415016,24.923282],[121.424251,24.93151],[121.421148,24.938098],[121.401715,24.93883],[121.413899,24.943871],[121.413932,24.949621],[121.438116,24.957948],[121.453513,24.969047],[121.480845,24.978183],[121.49503,24.97694],[121.509738,24.976382],[121.512294,24.966662],[121.495669,24.956742],[121.486289,24.967044],[121.470912,24.960515],[121.47206,24.952673],[121.477058,24.947827],[121.466556,24.939063],[121.519511,24.944481],[121.533387,24.95238],[121.540792,24.9503],[121.542657,24.960923],[121.552052,24.969215],[121.561153,24.977557],[121.590719,24.981585],[121.593138,24.989785],[121.582388,24.991513],[121.577093,24.996414],[121.597594,25.001341],[121.583158,25.0179],[121.581295,25.03189],[121.603173,25.039895],[121.614773,25.02835],[121.639287,25.040146],[121.641666,25.055231],[121.650301,25.058287],[121.653427,25.051987],[121.661225,25.050523],[121.672641,25.055169],[121.672806,25.06356],[121.680311,25.066718],[121.699196,25.069735],[121.729173,25.100581],[121.735856,25.089864],[121.753165,25.086659],[121.767427,25.089171],[121.805459,25.103805],[121.824901,25.101729],[121.828365,25.136021],[121.807606,25.148812],[121.769274,25.165271],[121.726387,25.167665],[121.708584,25.173988],[121.688764,25.16004],[121.694101,25.14215],[121.707819,25.129393],[121.717808,25.110294],[121.707164,25.102008],[121.692943,25.093193],[121.668787,25.084081],[121.653122,25.075465],[121.649204,25.094734],[121.629556,25.083489],[121.615583,25.079319],[121.582409,25.093265],[121.58174,25.087354],[121.564413,25.090576],[121.558807,25.09392],[121.55208,25.087768],[121.53777,25.086992],[121.526691,25.080899],[121.530713,25.089619],[121.536517,25.096189],[121.543093,25.094684],[121.546449,25.091539],[121.550695,25.092606],[121.556204,25.105248],[121.538273,25.101003],[121.541312,25.116747],[121.538013,25.13143],[121.529967,25.135194],[121.512467,25.142876],[121.506548,25.151009],[121.49899,25.148427],[121.495012,25.149632],[121.482135,25.139104],[121.471511,25.137053],[121.469089,25.135858],[121.46584,25.131733]]]}},{"type":"Feature","properties":{},"geometry":{"type":"Polygon","coordinates":[[[121.369538,25.17337],[121.348366,25.162597],[121.367408,25.13147],[121.38211,25.138197],[121.388384,25.127381],[121.393542,25.114498],[121.397732,25.116832],[121.396028,25.138261],[121.40952,25.149141],[121.426834,25.157185],[121.444897,25.155737],[121.453118,25.135104],[121.446774,25.131567],[121.444337,25.127196],[121.449854,25.121328],[121.46456,25.123746],[121.469374,25.1332],[121.459726,25.174733],[121.457358,25.182629],[121.459664,25.189961],[121.45231,25.194981],[121.432425,25.207883],[121.423324,25.203117],[121.39508,25.190639],[121.369538,25.17337]]]}},{"type":"Feature","properties":{},"geometry":{"type":"Polygon","coordinates":[[[121.244481,25.100799],[121.211421,25.072224],[121.222101,25.060258],[121.23369,25.069267],[121.252989,25.085505],[121.246813,25.102165],[121.244481,25.100799]]]}},{"type":"Feature","properties":{},"geometry":{"type":"Polygon","coordinates":[[[121.752378,24.765443],[121.743452,24.757833],[121.730544,24.74894],[121.734878,24.743983],[121.7448,24.74267],[121.751979,24.733982],[121.761623,24.741106],[121.75902,24.746353],[121.759662,24.749786],[121.762622,24.746094],[121.7679,24.746806],[121.769291,24.74875],[121.770289,24.752085],[121.766055,24.76269],[121.756597,24.765566],[121.752378,24.765443]]]}},{"type":"Feature","properties":{},"geometry":{"type":"Polygon","coordinates":[[[121.757984,24.696648],[121.76454,24.684781],[121.758311,24.684694],[121.754843,24.678188],[121.754811,24.670339],[121.76293,24.669434],[121.763802,24.658317],[121.779985,24.666954],[121.786672,24.673644],[121.783076,24.686978],[121.77502,24.68818],[121.775619,24.695512],[121.766107,24.695065],[121.757984,24.696648]]]}},{"type":"Feature","properties":{},"geometry":{"type":"Polygon","coordinates":[[[120.998207,24.851903],[120.990035,24.843892],[120.99629,24.832905],[120.993104,24.826313],[121.011163,24.816927],[121.031956,24.801763],[121.041893,24.797229],[121.051982,24.805014],[121.033419,24.81788],[121.038463,24.824336],[121.037691,24.831673],[121.025274,24.843693],[121.02007,24.849488],[121.007251,24.853045],[120.998207,24.851903]]]}},{"type":"Feature","properties":{},"geometry":{"type":"Polygon","coordinates":[[[121.044432,24.873463],[121.040238,24.879504],[121.018257,24.875188],[121.016015,24.881736],[121.003712,24.884365],[120.984683,24.876924],[120.98002,24.865675],[121.015124,24.852527],[121.044432,24.873463]]]}},{"type":"Feature","properties":{},"geometry":{"type":"Polygon","coordinates":[[[120.969551,24.826995],[120.929216,24.796261],[120.928811,24.785912],[120.946348,24.791852],[120.961052,24.788913],[120.959372,24.781314],[120.954179,24.776904],[120.969625,24.762206],[120.972795,24.780824],[120.980484,24.774761],[121.003148,24.769861],[121.012523,24.761532],[121.023585,24.756999],[121.035321,24.780518],[121.025473,24.784437],[121.020752,24.797418],[120.986956,24.814352],[120.98102,24.824086],[120.969551,24.826995]]]}},{"type":"Feature","properties":{},"geometry":{"type":"Polygon","coordinates":[[[121.200296,25.011124],[121.197149,24.999825],[121.211247,24.999376],[121.214411,25.003592],[121.22329,25.003956],[121.223644,25.004833],[121.22244,25.009156],[121.221495,25.009627],[121.223337,25.01228],[121.22244,25.014335],[121.22525,25.019663],[121.224518,25.021717],[121.223597,25.024648],[121.218992,25.026125],[121.214718,25.022273],[121.208465,25.017101],[121.205041,25.0146],[121.200296,25.011124]]]}}]}