{"type":"FeatureCollection","features":[{"type":"Feature","properties":{},"geometry":{"type":"Polygon","coordinates":[[[121.137264,22.771369],[121.13418,22.770117],[121.132739,22.76791],[121.133553,22.759597],[121.129923,22.756776],[121.129923,22.751247],[121.131636,22.751623],[121.132084,22.750608],[121.132166,22.744364],[121.133471,22.741543],[121.13706,22.742445],[121.140242,22.740903],[121.143749,22.742821],[121.144781,22.744105],[121.144496,22.746719],[121.146654,22.74792],[121.149239,22.74935],[121.151468,22.748906],[121.155658,22.749301],[121.161204,22.752261],[121.162381,22.75606],[121.160348,22.760647],[121.156826,22.764508],[121.148499,22.768618],[121.145895,22.770986],[121.14158,22.770936],[121.139922,22.772268],[121.13846,22.772038],[121.137264,22.771369]]]}},{"type":"Feature","properties":{},"geometry":{"type":"Polygon","coordinates":[[[121.451834,22.694554],[121.457522,22.629919],[121.516187,22.620074],[121.54309,22.674215],[121.516661,22.695975],[121.451834,22.694554]]]}},{"type":"Feature","properties":{},"geometry":{"type":"Polygon","coordinates":[[[121.475784,22.11678],[121.467613,21.959445],[121.673749,21.92017],[121.662235,22.113339],[121.475784,22.11678]]]}},{"type":"Feature","properties":{},"geometry":{"type":"Polygon","coordinates":[[[121.603565,24.007077],[121.591852,23.994165],[121.580644,23.977298],[121.576763,23.976335],[121.569886,23.980034],[121.563081,23.983515],[121.561955,23.982027],[121.574582,23.974999],[121.577625,23.972591],[121.577218,23.969701],[121.58074,23.96784],[121.582417,23.966292],[121.58558,23.968526],[121.591091,23.962373],[121.591475,23.961169],[121.595261,23.961519],[121.598682,23.961598],[121.599856,23.964861],[121.599017,23.965561],[121.608649,23.971987],[121.61095,23.968997],[121.612787,23.968053],[121.62226,23.975766],[121.628106,23.970927],[121.641543,23.987492],[121.65199,24.013111],[121.645976,24.027722],[121.63022,24.030139],[121.628345,24.027278],[121.62924,24.025779],[121.629261,24.02393],[121.619434,24.012768],[121.61564,24.008679],[121.613822,24.010463],[121.609077,24.009922],[121.606031,24.008924],[121.603565,24.007077]]]}},{"type":"Feature","properties":{},"geometry":{"type":"Polygon","coordinates":[[[119.559379,23.586002],[119.553888,23.560001],[119.56185,23.541545],[119.599643,23.548341],[119.60852,23.558742],[119.606232,23.574092],[119.591499,23.577279],[119.58427,23.597239],[119.559379,23.586002]]]}},{"type":"Feature","properties":{},"geometry":{"type":"Polygon","coordinates":[[[118.308905,24.428371],[118.321538,24.429291],[118.321833,24.432071],[118.321307,24.432588],[118.325389,24.436082],[118.320104,24.43982],[118.314756,24.439724],[118.307639,24.431079],[118.308905,24.428371]]]}},{"type":"Feature","properties":{},"geometry":{"type":"Polygon","coordinates":[[[118.414123,24.446043],[118.412774,24.444611],[118.413355,24.443247],[118.412062,24.442037],[118.408336,24.444151],[118.406556,24.441662],[118.409853,24.439548],[118.40901,24.438422],[118.404815,24.436052],[118.406276,24.434228],[118.410583,24.434194],[118.413018,24.437757],[118.415078,24.438405],[118.419816,24.436871],[118.422962,24.434944],[118.424292,24.436513],[118.427476,24.435814],[118.431371,24.441184],[118.426839,24.445464],[118.418936,24.443145],[118.415771,24.445719],[118.414123,24.446043]]]}},{"type":"Feature","properties":{},"geometry":{"type":"Polygon","coordinates":[[[120.438719,26.411133],[120.075338,26.335699],[119.806471,26.211887],[119.907729,25.850902],[120.224873,26.203212],[120.558185,26.37711],[120.438719,26.411133]]]}},{"type":"Feature","properties":{},"geometry":{"type":"Polygon","coordinates":[[[120.357891,22.358741],[120.346142,22.298777],[120.402259,22.326653],[120.396592,22.369222],[120.357891,22.358741]]]}}]}