{"type":"FeatureCollection","features":[{"type":"Feature","properties":{},"geometry":{"type":"Polygon","coordinates":[[[-58.384114,-34.585798],[-58.383466,-34.608285],[-58.383356,-34.624643],[-58.383144,-34.631561],[-58.358424,-34.626167],[-58.334065,-34.612495],[-58.352188,-34.592495],[-58.382211,-34.584986],[-58.384114,-34.585798]]]}},{"type":"Feature","properties":{},"geometry":{"type":"Polygon","coordinates":[[[-64.171369,-31.422932],[-64.173832,-31.41617],[-64.181078,-31.414102],[-64.187093,-31.412175],[-64.191697,-31.410982],[-64.199088,-31.431302],[-64.194713,-31.434974],[-64.192819,-31.432999],[-64.187107,-31.430649],[-64.171369,-31.422932]]]}},{"type":"Feature","properties":{},"geometry":{"type":"Polygon","coordinates":[[[-68.855589,-32.902889],[-68.850866,-32.903984],[-68.840452,-32.863477],[-68.830099,-32.862894],[-68.83042,-32.860137],[-68.861932,-32.861706],[-68.862012,-32.865494],[-68.844828,-32.863589],[-68.850298,-32.879052],[-68.855589,-32.902889]]]}}]}