{"type":"FeatureCollection","features":[{"type":"Feature","geometry":{"type":"Polygon","coordinates":[[[-68.119745,-16.51688],[-68.113698,-16.514261],[-68.11962,-16.482239],[-68.123659,-16.48253],[-68.129903,-16.483582],[-68.138752,-16.483582],[-68.147446,-16.486957],[-68.146731,-16.495742],[-68.141738,-16.498111],[-68.13671,-16.498683],[-68.119745,-16.51688]]]},"properties":{}},{"type":"Feature","geometry":{"type":"Polygon","coordinates":[[[-63.191769,-17.77227],[-63.193588,-17.775452],[-63.19589,-17.784079],[-63.195333,-17.793447],[-63.193996,-17.799316],[-63.189132,-17.802038],[-63.180667,-17.800977],[-63.175358,-17.799174],[-63.168118,-17.799563],[-63.165036,-17.796912],[-63.163736,-17.782277],[-63.165438,-17.772375],[-63.17123,-17.768839],[-63.185748,-17.769687],[-63.191769,-17.77227]]]},"properties":{}},{"type":"Feature","geometry":{"type":"Polygon","coordinates":[[[-66.162754,-17.377815],[-66.167772,-17.386934],[-66.175157,-17.393141],[-66.176582,-17.40041],[-66.172599,-17.407935],[-66.165894,-17.410627],[-66.155954,-17.414247],[-66.154526,-17.413473],[-66.156926,-17.393741],[-66.140755,-17.390211],[-66.139572,-17.388595],[-66.141074,-17.382737],[-66.141308,-17.375819],[-66.162754,-17.377815]]]},"properties":{}}]}