{"type":"FeatureCollection","features":[{"type":"Feature","properties":{},"geometry":{"type":"Polygon","coordinates":[[[-46.635762,-23.538272],[-46.637589,-23.53942],[-46.640216,-23.541622],[-46.648154,-23.537115],[-46.666295,-23.541769],[-46.667378,-23.551511],[-46.657157,-23.562431],[-46.640238,-23.578123],[-46.635557,-23.558173],[-46.625554,-23.557199],[-46.623567,-23.550165],[-46.627571,-23.540102],[-46.635762,-23.538272]]]}},{"type":"Feature","properties":{},"geometry":{"type":"Polygon","coordinates":[[[-43.200559,-22.892371],[-43.213179,-22.898217],[-43.223289,-22.907827],[-43.23734,-22.906982],[-43.235454,-22.916134],[-43.209532,-22.914652],[-43.170608,-22.9011],[-43.161591,-22.89681],[-43.19254,-22.888898],[-43.200559,-22.892371]]]}},{"type":"Feature","properties":{},"geometry":{"type":"Polygon","coordinates":[[[-43.21069,-22.950789],[-43.205152,-22.963806],[-43.168733,-22.950789],[-43.165903,-22.934785],[-43.167095,-22.924587],[-43.151655,-22.912689],[-43.166363,-22.897658],[-43.185855,-22.904865],[-43.17855,-22.924861],[-43.200511,-22.939358],[-43.21069,-22.950789]]]}},{"type":"Feature","properties":{},"geometry":{"type":"Polygon","coordinates":[[[-47.92071,-15.838113],[-47.923896,-15.840687],[-47.92073,-15.843084],[-47.897486,-15.827701],[-47.881529,-15.8119],[-47.875455,-15.802536],[-47.873453,-15.796463],[-47.876935,-15.795489],[-47.879315,-15.802588],[-47.885156,-15.809395],[-47.889241,-15.813856],[-47.89444,-15.81953],[-47.905447,-15.82748],[-47.912415,-15.83222],[-47.92071,-15.838113]]]}},{"type":"Feature","properties":{},"geometry":{"type":"Polygon","coordinates":[[[-47.879391,-15.807942],[-47.866932,-15.813772],[-47.856048,-15.807251],[-47.856407,-15.797757],[-47.875424,-15.792616],[-47.879391,-15.807942]]]}},{"type":"Feature","properties":{},"geometry":{"type":"Polygon","coordinates":[[[-47.90481,-15.779554],[-47.906514,-15.784915],[-47.916342,-15.781941],[-47.917259,-15.785241],[-47.897135,-15.79273],[-47.891091,-15.795675],[-47.876882,-15.799416],[-47.873633,-15.793152],[-47.893328,-15.786323],[-47.89525,-15.778745],[-47.90481,-15.779554]]]}},{"type":"Feature","properties":{},"geometry":{"type":"Polygon","coordinates":[[[-38.526373,-12.981642],[-38.541525,-13.014068],[-38.522474,-13.012173],[-38.50964,-12.991005],[-38.505954,-12.985582],[-38.499734,-12.977421],[-38.490627,-12.966318],[-38.492965,-12.961958],[-38.508905,-12.955298],[-38.526373,-12.981642]]]}},{"type":"Feature","properties":{},"geometry":{"type":"Polygon","coordinates":[[[-60.027661,-3.111994],[-60.030241,-3.112225],[-60.033709,-3.115759],[-60.031883,-3.123152],[-60.035676,-3.130489],[-60.026858,-3.14252],[-60.019411,-3.146467],[-60.015837,-3.138693],[-60.011304,-3.138989],[-60.007468,-3.136428],[-60.006139,-3.115547],[-60.019269,-3.111977],[-60.027661,-3.111994]]]}}]}