{"type":"FeatureCollection","features":[{"type":"Feature","properties":{},"geometry":{"type":"Polygon","coordinates":[[[-77.146034,-12.052132],[-77.176576,-12.068789],[-77.168694,-12.079765],[-77.145585,-12.069742],[-77.124093,-12.075777],[-77.117218,-12.065987],[-77.112799,-12.065077],[-77.078013,-12.060998],[-77.076101,-12.045985],[-77.105142,-12.048139],[-77.126632,-12.043225],[-77.146034,-12.052132]]]}},{"type":"Feature","properties":{},"geometry":{"type":"Polygon","coordinates":[[[-77.051552,-12.043195],[-77.050859,-12.050174],[-77.042806,-12.051464],[-77.042784,-12.059149],[-77.057826,-12.078947],[-77.041519,-12.076935],[-77.029014,-12.074857],[-77.034454,-12.059731],[-77.037832,-12.048634],[-77.042328,-12.042093],[-77.051552,-12.043195]]]}},{"type":"Feature","properties":{},"geometry":{"type":"Polygon","coordinates":[[[-71.918205,-13.538673],[-71.919417,-13.531294],[-71.922798,-13.532255],[-71.964624,-13.520824],[-71.97328,-13.519103],[-71.976771,-13.513421],[-71.988055,-13.508195],[-71.991358,-13.511717],[-71.988071,-13.519409],[-71.993038,-13.525216],[-71.989504,-13.52903],[-71.984291,-13.527631],[-71.981524,-13.534333],[-71.979754,-13.537821],[-71.968061,-13.534268],[-71.965539,-13.533632],[-71.918205,-13.538673]]]}}]}