{"type":"FeatureCollection","features":[{"type":"Feature","properties":{},"geometry":{"type":"Polygon","coordinates":[[[-57.639639,-25.274595],[-57.651701,-25.291612],[-57.631658,-25.305016],[-57.618557,-25.302836],[-57.594782,-25.309949],[-57.587898,-25.288789],[-57.546999,-25.293837],[-57.543598,-25.273593],[-57.550948,-25.275776],[-57.584168,-25.254911],[-57.612485,-25.254813],[-57.639639,-25.274595]]]}},{"type":"Feature","properties":{},"geometry":{"type":"Polygon","coordinates":[[[-54.600864,-25.503348],[-54.632243,-25.4911],[-54.639486,-25.506058],[-54.643519,-25.515737],[-54.638347,-25.527182],[-54.617226,-25.529041],[-54.60049,-25.528558],[-54.600142,-25.517416],[-54.600864,-25.503348]]]}}]}