{"type":"FeatureCollection","features":[{"type":"Feature","geometry":{"type":"Polygon","coordinates":[[[55.119074,25.228378],[55.069599,25.139493],[55.112907,25.0684],[55.159368,25.100527],[55.168848,25.110267],[55.188994,25.130158],[55.201573,25.119924],[55.214867,25.130269],[55.23552,25.16143],[55.250403,25.17774],[55.267716,25.165462],[55.348106,25.225646],[55.368596,25.239669],[55.39155,25.229125],[55.40519,25.229668],[55.408075,25.237658],[55.387765,25.24755],[55.393323,25.261712],[55.37026,25.274984],[55.358227,25.282568],[55.332977,25.303255],[55.275848,25.319946],[55.119074,25.228378]]]},"properties":{}},{"type":"Feature","geometry":{"type":"Polygon","coordinates":[[[56.334293,25.136568],[56.325174,25.128992],[56.323086,25.126926],[56.323705,25.122466],[56.329459,25.11706],[56.359027,25.116429],[56.361518,25.135463],[56.346579,25.1358],[56.334293,25.136568]]]},"properties":{}}]}