{"type":"FeatureCollection","features":[{"type":"Feature","geometry":{"type":"Polygon","coordinates":[[[89.629724,27.479949],[89.631578,27.468688],[89.634082,27.465036],[89.641069,27.459122],[89.655033,27.446327],[89.657986,27.442938],[89.640611,27.429856],[89.64341,27.42725],[89.663757,27.439511],[89.669729,27.443817],[89.663812,27.453189],[89.66053,27.457791],[89.656521,27.456831],[89.647869,27.46338],[89.645627,27.474582],[89.641616,27.479282],[89.636269,27.481058],[89.629724,27.479949]]]},"properties":{}},{"type":"Feature","properties":{},"geometry":{"type":"Polygon","coordinates":[[[89.380712,26.869411],[89.37612,26.867312],[89.375956,26.866352],[89.379809,26.864681],[89.3832,26.863567],[89.385496,26.863901],[89.389559,26.863704],[89.388522,26.86594],[89.385525,26.866258],[89.382662,26.86738],[89.380712,26.869411]]]}},{"type":"Feature","properties":{},"geometry":{"type":"Polygon","coordinates":[[[91.237299,27.277867],[91.23599,27.277529],[91.237845,27.275356],[91.238651,27.275295],[91.242813,27.273013],[91.244322,27.275233],[91.238872,27.278012],[91.237299,27.277867]]]}},{"type":"Feature","properties":{},"geometry":{"type":"Polygon","coordinates":[[[89.409065,27.433413],[89.408038,27.432081],[89.416647,27.426953],[89.417787,27.429617],[89.413195,27.432722],[89.409697,27.434224],[89.409065,27.433413]]]}},{"type":"Feature","properties":{},"geometry":{"type":"Polygon","coordinates":[[[89.422895,27.427192],[89.419221,27.425646],[89.421875,27.421911],[89.416886,27.413558],[89.414699,27.412144],[89.41644,27.406962],[89.421836,27.397602],[89.429317,27.392617],[89.43072,27.389413],[89.429202,27.388171],[89.429979,27.387302],[89.434151,27.38878],[89.43126,27.391135],[89.431161,27.393343],[89.430978,27.394984],[89.420185,27.413727],[89.425123,27.420165],[89.422895,27.427192]]]}}]}