{"type":"FeatureCollection","features":[{"type":"Feature","geometry":{"type":"Polygon","coordinates":[[[44.767109,41.727931],[44.756553,41.719395],[44.76073,41.714415],[44.778077,41.709142],[44.788407,41.704851],[44.79873,41.697035],[44.807019,41.703938],[44.804843,41.710506],[44.803928,41.716199],[44.801284,41.721765],[44.797958,41.733192],[44.767109,41.727931]]]},"properties":{}},{"type":"Feature","geometry":{"type":"Polygon","coordinates":[[[41.633499,41.658958],[41.611224,41.642652],[41.612527,41.637673],[41.620216,41.632536],[41.627221,41.634414],[41.635329,41.636036],[41.648798,41.637565],[41.643957,41.643205],[41.646719,41.648974],[41.643945,41.657715],[41.633499,41.658958]]]},"properties":{}}]}