{"type":"FeatureCollection","features":[{"type":"Feature","properties":{},"geometry":{"type":"Polygon","coordinates":[[[113.871909,22.324908],[113.897175,22.275919],[113.935199,22.264884],[114.005576,22.31542],[113.916406,22.342645],[113.871909,22.324908]]]}},{"type":"Feature","properties":{},"geometry":{"type":"Polygon","coordinates":[[[113.98059,22.478091],[113.944697,22.361406],[114.004633,22.359976],[114.004976,22.427777],[114.018887,22.402217],[114.055295,22.419364],[114.061134,22.402852],[114.113342,22.424285],[114.10535,22.455173],[114.059153,22.464854],[114.088177,22.500399],[114.065164,22.508014],[114.016048,22.490561],[113.998874,22.496908],[113.98059,22.478091]]]}},{"type":"Feature","properties":{},"geometry":{"type":"Polygon","coordinates":[[[114.05942,22.507864],[114.089837,22.496971],[114.120295,22.498181],[114.150512,22.481381],[114.185054,22.514793],[114.231772,22.545957],[114.223709,22.554108],[114.181325,22.523579],[114.16575,22.54152],[114.161965,22.560249],[114.061786,22.525474],[114.05942,22.507864]]]}},{"type":"Feature","properties":{},"geometry":{"type":"Polygon","coordinates":[[[114.169257,22.466702],[114.145891,22.446352],[114.166443,22.426225],[114.185772,22.446804],[114.202655,22.452797],[114.24535,22.471224],[114.234951,22.482189],[114.185895,22.471111],[114.169257,22.466702]]]}},{"type":"Feature","properties":{},"geometry":{"type":"Polygon","coordinates":[[[114.200772,22.437463],[114.189762,22.427512],[114.196612,22.422084],[114.198815,22.405686],[114.153795,22.364624],[114.172512,22.352858],[114.221447,22.383403],[114.21533,22.391774],[114.241754,22.419935],[114.254844,22.42706],[114.270381,22.411793],[114.275763,22.420048],[114.276253,22.435654],[114.238573,22.44142],[114.219856,22.430565],[114.200772,22.437463]]]}},{"type":"Feature","properties":{},"geometry":{"type":"Polygon","coordinates":[[[114.145698,22.384877],[114.073095,22.373849],[114.090091,22.311798],[114.170446,22.287522],[114.203095,22.300764],[114.244092,22.281315],[114.275698,22.254688],[114.286432,22.263656],[114.27689,22.306006],[114.284965,22.330735],[114.261502,22.346046],[114.250801,22.329865],[114.206822,22.352065],[114.145698,22.384877]]]}},{"type":"Feature","properties":{},"geometry":{"type":"Polygon","coordinates":[[[114.126088,22.293329],[114.108497,22.276637],[114.160974,22.21965],[114.214941,22.187904],[114.266076,22.198947],[114.265927,22.245042],[114.25251,22.284638],[114.198691,22.302432],[114.126088,22.293329]]]}},{"type":"Feature","properties":{},"geometry":{"type":"Polygon","coordinates":[[[114.2671,22.396727],[114.251033,22.378972],[114.236435,22.351519],[114.257303,22.346445],[114.276701,22.374261],[114.279444,22.392469],[114.2671,22.396727]]]}}]}