{"type":"FeatureCollection","features":[{"type":"Feature","geometry":{"type":"Polygon","coordinates":[[[106.791065,-6.124805],[106.79347,-6.151742],[106.787218,-6.165382],[106.786395,-6.171352],[106.791825,-6.17855],[106.795198,-6.184194],[106.795788,-6.196483],[106.79997,-6.205867],[106.810335,-6.203414],[106.837811,-6.206481],[106.843289,-6.20229],[106.852621,-6.19176],[106.853289,-6.175843],[106.854825,-6.161604],[106.846759,-6.125305],[106.820322,-6.130762],[106.812802,-6.126075],[106.804257,-6.124772],[106.802682,-6.124835],[106.791065,-6.124805]]]},"properties":{}},{"type":"Feature","geometry":{"type":"Polygon","coordinates":[[[115.16818,-8.678877],[115.151312,-8.68564],[115.161002,-8.702602],[115.167266,-8.722791],[115.157628,-8.738606],[115.146279,-8.743687],[115.152726,-8.753798],[115.16449,-8.759351],[115.161933,-8.780278],[115.166362,-8.789245],[115.176341,-8.781988],[115.180102,-8.783184],[115.199264,-8.786079],[115.210909,-8.790338],[115.220745,-8.799027],[115.241637,-8.806633],[115.227349,-8.755737],[115.21615,-8.749287],[115.22139,-8.729053],[115.243434,-8.715599],[115.258754,-8.711006],[115.263408,-8.708246],[115.265735,-8.703327],[115.246261,-8.703645],[115.235915,-8.70913],[115.226643,-8.710298],[115.217299,-8.715407],[115.209844,-8.713225],[115.186743,-8.719915],[115.187051,-8.71139],[115.16818,-8.678877]]]},"properties":{}},{"type":"Feature","geometry":{"type":"Polygon","coordinates":[[[98.66871,3.607278],[98.668413,3.594118],[98.66684,3.592694],[98.66857,3.592169],[98.673026,3.586322],[98.677591,3.587447],[98.683366,3.577868],[98.686568,3.579014],[98.695401,3.580714],[98.70394,3.581868],[98.706337,3.587593],[98.695279,3.598895],[98.683326,3.599825],[98.67822,3.598115],[98.67715,3.608188],[98.66871,3.607278]]]},"properties":{}},{"type":"Feature","geometry":{"type":"Polygon","coordinates":[[[114.572622,-3.293158],[114.567067,-3.293331],[114.5623,-3.314873],[114.556187,-3.329389],[114.563328,-3.333359],[114.569716,-3.343748],[114.572041,-3.341382],[114.562748,-3.326843],[114.572728,-3.325032],[114.585467,-3.321677],[114.586573,-3.32341],[114.582866,-3.328333],[114.584676,-3.333316],[114.595675,-3.32854],[114.603796,-3.330802],[114.607662,-3.326608],[114.605983,-3.318899],[114.594979,-3.319017],[114.595147,-3.312146],[114.583094,-3.307069],[114.574332,-3.300412],[114.570442,-3.298108],[114.572622,-3.293158]]]},"properties":{}}]}