{"type":"FeatureCollection","features":[{"type":"Feature","geometry":{"type":"Polygon","coordinates":[[[77.234164,28.672093],[77.218461,28.667725],[77.210593,28.66841],[77.202566,28.666037],[77.202606,28.657252],[77.204767,28.647264],[77.204753,28.641933],[77.240256,28.624941],[77.247958,28.62695],[77.24739,28.642222],[77.247502,28.646227],[77.246741,28.649178],[77.245621,28.651843],[77.24571,28.658243],[77.237776,28.666295],[77.234164,28.672093]]]},"properties":{}},{"type":"Feature","geometry":{"type":"Polygon","coordinates":[[[88.358882,22.604845],[88.348614,22.593723],[88.342146,22.571029],[88.325765,22.552367],[88.330503,22.540641],[88.339559,22.537131],[88.37843,22.537742],[88.399696,22.540591],[88.405683,22.551013],[88.419725,22.552923],[88.424788,22.575005],[88.437489,22.584851],[88.423873,22.60541],[88.409037,22.612215],[88.358882,22.604845]]]},"properties":{}},{"type":"Feature","geometry":{"type":"Polygon","coordinates":[[[80.279195,13.009175],[80.321028,13.104353],[80.273815,13.10409],[80.196177,13.113558],[80.193282,13.102119],[80.211627,13.04956],[80.205946,13.017981],[80.279195,13.009175]]]},"properties":{}},{"type":"Feature","geometry":{"type":"Polygon","coordinates":[[[72.758656,18.894059],[72.860473,18.885173],[72.883241,19.023567],[72.880398,19.049388],[72.906253,19.06517],[72.92257,19.085957],[72.881221,19.104318],[72.821202,19.102348],[72.758656,18.894059]]]},"properties":{}}]}