{"type":"FeatureCollection","features":[{"type":"Feature","properties":{},"geometry":{"type":"Polygon","coordinates":[[[35.915527,31.979021],[35.910299,31.974454],[35.904738,31.969118],[35.899685,31.964701],[35.898038,31.96137],[35.893355,31.951613],[35.895071,31.950378],[35.901569,31.949251],[35.914617,31.946409],[35.920771,31.942957],[35.931354,31.944092],[35.939226,31.95182],[35.953575,31.953425],[35.960536,31.961533],[35.948444,31.969375],[35.920352,31.981742],[35.915527,31.979021]]]}},{"type":"Feature","properties":{},"geometry":{"type":"Polygon","coordinates":[[[34.99702,29.547816],[34.98442,29.536482],[34.993471,29.517421],[35.003279,29.512196],[35.01154,29.52025],[35.022814,29.540733],[35.023466,29.547758],[34.99702,29.547816]]]}}]}