{"type":"FeatureCollection","features":[{"type":"Feature","properties":{},"geometry":{"type":"Polygon","coordinates":[[[139.787406,35.674456],[139.845404,35.671522],[139.850338,35.69941],[139.813809,35.710545],[139.809843,35.72522],[139.783052,35.725199],[139.753379,35.725981],[139.733839,35.720737],[139.71059,35.715845],[139.688249,35.684004],[139.687823,35.662475],[139.695014,35.652323],[139.704869,35.635824],[139.71163,35.62636],[139.736905,35.6146],[139.752538,35.614471],[139.752386,35.625028],[139.754085,35.634908],[139.764476,35.634377],[139.763364,35.650511],[139.767169,35.656651],[139.778697,35.664045],[139.780289,35.666633],[139.782147,35.670484],[139.787406,35.674456]]]}},{"type":"Feature","properties":{},"geometry":{"type":"Polygon","coordinates":[[[135.497623,34.718356],[135.407264,34.678685],[135.418024,34.648603],[135.442918,34.640765],[135.447836,34.607259],[135.465044,34.602832],[135.497313,34.592847],[135.501,34.586015],[135.517591,34.592088],[135.530802,34.598158],[135.552765,34.597907],[135.56587,34.732671],[135.524839,34.733051],[135.497623,34.718356]]]}},{"type":"Feature","properties":{},"geometry":{"type":"Polygon","coordinates":[[[135.733862,34.978939],[135.783483,34.979554],[135.785056,35.007495],[135.793238,35.007583],[135.801928,35.028025],[135.797754,35.045184],[135.775996,35.045558],[135.754985,35.044833],[135.749796,35.042346],[135.731444,35.041827],[135.715244,35.033226],[135.72423,34.998086],[135.733862,34.978939]]]}},{"type":"Feature","properties":{},"geometry":{"type":"Polygon","coordinates":[[[141.327069,43.089461],[141.306792,43.068316],[141.322606,43.045766],[141.365966,43.047537],[141.398104,43.065521],[141.372215,43.096725],[141.327069,43.089461]]]}},{"type":"Feature","properties":{},"geometry":{"type":"Polygon","coordinates":[[[130.401218,33.621479],[130.344104,33.597855],[130.344545,33.58138],[130.35286,33.568058],[130.391983,33.562168],[130.424495,33.557339],[130.461447,33.572321],[130.443156,33.597458],[130.431012,33.611506],[130.401218,33.621479]]]}},{"type":"Feature","properties":{},"geometry":{"type":"Polygon","coordinates":[[[127.644324,26.219403],[127.645518,26.176735],[127.654725,26.174077],[127.702227,26.181603],[127.726391,26.212765],[127.722325,26.223803],[127.71169,26.228198],[127.690942,26.242601],[127.671445,26.227918],[127.644324,26.219403]]]}}]}