{"type":"FeatureCollection","features":[{"type":"Feature","geometry":{"type":"Polygon","coordinates":[[[74.575799,42.885369],[74.574139,42.877962],[74.559513,42.878812],[74.522912,42.874679],[74.524192,42.863173],[74.569583,42.864782],[74.613418,42.861472],[74.625566,42.864609],[74.623088,42.886534],[74.595362,42.88475],[74.575799,42.885369]]]},"properties":{}},{"type":"Feature","geometry":{"type":"Polygon","coordinates":[[[72.78796,40.540276],[72.795235,40.525253],[72.806492,40.510691],[72.819265,40.514143],[72.808671,40.526653],[72.801546,40.550275],[72.799271,40.548985],[72.800543,40.543683],[72.78796,40.540276]]]},"properties":{}}]}