{"type":"FeatureCollection","features":[{"type":"Feature","geometry":{"type":"Polygon","coordinates":[[[104.884869,11.5918],[104.885462,11.546358],[104.916343,11.52519],[104.933253,11.529235],[104.951352,11.560377],[104.935752,11.607641],[104.918454,11.602077],[104.884869,11.5918]]]},"properties":{}},{"type":"Feature","geometry":{"type":"Polygon","coordinates":[[[103.839765,13.374517],[103.835397,13.368317],[103.850752,13.358008],[103.853232,13.357575],[103.853174,13.352258],[103.858212,13.353408],[103.860654,13.359969],[103.888338,13.356913],[103.888015,13.35943],[103.86119,13.362868],[103.861368,13.36776],[103.85823,13.368487],[103.855928,13.364622],[103.839765,13.374517]]]},"properties":{}}]}