{"type":"FeatureCollection","features":[{"type":"Feature","properties":{},"geometry":{"type":"Polygon","coordinates":[[[126.917792,37.610275],[126.87008,37.518744],[126.904909,37.496422],[126.976928,37.481902],[127.113998,37.51608],[127.072683,37.623922],[126.917792,37.610275]]]}},{"type":"Feature","properties":{},"geometry":{"type":"Polygon","coordinates":[[[129.070115,35.221707],[129.047288,35.199786],[129.03873,35.172825],[129.040876,35.147605],[129.069579,35.136637],[129.099623,35.138282],[129.137982,35.173153],[129.115717,35.22609],[129.070115,35.221707]]]}},{"type":"Feature","properties":{},"geometry":{"type":"Polygon","coordinates":[[[126.461392,33.512321],[126.467604,33.47895],[126.481256,33.472263],[126.491585,33.476239],[126.531602,33.48124],[126.572962,33.505909],[126.572812,33.526422],[126.550526,33.54002],[126.536947,33.538154],[126.461392,33.512321]]]}}]}