{"type":"FeatureCollection","features":[{"type":"Feature","geometry":{"type":"Polygon","coordinates":[[[71.359909,51.132026],[71.40279,51.126551],[71.393587,51.099025],[71.38733,51.083627],[71.422259,51.078793],[71.427582,51.094557],[71.451351,51.091212],[71.454272,51.102061],[71.464166,51.107837],[71.471964,51.128479],[71.418242,51.137799],[71.425985,51.149875],[71.408015,51.14692],[71.387218,51.149947],[71.365883,51.150273],[71.359909,51.132026]]]},"properties":{}},{"type":"Feature","geometry":{"type":"Polygon","coordinates":[[[76.886539,43.251452],[76.888826,43.237925],[76.886093,43.223899],[76.920136,43.225923],[76.94403,43.226855],[76.961163,43.228158],[76.956946,43.256504],[76.886539,43.251452]]]},"properties":{}},{"type":"Feature","geometry":{"type":"Polygon","coordinates":[[[69.580316,42.318912],[69.572546,42.301888],[69.58323,42.300451],[69.592848,42.2919],[69.604936,42.295026],[69.615944,42.301058],[69.620812,42.313171],[69.589212,42.32109],[69.585766,42.32562],[69.58117,42.324357],[69.580316,42.318912]]]},"properties":{}},{"type":"Feature","geometry":{"type":"Polygon","coordinates":[[[57.178756,50.285894],[57.19751,50.277169],[57.206649,50.282292],[57.219649,50.273498],[57.224696,50.276925],[57.230944,50.276741],[57.233955,50.288253],[57.224683,50.289295],[57.224077,50.285008],[57.207566,50.287188],[57.199892,50.293844],[57.185446,50.300108],[57.178756,50.285894]]]},"properties":{}}]}