{"type":"FeatureCollection","features":[{"type":"Feature","properties":{},"geometry":{"type":"Polygon","coordinates":[[[79.852675,6.954454],[79.844011,6.939247],[79.840888,6.935893],[79.839884,6.929871],[79.847077,6.910473],[79.878909,6.90932],[79.882611,6.954736],[79.875903,6.973089],[79.856955,6.964613],[79.852675,6.954454]]]}},{"type":"Feature","properties":{},"geometry":{"type":"Polygon","coordinates":[[[80.615598,7.281122],[80.620042,7.276003],[80.636785,7.289871],[80.647364,7.286004],[80.648338,7.288582],[80.643196,7.298152],[80.639306,7.30699],[80.632743,7.306987],[80.631854,7.29564],[80.615598,7.281122]]]}}]}