{"type":"FeatureCollection","features":[{"type":"Feature","geometry":{"type":"Polygon","coordinates":[[[101.661866,3.192464],[101.641327,3.150637],[101.625685,3.112261],[101.644882,3.071159],[101.700707,3.064854],[101.731883,3.113896],[101.74941,3.168116],[101.661866,3.192464]]]},"properties":{}},{"type":"Feature","geometry":{"type":"Polygon","coordinates":[[[100.317454,5.435639],[100.29332,5.397963],[100.296717,5.385102],[100.293625,5.368299],[100.285473,5.341139],[100.250657,5.284667],[100.277912,5.262211],[100.299088,5.271799],[100.334468,5.315936],[100.351755,5.370468],[100.35402,5.426718],[100.317454,5.435639]]]},"properties":{}},{"type":"Feature","geometry":{"type":"Polygon","coordinates":[[[116.072479,5.995849],[116.041288,5.964574],[116.037711,5.91252],[116.05391,5.917661],[116.06328,5.917789],[116.084998,5.934794],[116.091962,5.943774],[116.103647,5.963171],[116.115321,5.968435],[116.125974,5.995336],[116.090757,6.00987],[116.072479,5.995849]]]},"properties":{}},{"type":"Feature","geometry":{"type":"Polygon","coordinates":[[[110.393189,1.5325],[110.392466,1.551202],[110.381132,1.558608],[110.372868,1.555538],[110.361029,1.559024],[110.348938,1.559018],[110.34298,1.562164],[110.335405,1.55867],[110.330219,1.49697],[110.352538,1.500935],[110.375423,1.502487],[110.394336,1.505248],[110.394538,1.521303],[110.393189,1.5325]]]},"properties":{}},{"type":"Feature","properties":{},"geometry":{"type":"Polygon","coordinates":[[[103.753275,1.476176],[103.758933,1.465746],[103.763798,1.454296],[103.776515,1.458623],[103.77485,1.463257],[103.771036,1.46589],[103.76844,1.470723],[103.763754,1.473665],[103.765868,1.479566],[103.766503,1.483506],[103.77687,1.484653],[103.776569,1.485314],[103.766199,1.484477],[103.767845,1.49001],[103.766734,1.495941],[103.765237,1.495921],[103.765852,1.487902],[103.76041,1.488056],[103.760126,1.482593],[103.76047,1.480436],[103.756987,1.480092],[103.754772,1.479013],[103.753275,1.476176]]]}}]}