{"type":"FeatureCollection","features":[{"type":"Feature","properties":{},"geometry":{"type":"Polygon","coordinates":[[[85.303817,27.726531],[85.298499,27.721137],[85.294584,27.707101],[85.298762,27.697621],[85.298432,27.69193],[85.327554,27.684148],[85.338568,27.7072],[85.334308,27.728794],[85.31464,27.730294],[85.303817,27.726531]]]}},{"type":"Feature","properties":{},"geometry":{"type":"Polygon","coordinates":[[[83.98208,28.235337],[83.973491,28.211294],[83.993341,28.20271],[84.001525,28.2049],[83.999429,28.222173],[83.990777,28.234537],[83.98208,28.235337]]]}}]}