{"type":"FeatureCollection","features":[{"type":"Feature","geometry":{"type":"Polygon","coordinates":[[[123.875787,10.292096],[123.888079,10.278914],[123.933465,10.306603],[123.954198,10.319323],[123.957248,10.312446],[123.973059,10.322276],[123.959822,10.338304],[123.948422,10.342967],[123.945137,10.342178],[123.939603,10.337889],[123.911658,10.314402],[123.905171,10.312784],[123.894777,10.300902],[123.884022,10.297942],[123.875787,10.292096]]]},"properties":{}},{"type":"Feature","geometry":{"type":"Polygon","coordinates":[[[125.589409,7.041354],[125.632147,7.033043],[125.652287,7.10376],[125.642564,7.105021],[125.629622,7.101653],[125.618794,7.098943],[125.60853,7.093275],[125.611626,7.077915],[125.599689,7.064945],[125.583034,7.061036],[125.589409,7.041354]]]},"properties":{}},{"type":"Feature","properties":{},"geometry":{"type":"Polygon","coordinates":[[[121.015108,14.563387],[121.004649,14.559069],[121.016101,14.538258],[121.026981,14.54663],[121.046916,14.539921],[121.051375,14.537603],[121.054375,14.540587],[121.056223,14.545626],[121.059574,14.550731],[121.063792,14.556116],[121.05876,14.560104],[121.052412,14.563273],[121.015108,14.563387]]]}},{"type":"Feature","properties":{},"geometry":{"type":"Polygon","coordinates":[[[121.057827,14.594084],[121.052934,14.581119],[121.063419,14.572531],[121.066396,14.576891],[121.064272,14.577857],[121.064218,14.589324],[121.057827,14.594084]]]}},{"type":"Feature","properties":{},"geometry":{"type":"Polygon","coordinates":[[[120.970556,14.595831],[120.962528,14.595744],[120.95266,14.593834],[120.951718,14.584849],[120.97555,14.546005],[120.977836,14.518144],[120.994988,14.51617],[120.993735,14.536287],[121.001853,14.536287],[120.99853,14.553431],[120.996263,14.562738],[120.992598,14.57196],[120.97849,14.596346],[120.970556,14.595831]]]}}]}