{"type":"FeatureCollection","features":[{"type":"Feature","geometry":{"type":"Polygon","coordinates":[[[103.735288,1.386108],[103.722738,1.374974],[103.706536,1.368246],[103.677031,1.339308],[103.673988,1.331615],[103.709664,1.329398],[103.711944,1.320135],[103.73694,1.325721],[103.744538,1.322419],[103.743773,1.317598],[103.749782,1.316247],[103.768415,1.292685],[103.778645,1.288157],[103.784917,1.280105],[103.802017,1.274099],[103.822518,1.267126],[103.831914,1.274539],[103.847924,1.274233],[103.856835,1.286374],[103.879599,1.293233],[103.98046,1.316196],[104.005551,1.378831],[103.997238,1.393158],[103.977281,1.378115],[103.966496,1.367236],[103.964621,1.370464],[103.964933,1.375429],[103.94928,1.37633],[103.93583,1.38485],[103.931366,1.377605],[103.913395,1.389023],[103.92296,1.400903],[103.910657,1.409628],[103.912907,1.421572],[103.901725,1.423737],[103.896911,1.41315],[103.879856,1.416993],[103.867674,1.426735],[103.864337,1.42336],[103.83591,1.448534],[103.829399,1.460169],[103.811982,1.465702],[103.796655,1.456941],[103.778913,1.452628],[103.7556,1.44265],[103.742967,1.444184],[103.735288,1.386108]]]},"properties":{}}]}