{"type":"FeatureCollection","features":[{"type":"Feature","geometry":{"type":"Polygon","coordinates":[[[32.82472,39.941808],[32.841206,39.914162],[32.855982,39.911782],[32.867426,39.919325],[32.881296,39.933621],[32.879275,39.939561],[32.868711,39.943526],[32.850701,39.959162],[32.83514,39.953185],[32.82472,39.941808]]]},"properties":{}},{"type":"Feature","geometry":{"type":"Polygon","coordinates":[[[28.938794,41.031412],[28.928119,41.021499],[28.924259,41.014483],[28.921416,40.98994],[29.032393,40.974156],[29.03481,40.989666],[29.032341,40.998273],[29.02143,41.01206],[29.039825,41.022811],[29.032381,41.030306],[29.008764,41.029067],[28.996699,41.040799],[28.976169,41.061111],[28.950551,41.04821],[28.938794,41.031412]]]},"properties":{}},{"type":"Feature","geometry":{"type":"Polygon","coordinates":[[[30.656553,36.873329],[30.720032,36.872471],[30.720933,36.890973],[30.715749,36.896431],[30.718687,36.903693],[30.717495,36.91887],[30.686096,36.920349],[30.667913,36.925301],[30.659922,36.904994],[30.664027,36.8987],[30.656553,36.873329]]]},"properties":{}}]}