{"type":"FeatureCollection","features":[{"type":"Feature","geometry":{"type":"Polygon","coordinates":[[[121.451461,25.103715],[121.410055,25.020918],[121.437107,24.959903],[121.482342,24.991816],[121.521207,24.988673],[121.523767,24.979021],[121.539264,24.95973],[121.571922,24.983738],[121.587758,25.000708],[121.562901,24.999016],[121.556239,25.00495],[121.541152,25.007703],[121.553351,25.016186],[121.573866,25.017269],[121.579983,25.036279],[121.590591,25.037779],[121.594139,25.047278],[121.613676,25.048671],[121.623372,25.056272],[121.613395,25.066955],[121.604031,25.090708],[121.57133,25.091258],[121.529272,25.082473],[121.543354,25.110363],[121.54065,25.120546],[121.529891,25.135395],[121.512146,25.124805],[121.516507,25.142047],[121.494188,25.150081],[121.464384,25.126245],[121.451461,25.103715]]]},"properties":{}},{"type":"Feature","geometry":{"type":"Polygon","coordinates":[[[120.639958,24.188127],[120.62666,24.15447],[120.661739,24.118675],[120.686554,24.116487],[120.700366,24.134502],[120.703043,24.175876],[120.652814,24.177298],[120.652394,24.189218],[120.639958,24.188127]]]},"properties":{}},{"type":"Feature","geometry":{"type":"Polygon","coordinates":[[[120.200119,23.021785],[120.19029,23.018428],[120.174851,23.007835],[120.145091,23.003442],[120.127826,22.994268],[120.176371,22.96232],[120.196022,22.964263],[120.224443,22.973076],[120.234405,22.983956],[120.236208,23.006637],[120.218237,23.025515],[120.200119,23.021785]]]},"properties":{}},{"type":"Feature","geometry":{"type":"Polygon","coordinates":[[[120.25258,22.625205],[120.286478,22.581474],[120.317911,22.595738],[120.32621,22.603925],[120.328676,22.614344],[120.327124,22.673751],[120.295042,22.679391],[120.25258,22.625205]]]},"properties":{}},{"type":"Feature","geometry":{"type":"Polygon","coordinates":[[[121.598409,23.998857],[121.578043,23.973212],[121.61337,23.95297],[121.63481,23.987801],[121.623168,23.995242],[121.61455,24.001596],[121.598409,23.998857]]]},"properties":{}}]}