{"type":"FeatureCollection","features":[{"type":"Feature","properties":{},"geometry":{"type":"Polygon","coordinates":[[[25.911785,-24.586466],[25.842734,-24.654949],[25.881179,-24.704178],[25.924393,-24.696848],[25.94467,-24.671259],[25.952843,-24.630152],[25.961059,-24.618458],[25.911785,-24.586466]]]}},{"type":"Feature","properties":{},"geometry":{"type":"Polygon","coordinates":[[[27.5063,-21.150511],[27.492963,-21.157198],[27.485857,-21.156105],[27.484101,-21.157609],[27.491058,-21.179537],[27.50256,-21.19067],[27.516406,-21.193747],[27.525859,-21.192656],[27.536037,-21.176531],[27.519847,-21.152969],[27.5063,-21.150511]]]}}]}