{"type":"FeatureCollection","features":[{"type":"Feature","properties":{},"geometry":{"type":"Polygon","coordinates":[[[36.745562,-1.241055],[36.735681,-1.309939],[36.764901,-1.302797],[36.772222,-1.320427],[36.805731,-1.336237],[36.846911,-1.330664],[36.881977,-1.330846],[36.904261,-1.325419],[36.878529,-1.247384],[36.823369,-1.244774],[36.745562,-1.241055]]]}},{"type":"Feature","properties":{},"geometry":{"type":"Polygon","coordinates":[[[39.656764,-4.028413],[39.650853,-4.036903],[39.640216,-4.037455],[39.640672,-4.050923],[39.65057,-4.074536],[39.648612,-4.08001],[39.661824,-4.08757],[39.676669,-4.093398],[39.69084,-4.068578],[39.681972,-4.059188],[39.697885,-4.039306],[39.682215,-4.019374],[39.656764,-4.028413]]]}}]}