{"type":"FeatureCollection","features":[{"type":"Feature","properties":{},"geometry":{"type":"Polygon","coordinates":[[[27.454127,-29.298941],[27.456804,-29.304848],[27.46521,-29.313675],[27.474147,-29.319638],[27.480909,-29.318295],[27.491427,-29.317467],[27.493916,-29.31997],[27.497073,-29.32651],[27.504265,-29.327808],[27.509202,-29.325901],[27.515162,-29.314516],[27.511524,-29.310221],[27.512011,-29.304322],[27.499442,-29.296478],[27.470798,-29.292479],[27.455214,-29.296552],[27.454127,-29.298941]]]}}]}