{"type":"FeatureCollection","features":[{"type":"Feature","properties":{},"geometry":{"type":"Polygon","coordinates":[[[17.049416,-22.56895],[17.057456,-22.581492],[17.063057,-22.612593],[17.08035,-22.594892],[17.116065,-22.577078],[17.10705,-22.571229],[17.100386,-22.562294],[17.090083,-22.54968],[17.08284,-22.541613],[17.067611,-22.532802],[17.063055,-22.544785],[17.053855,-22.558844],[17.050659,-22.564167],[17.049416,-22.56895]]]}},{"type":"Feature","properties":{},"geometry":{"type":"Polygon","coordinates":[[[14.514637,-22.6229],[14.516911,-22.693946],[14.558302,-22.682067],[14.55512,-22.618097],[14.514637,-22.6229]]]}}]}