{"type":"FeatureCollection","features":[{"type":"Feature","properties":{},"geometry":{"type":"Polygon","coordinates":[[[3.31563,6.43053],[3.484132,6.417469],[3.483799,6.4898],[3.366013,6.521934],[3.31344,6.462677],[3.31563,6.43053]]]}},{"type":"Feature","properties":{},"geometry":{"type":"Polygon","coordinates":[[[7.468301,9.088723],[7.452764,9.078353],[7.449102,9.06775],[7.452562,9.04562],[7.446292,9.03477],[7.464468,9.027921],[7.492907,9.008349],[7.529246,9.056134],[7.52502,9.076619],[7.514041,9.086097],[7.506973,9.101779],[7.480596,9.116221],[7.468301,9.088723]]]}},{"type":"Feature","properties":{},"geometry":{"type":"Polygon","coordinates":[[[8.52032,12.007945],[8.514685,11.994731],[8.516603,11.981816],[8.522549,11.97059],[8.538222,11.968509],[8.549379,11.972672],[8.560174,11.995009],[8.558602,12.010269],[8.535786,12.014571],[8.528233,12.013382],[8.52032,12.007945]]]}}]}