{"type":"FeatureCollection","features":[{"type":"Feature","geometry":{"type":"Polygon","coordinates":[[[30.12033,-1.947683],[30.114094,-1.951932],[30.110422,-1.957759],[30.108117,-1.959042],[30.102084,-1.952332],[30.095543,-1.953199],[30.091753,-1.952332],[30.09096,-1.957571],[30.095298,-1.957439],[30.09689,-1.954667],[30.101162,-1.954163],[30.106785,-1.961937],[30.103052,-1.963484],[30.099968,-1.967498],[30.091908,-1.965505],[30.0897,-1.968016],[30.102181,-1.969825],[30.104286,-1.967212],[30.11714,-1.960923],[30.120424,-1.957614],[30.119038,-1.954378],[30.125113,-1.949723],[30.122625,-1.947853],[30.12033,-1.947683]]]},"properties":{}},{"type":"Feature","properties":{},"geometry":{"type":"Polygon","coordinates":[[[30.056064,-1.93861],[30.053973,-1.946513],[30.058075,-1.956988],[30.060246,-1.958622],[30.06474,-1.958033],[30.062988,-1.945643],[30.063181,-1.943659],[30.061441,-1.939256],[30.056064,-1.93861]]]}}]}