{"type":"FeatureCollection","features":[{"type":"Feature","geometry":{"type":"Polygon","coordinates":[[[-17.436101,14.683151],[-17.441212,14.694725],[-17.440687,14.699032],[-17.438875,14.721531],[-17.452666,14.714403],[-17.453919,14.715108],[-17.455524,14.715067],[-17.45691,14.713381],[-17.456118,14.711975],[-17.460767,14.706749],[-17.452045,14.696958],[-17.448323,14.69254],[-17.444489,14.680562],[-17.447097,14.678145],[-17.442289,14.67276],[-17.444228,14.671454],[-17.452418,14.675056],[-17.452882,14.673826],[-17.446832,14.670009],[-17.446414,14.659502],[-17.430102,14.640789],[-17.42837,14.664997],[-17.411038,14.67177],[-17.436101,14.683151]]]},"properties":{}},{"type":"Feature","geometry":{"type":"Polygon","coordinates":[[[-16.511248,16.039516],[-16.513208,16.016193],[-16.504671,16.016076],[-16.499774,16.020501],[-16.491746,16.017731],[-16.489863,16.018081],[-16.490736,16.02247],[-16.488608,16.025793],[-16.487661,16.034157],[-16.502582,16.027083],[-16.500889,16.038798],[-16.504357,16.039281],[-16.503982,16.051201],[-16.510954,16.051364],[-16.511248,16.039516]]]},"properties":{}},{"type":"Feature","geometry":{"type":"Polygon","coordinates":[[[-16.273944,12.588713],[-16.275994,12.584276],[-16.265188,12.58151],[-16.264902,12.580388],[-16.263592,12.580627],[-16.263458,12.581865],[-16.261807,12.587167],[-16.267591,12.589812],[-16.273944,12.588713]]]},"properties":{}}]}