{"type":"FeatureCollection","features":[{"type":"Feature","properties":{},"geometry":{"type":"Polygon","coordinates":[[[10.216071,36.826692],[10.218182,36.849771],[10.19251,36.85367],[10.115461,36.815564],[10.117805,36.782229],[10.185929,36.721694],[10.229799,36.739077],[10.255079,36.761436],[10.250409,36.788521],[10.216071,36.826692]]]}},{"type":"Feature","properties":{},"geometry":{"type":"Polygon","coordinates":[[[10.623929,35.859029],[10.601323,35.859087],[10.580235,35.841648],[10.591074,35.819638],[10.619665,35.797632],[10.626133,35.794485],[10.658521,35.794542],[10.663337,35.798854],[10.653871,35.829969],[10.623929,35.859029]]]}}]}