{"type":"FeatureCollection","features":[{"type":"Feature","properties":{},"geometry":{"type":"Polygon","coordinates":[[[18.358407,-33.967664],[18.428102,-33.990387],[18.514413,-33.990634],[18.511924,-33.948197],[18.526151,-33.939611],[18.519357,-33.922349],[18.466965,-33.897461],[18.387009,-33.891035],[18.358407,-33.967664]]]}},{"type":"Feature","properties":{},"geometry":{"type":"Polygon","coordinates":[[[26.194125,-29.101079],[26.181479,-29.134709],[26.2095,-29.151152],[26.227118,-29.145341],[26.234144,-29.140054],[26.246315,-29.114242],[26.221905,-29.093469],[26.194125,-29.101079]]]}},{"type":"Feature","properties":{},"geometry":{"type":"Polygon","coordinates":[[[27.979231,-26.18402],[27.974897,-26.217746],[28.002632,-26.24433],[28.121328,-26.212928],[28.086498,-26.161678],[27.979231,-26.18402]]]}},{"type":"Feature","properties":{},"geometry":{"type":"Polygon","coordinates":[[[28.144109,-25.742937],[28.145636,-25.762257],[28.194053,-25.765271],[28.219792,-25.754493],[28.210959,-25.732474],[28.151039,-25.737138],[28.144109,-25.742937]]]}}]}