{"type":"FeatureCollection","features":[{"type":"Feature","geometry":{"type":"Polygon","coordinates":[[[-69.882066,18.488035],[-69.890375,18.487493],[-69.90368,18.479031],[-69.904611,18.483091],[-69.915639,18.48618],[-69.916494,18.477169],[-69.906722,18.455939],[-69.878646,18.469489],[-69.882264,18.480654],[-69.882066,18.488035]]]},"properties":{}},{"type":"Feature","geometry":{"type":"Polygon","coordinates":[[[-70.714526,19.461652],[-70.716177,19.455824],[-70.715609,19.451541],[-70.711148,19.448124],[-70.706762,19.44892],[-70.687228,19.447118],[-70.683868,19.453607],[-70.684927,19.462358],[-70.70356,19.456696],[-70.708536,19.458538],[-70.710963,19.465616],[-70.714526,19.461652]]]},"properties":{}}]}