{"type":"FeatureCollection","features":[{"type":"Feature","geometry":{"type":"Polygon","coordinates":[[[144.72809,13.482986],[144.729162,13.477249],[144.761106,13.475935],[144.779623,13.474951],[144.791791,13.472536],[144.802827,13.468867],[144.809335,13.475746],[144.814303,13.48284],[144.818755,13.483816],[144.823188,13.495892],[144.820421,13.501701],[144.837157,13.514244],[144.848798,13.514205],[144.84833,13.526069],[144.836979,13.526497],[144.833081,13.526345],[144.833175,13.523471],[144.827861,13.521912],[144.823711,13.524266],[144.811074,13.520466],[144.759392,13.511384],[144.72809,13.482986]]]},"properties":{}}]}