{"type":"FeatureCollection","features":[{"type":"Feature","properties":{},"geometry":{"type":"Polygon","coordinates":[[[-100.337989,25.722304],[-100.351646,25.716702],[-100.355976,25.661068],[-100.305788,25.658466],[-100.265483,25.677281],[-100.265705,25.710199],[-100.308675,25.736807],[-100.337989,25.722304]]]}},{"type":"Feature","properties":{},"geometry":{"type":"Polygon","coordinates":[[[-103.36279,20.702875],[-103.390555,20.667099],[-103.393402,20.662503],[-103.32528,20.622269],[-103.317094,20.621136],[-103.306132,20.646717],[-103.296998,20.687271],[-103.36279,20.702875]]]}},{"type":"Feature","properties":{},"geometry":{"type":"Polygon","coordinates":[[[-99.164199,19.464302],[-99.185633,19.407951],[-99.165808,19.395886],[-99.130901,19.391334],[-99.116746,19.395886],[-99.094644,19.395205],[-99.099606,19.452635],[-99.136692,19.468548],[-99.164199,19.464302]]]}}]}