{"type":"FeatureCollection","features":[{"type":"Feature","geometry":{"type":"Polygon","coordinates":[[[-79.906726,9.366761],[-79.920763,9.355731],[-79.904782,9.349556],[-79.895277,9.345572],[-79.894474,9.342499],[-79.891628,9.337534],[-79.884366,9.335848],[-79.86637,9.342174],[-79.858725,9.348594],[-79.849225,9.354073],[-79.850211,9.3553],[-79.85821,9.351069],[-79.864135,9.347231],[-79.86906,9.342817],[-79.886842,9.340439],[-79.891021,9.3452],[-79.886775,9.358909],[-79.897218,9.374228],[-79.906726,9.366761]]]},"properties":{}},{"type":"Feature","geometry":{"type":"Polygon","coordinates":[[[-79.537253,8.975375],[-79.543774,8.960109],[-79.552235,8.946907],[-79.549098,8.932873],[-79.51703,8.897151],[-79.50922,8.918628],[-79.537954,8.936535],[-79.488291,8.973585],[-79.493686,9.002815],[-79.49707,9.008375],[-79.488914,9.014481],[-79.497885,9.028684],[-79.508517,9.030104],[-79.520331,9.024727],[-79.523439,9.013186],[-79.53741,8.991372],[-79.537253,8.975375]]]},"properties":{}}]}