{"type":"FeatureCollection","features":[{"type":"Feature","geometry":{"type":"Polygon","coordinates":[[[-73.977143,40.806281],[-74.017511,40.74469],[-74.021099,40.695512],[-74.010932,40.698006],[-73.995383,40.707527],[-73.972422,40.711863],[-73.966143,40.735657],[-73.961373,40.748196],[-73.947511,40.760563],[-73.938291,40.771318],[-73.938668,40.779457],[-73.936157,40.787852],[-73.928179,40.795819],[-73.927415,40.801408],[-73.931846,40.807207],[-73.933596,40.810028],[-73.963743,40.822846],[-73.977143,40.806281]]]},"properties":{}},{"type":"Feature","geometry":{"type":"Polygon","coordinates":[[[-80.11515,25.850378],[-80.130116,25.851603],[-80.148999,25.835653],[-80.180893,25.814132],[-80.193936,25.814456],[-80.208794,25.790483],[-80.209212,25.764432],[-80.183271,25.763589],[-80.138667,25.766059],[-80.122022,25.761386],[-80.11515,25.850378]]]},"properties":{}},{"type":"Feature","geometry":{"type":"Polygon","coordinates":[[[-87.601379,41.84588],[-87.596119,41.866657],[-87.577708,41.904338],[-87.668542,41.904338],[-87.649152,41.885179],[-87.648072,41.855239],[-87.646277,41.844289],[-87.601379,41.84588]]]},"properties":{}},{"type":"Feature","geometry":{"type":"Polygon","coordinates":[[[-95.364535,29.775413],[-95.412502,29.778052],[-95.411491,29.729414],[-95.390697,29.730147],[-95.369266,29.731436],[-95.338001,29.770179],[-95.364535,29.775413]]]},"properties":{}},{"type":"Feature","geometry":{"type":"Polygon","coordinates":[[[-115.176058,36.145739],[-115.192035,36.131774],[-115.191437,36.070959],[-115.169869,36.070405],[-115.153465,36.100328],[-115.153847,36.124861],[-115.153424,36.144717],[-115.176058,36.145739]]]},"properties":{}},{"type":"Feature","geometry":{"type":"Polygon","coordinates":[[[-122.348546,47.644395],[-122.346798,47.638935],[-122.344567,47.635877],[-122.365554,47.620342],[-122.344096,47.602384],[-122.323666,47.609247],[-122.327645,47.614241],[-122.326839,47.627344],[-122.321601,47.634831],[-122.3213,47.641298],[-122.334796,47.642976],[-122.348546,47.644395]]]},"properties":{}},{"type":"Feature","geometry":{"type":"Polygon","coordinates":[[[-122.474537,37.83659],[-122.489829,37.830811],[-122.482841,37.799634],[-122.46574,37.80756],[-122.468042,37.819186],[-122.474537,37.83659]]]},"properties":{}},{"type":"Feature","geometry":{"type":"Polygon","coordinates":[[[-122.42881,37.810267],[-122.420439,37.768181],[-122.378423,37.761227],[-122.374424,37.798323],[-122.407349,37.818175],[-122.42881,37.810267]]]},"properties":{}},{"type":"Feature","geometry":{"type":"Polygon","coordinates":[[[-118.251723,34.07357],[-118.277042,34.039652],[-118.292172,34.038593],[-118.29221,34.01866],[-118.292404,34.010398],[-118.272743,34.010594],[-118.264523,34.025508],[-118.247579,34.021502],[-118.220196,34.027386],[-118.202271,34.051977],[-118.214623,34.075484],[-118.237761,34.091338],[-118.251723,34.07357]]]},"properties":{}},{"type":"Feature","geometry":{"type":"Polygon","coordinates":[[[-118.473915,34.311105],[-118.490547,34.297118],[-118.422918,34.241975],[-118.405484,34.252576],[-118.451873,34.296953],[-118.473915,34.311105]]]},"properties":{}},{"type":"Feature","geometry":{"type":"Polygon","coordinates":[[[-157.89323,21.337973],[-157.893562,21.32979],[-157.897871,21.323254],[-157.890689,21.308019],[-157.881785,21.290199],[-157.847365,21.270431],[-157.816351,21.252027],[-157.801932,21.247702],[-157.772456,21.269499],[-157.83822,21.312153],[-157.864313,21.328683],[-157.881605,21.339541],[-157.89323,21.337973]]]},"properties":{}},{"type":"Feature","geometry":{"type":"Polygon","coordinates":[[[-77.05177,38.896672],[-77.056997,38.898009],[-77.055067,38.886542],[-77.041129,38.88616],[-77.030886,38.887164],[-77.005588,38.887098],[-77.005553,38.892613],[-77.015304,38.892695],[-77.031213,38.892699],[-77.031283,38.90067],[-77.040578,38.900561],[-77.040789,38.896821],[-77.05177,38.896672]]]},"properties":{}},{"type":"Feature","properties":{},"geometry":{"type":"Polygon","coordinates":[[[-77.009912,38.898413],[-77.009919,38.895202],[-77.013772,38.892416],[-77.003008,38.892623],[-77.003204,38.897564],[-77.009912,38.898413]]]}}]}