{"type": "FeatureCollection", "features": [{"type": "Feature", "properties": {}, "geometry": {"type": "Polygon", "coordinates": [[[121.46584, 25.131733], [121.464328, 25.127177], [121.464707, 25.124286], [121.461135, 25.123599], [121.439449, 25.090998], [121.405956, 25.113891], [121.34161, 25.089138], [121.328626, 25.028608], [121.405892, 25.027209], [121.3907, 25.014868], [121.413429, 24.9936], [121.40264, 24.981056], [121.387495, 24.974772], [121.371817, 24.961042], [121.34782, 24.961526], [121.360619, 24.970421], [121.376591, 25.005124], [121.375342, 25.028793], [121.330805, 25.028887], [121.3097, 25.03867], [121.316892, 25.04402], [121.3299, 25.043095], [121.325549, 25.05315], [121.30526, 25.047801], [121.304352, 25.051128], [121.317218, 25.054113], [121.300192, 25.059543], [121.291721, 25.076044], [121.268798, 25.071979], [121.265974, 25.052454], [121.277722, 25.036591], [121.2502, 25.026538], [121.251976, 25.017741], [121.260429, 25.010967], [121.234882, 24.989919], [121.223547, 24.97836], [121.212993, 24.977341], [121.21227, 24.973688], [121.201405, 24.962651], [121.197596, 24.937227], [121.212777, 24.934745], [121.224245, 24.923111], [121.237309, 24.924025], [121.255603, 24.912614], [121.262224, 24.930221], [121.281052, 24.957621], [121.278019, 24.920097], [121.260781, 24.902276], [121.263262, 24.873968], [121.283295, 24.867819], [121.296262, 24.878231], [121.305386, 24.895297], [121.297383, 24.911109], [121.312456, 24.924945], [121.328835, 24.930627], [121.336838, 24.928096], [121.364817, 24.934218], [121.354578, 24.920484], [121.355942, 24.902898], [121.372861, 24.905566], [121.376255, 24.924107], [121.39695, 24.930825], [121.415016, 24.923282], [121.424251, 24.93151], [121.421148, 24.938098], [121.401715, 24.93883], [121.413899, 24.943871], [121.413932, 24.949621], [121.438116, 24.957948], [121.453513, 24.969047], [121.480845, 24.978183], [121.49503, 24.97694], [121.509738, 24.976382], [121.512294, 24.966662], [121.495669, 24.956742], [121.486289, 24.967044], [121.470912, 24.960515], [121.47206, 24.952673], [121.477058, 24.947827], [121.466556, 24.939063], [121.519511, 24.944481], [121.533387, 24.95238], [121.540792, 24.9503], [121.542657, 24.960923], [121.552052, 24.969215], [121.561153, 24.977557], [121.590719, 24.981585], [121.593138, 24.989785], [121.582388, 24.991513], [121.577093, 24.996414], [121.597594, 25.001341], [121.583158, 25.0179], [121.581295, 25.03189], [121.603173, 25.039895], [121.614773, 25.02835], [121.639287, 25.040146], [121.641666, 25.055231], [121.650301, 25.058287], [121.653427, 25.051987], [121.661225, 25.050523], [121.672641, 25.055169], [121.672806, 25.06356], [121.680311, 25.066718], [121.699196, 25.069735], [121.729173, 25.100581], [121.735856, 25.089864], [121.753165, 25.086659], [121.767427, 25.089171], [121.805459, 25.103805], [121.824901, 25.101729], [121.828365, 25.136021], [121.807606, 25.148812], [121.769274, 25.165271], [121.726387, 25.167665], [121.708584, 25.173988], [121.688764, 25.16004], [121.694101, 25.14215], [121.707819, 25.129393], [121.717808, 25.110294], [121.707164, 25.102008], [121.692943, 25.093193], [121.668787, 25.084081], [121.653122, 25.075465], [121.649204, 25.094734], [121.629556, 25.083489], [121.615583, 25.079319], [121.582409, 25.093265], [121.58174, 25.087354], [121.564413, 25.090576], [121.558807, 25.09392], [121.55208, 25.087768], [121.53777, 25.086992], [121.526691, 25.080899], [121.530713, 25.089619], [121.536517, 25.096189], [121.543093, 25.094684], [121.546449, 25.091539], [121.550695, 25.092606], [121.556204, 25.105248], [121.538273, 25.101003], [121.541312, 25.116747], [121.538013, 25.13143], [121.529967, 25.135194], [121.512467, 25.142876], [121.506548, 25.151009], [121.49899, 25.148427], [121.495012, 25.149632], [121.482135, 25.139104], [121.471511, 25.137053], [121.469089, 25.135858], [121.46584, 25.131733]]]}}, {"type": "Feature", "properties": {}, "geometry": {"type": "Polygon", "coordinates": [[[121.369538, 25.17337], [121.348366, 25.162597], [121.367408, 25.13147], [121.38211, 25.138197], [121.388384, 25.127381], [121.393542, 25.114498], [121.397732, 25.116832], [121.396028, 25.138261], [121.40952, 25.149141], [121.426834, 25.157185], [121.444897, 25.155737], [121.453118, 25.135104], [121.446774, 25.131567], [121.444337, 25.127196], [121.449854, 25.121328], [121.46456, 25.123746], [121.469374, 25.1332], [121.459726, 25.174733], [121.457358, 25.182629], [121.459664, 25.189961], [121.45231, 25.194981], [121.432425, 25.207883], [121.423324, 25.203117], [121.39508, 25.190639], [121.369538, 25.17337]]]}}, {"type": "Feature", "properties": {}, "geometry": {"type": "Polygon", "coordinates": [[[121.244481, 25.100799], [121.211421, 25.072224], [121.222101, 25.060258], [121.23369, 25.069267], [121.252989, 25.085505], [121.246813, 25.102165], [121.244481, 25.100799]]]}}, {"type": "Feature", "properties": {}, "geometry": {"type": "Polygon", "coordinates": [[[121.752378, 24.765443], [121.743452, 24.757833], [121.730544, 24.74894], [121.734878, 24.743983], [121.7448, 24.74267], [121.751979, 24.733982], [121.761623, 24.741106], [121.75902, 24.746353], [121.759662, 24.749786], [121.762622, 24.746094], [121.7679, 24.746806], [121.769291, 24.74875], [121.770289, 24.752085], [121.766055, 24.76269], [121.756597, 24.765566], [121.752378, 24.765443]]]}}, {"type": "Feature", "properties": {}, "geometry": {"type": "Polygon", "coordinates": [[[121.757984, 24.696648], [121.76454, 24.684781], [121.758311, 24.684694], [121.754843, 24.678188], [121.754811, 24.670339], [121.76293, 24.669434], [121.763802, 24.658317], [121.779985, 24.666954], [121.786672, 24.673644], [121.783076, 24.686978], [121.77502, 24.68818], [121.775619, 24.695512], [121.766107, 24.695065], [121.757984, 24.696648]]]}}, {"type": "Feature", "properties": {}, "geometry": {"type": "Polygon", "coordinates": [[[120.998207, 24.851903], [120.990035, 24.843892], [120.99629, 24.832905], [120.993104, 24.826313], [121.011163, 24.816927], [121.031956, 24.801763], [121.041893, 24.797229], [121.051982, 24.805014], [121.033419, 24.81788], [121.038463, 24.824336], [121.037691, 24.831673], [121.025274, 24.843693], [121.02007, 24.849488], [121.007251, 24.853045], [120.998207, 24.851903]]]}}, {"type": "Feature", "properties": {}, "geometry": {"type": "Polygon", "coordinates": [[[121.044432, 24.873463], [121.040238, 24.879504], [121.018257, 24.875188], [121.016015, 24.881736], [121.003712, 24.884365], [120.984683, 24.876924], [120.98002, 24.865675], [121.015124, 24.852527], [121.044432, 24.873463]]]}}, {"type": "Feature", "properties": {}, "geometry": {"type": "Polygon", "coordinates": [[[120.969551, 24.826995], [120.929216, 24.796261], [120.928811, 24.785912], [120.946348, 24.791852], [120.961052, 24.788913], [120.959372, 24.781314], [120.954179, 24.776904], [120.969625, 24.762206], [120.972795, 24.780824], [120.980484, 24.774761], [121.003148, 24.769861], [121.012523, 24.761532], [121.023585, 24.756999], [121.035321, 24.780518], [121.025473, 24.784437], [121.020752, 24.797418], [120.986956, 24.814352], [120.98102, 24.824086], [120.969551, 24.826995]]]}}, {"type": "Feature", "properties": {}, "geometry": {"type": "Polygon", "coordinates": [[[121.200296, 25.011124], [121.197149, 24.999825], [121.211247, 24.999376], [121.214411, 25.003592], [121.22329, 25.003956], [121.223644, 25.004833], [121.22244, 25.009156], [121.221495, 25.009627], [121.223337, 25.01228], [121.22244, 25.014335], [121.22525, 25.019663], [121.224518, 25.021717], [121.223597, 25.024648], [121.218992, 25.026125], [121.214718, 25.022273], [121.208465, 25.017101], [121.205041, 25.0146], [121.200296, 25.011124]]]}}, {"type": "Feature", "properties": {}, "geometry": {"type": "Polygon", "coordinates": [[[120.822262, 24.587634], [120.82325, 24.57754], [120.813, 24.577447], [120.810123, 24.574289], [120.807161, 24.572198], [120.808557, 24.569303], [120.805782, 24.568033], [120.807059, 24.565772], [120.809953, 24.565091], [120.808882, 24.560534], [120.811112, 24.554944], [120.806626, 24.55482], [120.806745, 24.548037], [120.806711, 24.542477], [120.810235, 24.542307], [120.81158, 24.543592], [120.813211, 24.53617], [120.819119, 24.537347], [120.828398, 24.544131], [120.826348, 24.552118], [120.828571, 24.559345], [120.830344, 24.565137], [120.830344, 24.569422], [120.841797, 24.573856], [120.843926, 24.574278], [120.84325, 24.578139], [120.839751, 24.578266], [120.838841, 24.575381], [120.835879, 24.574745], [120.83287, 24.578181], [120.828391, 24.578881], [120.828461, 24.584608], [120.82758, 24.588029], [120.824828, 24.594943], [120.816081, 24.596916], [120.806914, 24.596767], [120.805001, 24.591868], [120.808411, 24.586742], [120.813305, 24.58315], [120.81169, 24.579554], [120.810669, 24.577274], [120.813278, 24.576484], [120.816034, 24.582153], [120.815684, 24.587647], [120.815708, 24.591656], [120.820795, 24.589065], [120.822262, 24.587634]]]}}, {"type": "Feature", "properties": {}, "geometry": {"type": "Polygon", "coordinates": [[[120.821419, 24.605382], [120.820537, 24.604329], [120.824183, 24.601337], [120.829372, 24.607128], [120.825813, 24.607844], [120.824144, 24.606806], [120.821419, 24.605382]]]}}, {"type": "Feature", "properties": {}, "geometry": {"type": "Polygon", "coordinates": [[[120.720314, 24.279945], [120.693306, 24.253431], [120.702445, 24.23627], [120.696536, 24.215039], [120.698875, 24.206246], [120.686281, 24.20507], [120.664011, 24.20336], [120.658804, 24.203514], [120.660288, 24.207936], [120.655572, 24.208448], [120.650426, 24.204688], [120.643665, 24.200566], [120.6345, 24.186153], [120.62688, 24.173743], [120.62312, 24.161744], [120.620956, 24.15059], [120.618917, 24.134065], [120.605739, 24.112484], [120.583484, 24.12117], [120.578432, 24.11802], [120.576967, 24.109908], [120.618629, 24.101086], [120.630024, 24.092775], [120.648046, 24.090457], [120.660061, 24.083107], [120.670032, 24.081297], [120.682377, 24.070219], [120.686894, 24.069914], [120.695593, 24.074954], [120.726785, 24.085862], [120.734827, 24.086142], [120.736818, 24.082771], [120.738909, 24.083719], [120.73712, 24.089763], [120.735642, 24.093521], [120.734103, 24.099007], [120.738537, 24.107202], [120.738976, 24.112621], [120.740833, 24.117459], [120.737499, 24.122242], [120.738305, 24.129633], [120.736949, 24.134147], [120.734787, 24.138662], [120.739697, 24.143912], [120.739514, 24.149863], [120.743691, 24.15528], [120.746073, 24.159459], [120.737949, 24.16225], [120.736446, 24.169204], [120.739598, 24.17472], [120.739634, 24.176559], [120.743995, 24.17589], [120.745607, 24.177328], [120.742896, 24.181941], [120.737802, 24.180804], [120.731353, 24.179267], [120.72527, 24.183612], [120.725014, 24.192671], [120.722215, 24.19833], [120.712582, 24.201624], [120.715948, 24.204512], [120.71236, 24.209058], [120.713637, 24.218568], [120.708315, 24.219249], [120.711108, 24.226035], [120.716334, 24.228341], [120.718694, 24.232425], [120.72587, 24.234885], [120.732317, 24.246654], [120.735568, 24.246435], [120.743203, 24.250193], [120.746382, 24.254409], [120.745949, 24.256363], [120.74802, 24.261019], [120.744167, 24.265168], [120.737617, 24.268505], [120.733378, 24.264686], [120.732415, 24.266179], [120.723914, 24.264949], [120.722854, 24.273928], [120.723432, 24.279526], [120.721675, 24.279767], [120.720314, 24.279945]]]}}, {"type": "Feature", "properties": {}, "geometry": {"type": "Polygon", "coordinates": [[[120.607534, 24.152541], [120.61095, 24.145826], [120.619531, 24.145031], [120.628074, 24.178567], [120.628645, 24.185195], [120.621983, 24.188038], [120.623604, 24.191042], [120.618335, 24.193237], [120.623668, 24.207246], [120.631192, 24.225033], [120.627467, 24.228474], [120.622194, 24.220092], [120.615063, 24.220244], [120.612015, 24.212038], [120.605533, 24.213538], [120.601102, 24.199871], [120.602055, 24.188275], [120.59518, 24.191695], [120.586966, 24.194057], [120.572931, 24.186521], [120.570822, 24.169709], [120.586782, 24.166358], [120.59906, 24.162053], [120.602719, 24.154255], [120.607534, 24.152541]]]}}, {"type": "Feature", "properties": {}, "geometry": {"type": "Polygon", "coordinates": [[[120.553891, 24.102267], [120.549588, 24.0992], [120.539412, 24.097661], [120.537082, 24.095618], [120.533728, 24.098221], [120.528471, 24.094598], [120.532119, 24.089757], [120.529062, 24.084322], [120.528082, 24.076486], [120.524986, 24.075703], [120.52097, 24.069658], [120.517085, 24.06918], [120.511108, 24.065178], [120.51166, 24.061736], [120.510863, 24.05695], [120.506296, 24.051632], [120.506694, 24.049057], [120.507154, 24.04483], [120.508687, 24.042983], [120.516433, 24.054204], [120.51919, 24.054644], [120.522912, 24.053165], [120.529528, 24.05562], [120.534856, 24.053017], [120.541482, 24.058268], [120.543012, 24.05661], [120.543848, 24.052011], [120.542216, 24.051211], [120.539725, 24.04497], [120.538441, 24.040091], [120.541948, 24.039774], [120.542356, 24.035417], [120.548962, 24.035789], [120.548574, 24.040853], [120.557017, 24.04699], [120.560222, 24.052371], [120.553364, 24.052717], [120.548264, 24.055534], [120.557932, 24.061005], [120.562525, 24.064978], [120.559661, 24.0711], [120.567397, 24.066337], [120.568569, 24.071435], [120.560747, 24.074487], [120.562002, 24.07955], [120.56808, 24.081063], [120.577073, 24.073186], [120.592245, 24.077792], [120.596172, 24.069421], [120.611047, 24.073024], [120.604479, 24.081389], [120.595243, 24.083077], [120.5776, 24.090407], [120.568674, 24.09478], [120.561507, 24.099876], [120.553891, 24.102267]]]}}, {"type": "Feature", "properties": {}, "geometry": {"type": "Polygon", "coordinates": [[[120.568108, 23.976464], [120.564614, 23.974199], [120.562443, 23.969061], [120.559582, 23.968967], [120.558506, 23.964825], [120.555066, 23.96283], [120.561506, 23.95738], [120.554194, 23.957255], [120.55245, 23.95356], [120.550383, 23.95216], [120.56209, 23.945319], [120.559832, 23.940741], [120.566454, 23.938283], [120.569558, 23.943886], [120.580125, 23.943051], [120.587013, 23.94218], [120.590179, 23.954511], [120.584154, 23.967279], [120.580845, 23.972808], [120.578841, 23.975765], [120.575984, 23.975934], [120.575506, 23.978408], [120.572396, 23.978755], [120.56912, 23.983268], [120.568108, 23.976464]]]}}, {"type": "Feature", "properties": {}, "geometry": {"type": "Polygon", "coordinates": [[[120.661488, 23.944828], [120.661684, 23.940241], [120.650995, 23.922607], [120.654188, 23.917841], [120.651125, 23.911466], [120.653928, 23.91081], [120.663248, 23.917007], [120.670256, 23.918735], [120.672602, 23.909797], [120.676382, 23.901396], [120.680879, 23.89502], [120.690916, 23.897642], [120.69222, 23.902945], [120.69763, 23.904733], [120.699324, 23.911704], [120.692155, 23.918198], [120.684073, 23.925109], [120.68127, 23.935654], [120.67248, 23.94415], [120.662312, 23.94695], [120.661488, 23.944828]]]}}, {"type": "Feature", "properties": {}, "geometry": {"type": "Polygon", "coordinates": [[[120.676348, 23.986387], [120.673219, 23.98204], [120.674718, 23.979182], [120.678107, 23.973822], [120.681822, 23.971142], [120.680388, 23.957682], [120.686645, 23.957861], [120.689997, 23.964625], [120.689177, 23.970761], [120.690075, 23.977645], [120.690582, 23.978787], [120.694134, 23.978787], [120.701591, 23.971046], [120.706587, 23.973329], [120.707485, 23.978465], [120.704167, 23.979571], [120.70202, 23.982674], [120.693822, 23.983352], [120.692723, 23.989296], [120.690816, 23.995407], [120.685618, 23.995234], [120.681869, 23.987471], [120.67749, 23.988075], [120.677182, 23.987611], [120.676348, 23.986387]]]}}, {"type": "Feature", "properties": {}, "geometry": {"type": "Polygon", "coordinates": [[[120.966192, 23.974543], [120.954718, 23.971886], [120.950061, 23.974817], [120.943059, 23.975639], [120.935583, 23.978228], [120.939825, 23.971963], [120.945777, 23.967115], [120.948309, 23.968944], [120.958688, 23.963602], [120.960939, 23.960288], [120.966692, 23.958345], [120.969904, 23.956222], [120.97353, 23.955936], [120.977313, 23.957508], [120.978188, 23.958565], [120.97872, 23.970563], [120.980689, 23.974677], [120.974374, 23.975077], [120.966192, 23.974543]]]}}, {"type": "Feature", "properties": {}, "geometry": {"type": "Polygon", "coordinates": [[[120.539927, 23.722331], [120.530049, 23.718711], [120.528313, 23.716746], [120.523395, 23.714978], [120.525357, 23.712646], [120.528543, 23.713161], [120.528167, 23.710975], [120.525855, 23.710765], [120.527603, 23.701825], [120.519922, 23.699786], [120.519821, 23.695471], [120.524451, 23.693042], [120.524067, 23.690058], [120.530766, 23.688151], [120.532817, 23.691516], [120.533311, 23.688138], [120.539578, 23.688737], [120.539916, 23.696478], [120.553095, 23.701718], [120.556454, 23.698354], [120.558866, 23.700046], [120.561797, 23.701161], [120.561977, 23.703597], [120.555958, 23.706775], [120.557919, 23.712328], [120.556882, 23.715031], [120.548517, 23.718655], [120.544249, 23.718973], [120.542008, 23.720487], [120.541181, 23.72183], [120.539927, 23.722331]]]}}, {"type": "Feature", "properties": {}, "geometry": {"type": "Polygon", "coordinates": [[[120.430515, 23.71564], [120.42611, 23.709434], [120.41896, 23.708038], [120.41591, 23.70537], [120.417213, 23.704073], [120.418346, 23.702718], [120.420521, 23.702166], [120.422019, 23.698836], [120.425547, 23.69651], [120.427356, 23.696209], [120.437407, 23.701865], [120.440619, 23.702392], [120.443141, 23.701856], [120.44866, 23.703982], [120.450963, 23.706425], [120.456939, 23.703697], [120.459643, 23.7044], [120.459424, 23.705153], [120.454691, 23.706174], [120.453978, 23.708081], [120.451858, 23.708784], [120.4529, 23.70962], [120.452096, 23.713335], [120.447354, 23.713983], [120.4439, 23.713876], [120.436465, 23.71866], [120.430515, 23.71564]]]}}, {"type": "Feature", "properties": {}, "geometry": {"type": "Polygon", "coordinates": [[[120.47453, 23.684374], [120.468885, 23.682949], [120.467878, 23.679093], [120.465865, 23.674258], [120.471784, 23.667328], [120.476696, 23.665456], [120.480693, 23.66526], [120.486098, 23.674599], [120.488379, 23.677922], [120.486639, 23.678987], [120.48785, 23.681046], [120.48306, 23.6848], [120.476951, 23.6847], [120.47453, 23.684374]]]}}, {"type": "Feature", "properties": {}, "geometry": {"type": "Polygon", "coordinates": [[[120.442828, 23.51281], [120.445737, 23.508319], [120.448532, 23.496139], [120.431274, 23.494448], [120.420376, 23.48219], [120.419569, 23.479495], [120.421046, 23.472851], [120.422112, 23.469309], [120.426808, 23.465213], [120.432801, 23.460826], [120.439831, 23.46109], [120.437757, 23.460033], [120.434051, 23.454977], [120.434619, 23.454438], [120.444711, 23.452823], [120.446358, 23.458051], [120.447759, 23.457843], [120.447532, 23.45614], [120.450448, 23.455307], [120.459044, 23.459666], [120.46143, 23.46189], [120.468568, 23.462098], [120.470708, 23.465832], [120.470344, 23.471598], [120.474368, 23.475161], [120.480067, 23.478974], [120.491473, 23.481343], [120.490459, 23.484348], [120.481451, 23.486637], [120.475927, 23.487886], [120.474545, 23.489066], [120.481588, 23.490716], [120.480983, 23.493859], [120.474412, 23.492904], [120.473863, 23.495023], [120.469239, 23.497041], [120.466456, 23.495825], [120.464714, 23.495843], [120.464032, 23.495426], [120.464525, 23.493724], [120.463275, 23.490529], [120.461079, 23.491501], [120.459128, 23.496607], [120.457481, 23.50126], [120.455872, 23.502892], [120.455465, 23.50554], [120.457869, 23.50738], [120.45679, 23.514707], [120.446192, 23.51412], [120.442828, 23.51281]]]}}, {"type": "Feature", "properties": {}, "geometry": {"type": "Polygon", "coordinates": [[[120.246181, 23.058743], [120.240145, 23.051098], [120.229172, 23.046121], [120.221098, 23.032056], [120.217997, 23.031838], [120.215391, 23.029972], [120.212264, 23.028586], [120.202825, 23.028906], [120.192871, 23.029888], [120.187311, 23.028449], [120.17376, 23.023865], [120.17266, 23.022053], [120.18042, 23.015124], [120.183233, 23.012411], [120.177393, 23.008105], [120.178335, 23.006115], [120.176487, 23.005792], [120.175064, 23.005724], [120.175378, 22.999958], [120.173494, 23.00091], [120.173251, 23.002135], [120.170294, 23.002321], [120.16894, 23.003316], [120.163595, 23.003209], [120.161179, 23.004753], [120.158224, 23.00529], [120.142689, 22.999199], [120.139935, 22.993246], [120.143352, 22.985584], [120.145342, 22.982241], [120.15301, 22.98302], [120.151438, 22.986462], [120.153489, 22.986562], [120.155439, 22.987717], [120.157753, 22.98637], [120.157551, 22.982809], [120.165561, 22.97505], [120.168561, 22.970755], [120.171401, 22.966158], [120.176554, 22.962627], [120.183183, 22.962378], [120.182802, 22.957708], [120.195793, 22.957497], [120.19575, 22.963847], [120.198025, 22.967298], [120.198297, 22.968651], [120.198415, 22.97207], [120.203949, 22.972154], [120.209075, 22.967379], [120.209317, 22.965368], [120.214678, 22.965507], [120.217128, 22.965852], [120.216223, 22.970242], [120.223465, 22.956714], [120.230782, 22.957041], [120.237788, 22.961057], [120.2381, 22.963611], [120.239094, 22.969457], [120.240929, 22.970604], [120.245441, 22.969434], [120.246425, 22.970315], [120.248394, 22.97003], [120.249547, 22.968295], [120.247887, 22.946384], [120.245797, 22.942565], [120.250937, 22.938021], [120.253564, 22.940568], [120.252013, 22.942692], [120.253591, 22.944158], [120.256032, 22.942431], [120.256302, 22.940357], [120.262209, 22.940965], [120.263289, 22.94186], [120.262574, 22.943077], [120.260524, 22.94376], [120.258918, 22.948157], [120.257233, 22.949213], [120.257512, 22.950563], [120.255232, 22.952451], [120.255529, 22.954624], [120.260364, 22.952229], [120.261515, 22.953677], [120.264094, 22.954064], [120.264216, 22.955073], [120.266114, 22.969153], [120.27593, 22.967663], [120.276984, 22.962595], [120.285712, 22.963363], [120.286319, 22.960358], [120.287862, 22.958285], [120.292466, 22.961663], [120.295238, 22.958438], [120.293998, 22.954758], [120.30394, 22.958229], [120.308706, 22.964111], [120.303004, 22.966207], [120.301182, 22.969827], [120.300936, 22.973018], [120.299295, 22.974321], [120.29909, 22.976492], [120.296137, 22.97804], [120.294948, 22.976964], [120.295584, 22.974415], [120.295071, 22.973188], [120.287401, 22.974094], [120.28697, 22.972697], [120.285525, 22.97232], [120.272544, 22.972528], [120.271805, 22.973528], [120.264669, 22.973453], [120.260303, 22.973193], [120.259361, 22.973566], [120.261003, 22.975048], [120.262849, 22.975163], [120.263548, 22.978098], [120.260912, 22.978143], [120.262305, 22.98316], [120.260901, 22.984698], [120.265218, 22.986481], [120.265425, 22.988115], [120.266208, 22.991495], [120.263751, 22.999303], [120.27203, 23.002446], [120.274751, 23.00446], [120.275152, 23.011439], [120.266163, 23.019616], [120.265881, 23.028138], [120.268704, 23.036815], [120.26416, 23.042005], [120.266189, 23.043593], [120.263715, 23.046672], [120.265165, 23.047901], [120.268049, 23.040204], [120.27483, 23.045166], [120.276984, 23.051652], [120.272156, 23.05375], [120.276143, 23.056289], [120.270732, 23.059335], [120.254376, 23.058401], [120.246181, 23.058743]]]}}, {"type": "Feature", "properties": {}, "geometry": {"type": "Polygon", "coordinates": [[[120.280462, 22.927245], [120.284834, 22.919168], [120.290908, 22.919095], [120.29655, 22.921217], [120.29003, 22.934096], [120.279558, 22.929853], [120.280462, 22.927245]]]}}, {"type": "Feature", "properties": {}, "geometry": {"type": "Polygon", "coordinates": [[[120.317762, 23.466635], [120.317311, 23.459169], [120.320759, 23.458831], [120.320575, 23.455375], [120.326969, 23.454576], [120.327494, 23.460767], [120.320395, 23.466165], [120.317762, 23.466635]]]}}, {"type": "Feature", "properties": {}, "geometry": {"type": "Polygon", "coordinates": [[[120.276529, 22.718661], [120.285102, 22.704487], [120.285312, 22.687165], [120.285753, 22.68216], [120.285454, 22.672368], [120.276874, 22.664036], [120.272205, 22.656962], [120.271891, 22.648398], [120.275761, 22.642337], [120.278308, 22.635862], [120.273389, 22.639372], [120.260281, 22.635085], [120.256735, 22.631052], [120.262032, 22.619124], [120.261215, 22.608115], [120.274728, 22.591586], [120.291547, 22.531807], [120.311988, 22.512001], [120.335599, 22.530241], [120.358944, 22.508137], [120.363446, 22.510178], [120.362696, 22.514068], [120.37687, 22.533553], [120.380569, 22.538311], [120.379944, 22.547898], [120.370564, 22.558524], [120.376725, 22.5585], [120.376331, 22.563723], [120.374051, 22.569162], [120.378777, 22.574848], [120.377969, 22.580746], [120.368798, 22.588713], [120.368131, 22.592793], [120.370499, 22.596664], [120.379798, 22.621415], [120.384107, 22.628848], [120.378246, 22.636644], [120.376898, 22.641675], [120.373919, 22.645987], [120.369753, 22.646496], [120.361623, 22.640753], [120.357936, 22.64591], [120.362419, 22.656743], [120.363655, 22.664556], [120.379063, 22.66234], [120.378445, 22.66765], [120.372477, 22.668231], [120.37017, 22.671654], [120.367245, 22.671874], [120.356366, 22.686669], [120.361275, 22.704754], [120.359914, 22.73276], [120.352279, 22.736948], [120.344248, 22.736112], [120.342025, 22.733833], [120.33993, 22.740587], [120.333093, 22.743588], [120.319009, 22.740132], [120.31835, 22.733409], [120.301107, 22.729429], [120.297653, 22.729865], [120.292601, 22.73349], [120.290407, 22.736075], [120.289711, 22.736623], [120.285651, 22.73761], [120.285069, 22.735582], [120.277613, 22.737866], [120.276324, 22.733834], [120.270694, 22.729939], [120.276529, 22.718661]]]}}, {"type": "Feature", "properties": {}, "geometry": {"type": "Polygon", "coordinates": [[[120.470486, 22.690066], [120.470631, 22.682874], [120.469559, 22.679826], [120.470689, 22.677714], [120.476456, 22.675655], [120.477035, 22.672741], [120.469588, 22.672019], [120.467759, 22.67114], [120.467614, 22.666674], [120.462659, 22.656593], [120.460648, 22.649287], [120.464646, 22.648084], [120.465226, 22.651507], [120.468008, 22.654662], [120.480207, 22.651908], [120.487481, 22.651213], [120.494261, 22.652202], [120.504925, 22.658968], [120.502607, 22.651721], [120.50423, 22.650063], [120.506751, 22.651721], [120.508489, 22.659396], [120.511532, 22.659529], [120.515183, 22.65723], [120.515734, 22.661722], [120.511155, 22.669209], [120.511708, 22.672532], [120.510896, 22.67903], [120.512896, 22.685099], [120.505745, 22.688981], [120.50221, 22.693339], [120.498675, 22.68989], [120.49485, 22.692858], [120.488131, 22.695344], [120.480713, 22.694676], [120.480945, 22.690051], [120.470486, 22.690066]]]}}, {"type": "Feature", "properties": {}, "geometry": {"type": "Polygon", "coordinates": [[[121.137264, 22.771369], [121.13418, 22.770117], [121.132739, 22.76791], [121.133553, 22.759597], [121.129923, 22.756776], [121.129923, 22.751247], [121.131636, 22.751623], [121.132084, 22.750608], [121.132166, 22.744364], [121.133471, 22.741543], [121.13706, 22.742445], [121.140242, 22.740903], [121.143749, 22.742821], [121.144781, 22.744105], [121.144496, 22.746719], [121.146654, 22.74792], [121.149239, 22.74935], [121.151468, 22.748906], [121.155658, 22.749301], [121.161204, 22.752261], [121.162381, 22.75606], [121.160348, 22.760647], [121.156826, 22.764508], [121.148499, 22.768618], [121.145895, 22.770986], [121.14158, 22.770936], [121.139922, 22.772268], [121.13846, 22.772038], [121.137264, 22.771369]]]}}, {"type": "Feature", "properties": {}, "geometry": {"type": "Polygon", "coordinates": [[[121.451834, 22.694554], [121.457522, 22.629919], [121.516187, 22.620074], [121.54309, 22.674215], [121.516661, 22.695975], [121.451834, 22.694554]]]}}, {"type": "Feature", "properties": {}, "geometry": {"type": "Polygon", "coordinates": [[[121.475784, 22.11678], [121.467613, 21.959445], [121.673749, 21.92017], [121.662235, 22.113339], [121.475784, 22.11678]]]}}, {"type": "Feature", "properties": {}, "geometry": {"type": "Polygon", "coordinates": [[[121.603565, 24.007077], [121.591852, 23.994165], [121.580644, 23.977298], [121.576763, 23.976335], [121.569886, 23.980034], [121.563081, 23.983515], [121.561955, 23.982027], [121.574582, 23.974999], [121.577625, 23.972591], [121.577218, 23.969701], [121.58074, 23.96784], [121.582417, 23.966292], [121.58558, 23.968526], [121.591091, 23.962373], [121.591475, 23.961169], [121.595261, 23.961519], [121.598682, 23.961598], [121.599856, 23.964861], [121.599017, 23.965561], [121.608649, 23.971987], [121.61095, 23.968997], [121.612787, 23.968053], [121.62226, 23.975766], [121.628106, 23.970927], [121.641543, 23.987492], [121.65199, 24.013111], [121.645976, 24.027722], [121.63022, 24.030139], [121.628345, 24.027278], [121.62924, 24.025779], [121.629261, 24.02393], [121.619434, 24.012768], [121.61564, 24.008679], [121.613822, 24.010463], [121.609077, 24.009922], [121.606031, 24.008924], [121.603565, 24.007077]]]}}, {"type": "Feature", "properties": {}, "geometry": {"type": "Polygon", "coordinates": [[[119.559379, 23.586002], [119.553888, 23.560001], [119.56185, 23.541545], [119.599643, 23.548341], [119.60852, 23.558742], [119.606232, 23.574092], [119.591499, 23.577279], [119.58427, 23.597239], [119.559379, 23.586002]]]}}, {"type": "Feature", "properties": {}, "geometry": {"type": "Polygon", "coordinates": [[[118.308905, 24.428371], [118.321538, 24.429291], [118.321833, 24.432071], [118.321307, 24.432588], [118.325389, 24.436082], [118.320104, 24.43982], [118.314756, 24.439724], [118.307639, 24.431079], [118.308905, 24.428371]]]}}, {"type": "Feature", "properties": {}, "geometry": {"type": "Polygon", "coordinates": [[[118.414123, 24.446043], [118.412774, 24.444611], [118.413355, 24.443247], [118.412062, 24.442037], [118.408336, 24.444151], [118.406556, 24.441662], [118.409853, 24.439548], [118.40901, 24.438422], [118.404815, 24.436052], [118.406276, 24.434228], [118.410583, 24.434194], [118.413018, 24.437757], [118.415078, 24.438405], [118.419816, 24.436871], [118.422962, 24.434944], [118.424292, 24.436513], [118.427476, 24.435814], [118.431371, 24.441184], [118.426839, 24.445464], [118.418936, 24.443145], [118.415771, 24.445719], [118.414123, 24.446043]]]}}, {"type": "Feature", "properties": {}, "geometry": {"type": "Polygon", "coordinates": [[[120.438719, 26.411133], [120.075338, 26.335699], [119.806471, 26.211887], [119.907729, 25.850902], [120.224873, 26.203212], [120.558185, 26.37711], [120.438719, 26.411133]]]}}, {"type": "Feature", "properties": {}, "geometry": {"type": "Polygon", "coordinates": [[[120.357891, 22.358741], [120.346142, 22.298777], [120.402259, 22.326653], [120.396592, 22.369222], [120.357891, 22.358741]]]}}]}