{"type": "FeatureCollection", "features": [{"type": "Feature", "properties": {}, "geometry": {"type": "Polygon", "coordinates": [[[19.805752, 41.334574], [19.801835, 41.329275], [19.802628, 41.325959], [19.790883, 41.322585], [19.796296, 41.319681], [19.804815, 41.320868], [19.810489, 41.317477], [19.820696, 41.318637], [19.817251, 41.315606], [19.831568, 41.317943], [19.827294, 41.319795], [19.82544, 41.324045], [19.826059, 41.325066], [19.834853, 41.330172], [19.834127, 41.333984], [19.829383, 41.340451], [19.826391, 41.3407], [19.820045, 41.338341], [19.816056, 41.336525], [19.805752, 41.334574]]]}}]}