{"type":"FeatureCollection","features":[{"type":"Feature","geometry":{"type":"Polygon","coordinates":[[[16.389157,48.250188],[16.363607,48.237522],[16.352857,48.230045],[16.338468,48.206098],[16.342108,48.190645],[16.349043,48.181588],[16.342022,48.176953],[16.363378,48.180215],[16.384185,48.186235],[16.396603,48.184246],[16.412095,48.197456],[16.407024,48.203122],[16.394795,48.214155],[16.416371,48.225185],[16.429458,48.219861],[16.425725,48.228424],[16.42766,48.232836],[16.429149,48.2371],[16.418857,48.243992],[16.402258,48.250039],[16.389157,48.250188]]]},"properties":{}}]}