{"type": "FeatureCollection", "features": [{"type": "Feature", "geometry": {"type": "Polygon", "coordinates": [[[4.352189, 50.864986], [4.346225, 50.860725], [4.331671, 50.865268], [4.315976, 50.869295], [4.312818, 50.867], [4.313743, 50.864946], [4.32639, 50.861284], [4.318436, 50.847362], [4.31661, 50.840811], [4.333788, 50.831346], [4.337819, 50.834833], [4.346211, 50.831415], [4.356199, 50.83494], [4.367241, 50.839694], [4.393841, 50.837862], [4.395918, 50.842496], [4.394505, 50.847252], [4.366652, 50.854982], [4.363744, 50.862428], [4.352189, 50.864986]]]}, "properties": {}}]}