{"type": "FeatureCollection", "features": [{"type": "Feature", "geometry": {"type": "Polygon", "coordinates": [[[23.299366, 42.711584], [23.296419, 42.700486], [23.308814, 42.69827], [23.306816, 42.694954], [23.30842, 42.692514], [23.29799, 42.68684], [23.299257, 42.685744], [23.310486, 42.691106], [23.316994, 42.686151], [23.31721, 42.681159], [23.334097, 42.68582], [23.338507, 42.690665], [23.335149, 42.693653], [23.336233, 42.698453], [23.344618, 42.699237], [23.344932, 42.70114], [23.327019, 42.711973], [23.309974, 42.717807], [23.299366, 42.711584]]]}, "properties": {}}]}