{"type": "FeatureCollection", "features": [{"type": "Feature", "geometry": {"type": "Polygon", "coordinates": [[[24.742888, 59.426482], [24.756835, 59.428742], [24.772449, 59.426436], [24.7958, 59.416714], [24.809137, 59.41751], [24.809327, 59.423006], [24.818764, 59.426374], [24.816355, 59.432542], [24.810411, 59.432369], [24.798828, 59.426809], [24.786426, 59.430535], [24.784071, 59.43275], [24.765272, 59.435021], [24.766944, 59.440257], [24.74416, 59.457413], [24.718057, 59.461847], [24.704284, 59.454422], [24.688923, 59.455807], [24.681037, 59.449031], [24.682413, 59.441835], [24.696916, 59.439748], [24.703056, 59.428879], [24.72364, 59.426422], [24.730026, 59.427699], [24.742888, 59.426482]]]}, "properties": {}}]}