{"type": "FeatureCollection", "features": [{"type": "Feature", "geometry": {"type": "Polygon", "coordinates": [[[-3.699306, 40.447141], [-3.710548, 40.447682], [-3.711258, 40.443995], [-3.722629, 40.436373], [-3.725329, 40.432653], [-3.723925, 40.42273], [-3.719115, 40.419149], [-3.721208, 40.412108], [-3.720668, 40.40224], [-3.70286, 40.398104], [-3.688269, 40.390171], [-3.681721, 40.390839], [-3.676996, 40.394644], [-3.667079, 40.407378], [-3.664499, 40.422748], [-3.666776, 40.431991], [-3.680091, 40.447449], [-3.699306, 40.447141]]]}, "properties": {}}]}