{"type": "FeatureCollection", "features": [{"type": "Feature", "geometry": {"type": "Polygon", "coordinates": [[[24.955135, 60.145016], [24.982312, 60.167054], [24.974333, 60.173024], [24.984579, 60.18363], [24.986273, 60.190805], [24.966662, 60.202073], [24.961876, 60.202284], [24.96046, 60.197237], [24.957057, 60.195828], [24.947069, 60.200623], [24.946373, 60.209272], [24.935755, 60.207725], [24.924622, 60.208432], [24.924313, 60.203309], [24.928591, 60.193701], [24.919158, 60.190678], [24.913435, 60.19219], [24.898368, 60.192366], [24.890927, 60.175209], [24.906503, 60.142265], [24.955135, 60.145016]]]}, "properties": {}}]}