{"type": "FeatureCollection", "features": [{"type": "Feature", "geometry": {"type": "Polygon", "coordinates": [[[19.039184, 47.523381], [19.033598, 47.512637], [19.026494, 47.509136], [19.019199, 47.509511], [19.018501, 47.508452], [19.022561, 47.505966], [19.022373, 47.493041], [19.023227, 47.486008], [19.039209, 47.490059], [19.0457, 47.48955], [19.05105, 47.485], [19.048698, 47.479545], [19.032186, 47.473746], [19.03326, 47.472399], [19.050282, 47.468969], [19.08163, 47.466764], [19.095687, 47.467956], [19.109095, 47.472631], [19.099824, 47.475966], [19.106605, 47.483292], [19.111545, 47.490975], [19.110193, 47.501842], [19.102458, 47.512111], [19.088359, 47.522082], [19.058867, 47.538918], [19.052974, 47.540573], [19.039184, 47.523381]]]}, "properties": {}}]}