{"type": "FeatureCollection", "features": [{"type": "Feature", "geometry": {"type": "Polygon", "coordinates": [[[-6.23154, 53.359271], [-6.247224, 53.362371], [-6.271825, 53.367054], [-6.289777, 53.35899], [-6.298895, 53.352558], [-6.296917, 53.34883], [-6.308769, 53.348694], [-6.30856, 53.335989], [-6.291105, 53.330691], [-6.275888, 53.328997], [-6.262554, 53.329221], [-6.245369, 53.33368], [-6.24189, 53.331612], [-6.224442, 53.334141], [-6.230118, 53.344739], [-6.227147, 53.345974], [-6.225838, 53.356189], [-6.23154, 53.359271]]]}, "properties": {}}]}