{"type": "FeatureCollection", "features": [{"type": "Feature", "geometry": {"type": "Polygon", "coordinates": [[[12.453719, 41.917139], [12.439768, 41.903132], [12.441222, 41.896744], [12.45099, 41.891407], [12.454854, 41.894743], [12.462324, 41.890182], [12.468792, 41.875258], [12.480339, 41.871448], [12.499941, 41.869594], [12.506304, 41.870205], [12.511033, 41.875506], [12.515406, 41.88137], [12.517016, 41.891954], [12.529655, 41.895478], [12.535546, 41.907755], [12.528691, 41.917918], [12.519328, 41.918796], [12.510476, 41.911097], [12.506472, 41.913871], [12.494175, 41.905778], [12.485312, 41.907046], [12.478717, 41.911187], [12.472912, 41.922765], [12.46574, 41.921384], [12.453719, 41.917139]]]}, "properties": {}}]}