{"type": "FeatureCollection", "features": [{"type": "Feature", "properties": {}, "geometry": {"type": "Polygon", "coordinates": [[[19.23854, 42.456332], [19.236377, 42.455042], [19.234201, 42.453201], [19.231954, 42.448469], [19.234587, 42.446475], [19.227488, 42.440276], [19.225849, 42.437706], [19.228701, 42.434225], [19.233582, 42.426116], [19.236687, 42.422299], [19.240088, 42.421025], [19.248419, 42.421953], [19.264316, 42.417405], [19.265141, 42.41728], [19.276073, 42.43545], [19.27739, 42.43948], [19.277424, 42.442296], [19.27027, 42.442785], [19.258039, 42.446148], [19.248037, 42.448975], [19.23854, 42.456332]]]}}]}