{"type": "FeatureCollection", "features": [{"type": "Feature", "properties": {}, "geometry": {"type": "Polygon", "coordinates": [[[21.383883, 42.014728], [21.378561, 42.003128], [21.370447, 41.99622], [21.409714, 41.989665], [21.459891, 41.971232], [21.470089, 41.967257], [21.484917, 41.984809], [21.49609, 41.994416], [21.501057, 41.999624], [21.488628, 42.004048], [21.481777, 42.00526], [21.475634, 42.00423], [21.475192, 42.015473], [21.459176, 42.017988], [21.452103, 42.025532], [21.428157, 42.027201], [21.427377, 42.019742], [21.427136, 42.012325], [21.412777, 42.016538], [21.407269, 42.015236], [21.395964, 42.015378], [21.383883, 42.014728]]]}}]}