{"type": "FeatureCollection", "features": [{"type": "Feature", "geometry": {"type": "Polygon", "coordinates": [[[26.062908, 44.454626], [26.057038, 44.435313], [26.059748, 44.427999], [26.075825, 44.419058], [26.081969, 44.415768], [26.0949, 44.404961], [26.104759, 44.412531], [26.113778, 44.416234], [26.123575, 44.421107], [26.131787, 44.413544], [26.13741, 44.418805], [26.140181, 44.43033], [26.136843, 44.440103], [26.128408, 44.446247], [26.124819, 44.452443], [26.102528, 44.454032], [26.062908, 44.454626]]]}, "properties": {}}]}