{"type": "FeatureCollection", "features": [{"type": "Feature", "geometry": {"type": "Polygon", "coordinates": [[[37.596671, 55.772264], [37.56561, 55.787631], [37.560076, 55.783624], [37.587163, 55.768469], [37.578655, 55.754988], [37.568572, 55.758534], [37.524215, 55.758974], [37.531856, 55.731982], [37.576273, 55.741098], [37.608055, 55.726866], [37.64082, 55.726303], [37.661198, 55.737828], [37.660871, 55.767287], [37.632713, 55.774715], [37.607947, 55.775337], [37.596671, 55.772264]]]}, "properties": {}}]}