{"type": "FeatureCollection", "features": [{"type": "Feature", "geometry": {"type": "Polygon", "coordinates": [[[18.029125, 59.326982], [18.025826, 59.319337], [18.026032, 59.315718], [18.032342, 59.313441], [18.049746, 59.315766], [18.052176, 59.312452], [18.062368, 59.308398], [18.072415, 59.30677], [18.08229, 59.308205], [18.087559, 59.310033], [18.083366, 59.319019], [18.075765, 59.320914], [18.07859, 59.32711], [18.085831, 59.33061], [18.098322, 59.331222], [18.104186, 59.338275], [18.072203, 59.346268], [18.05613, 59.352536], [18.046517, 59.351007], [18.031775, 59.346553], [18.022309, 59.341415], [18.011081, 59.335332], [18.029125, 59.326982]]]}, "properties": {}}]}