{"type": "FeatureCollection", "features": [{"type": "Feature", "geometry": {"type": "Polygon", "coordinates": [[[17.098007, 48.145281], [17.097287, 48.138675], [17.128451, 48.137528], [17.155053, 48.14], [17.162105, 48.142643], [17.159356, 48.148552], [17.176291, 48.150337], [17.180518, 48.160172], [17.142342, 48.175046], [17.130779, 48.179428], [17.123585, 48.170718], [17.113801, 48.159317], [17.10996, 48.158573], [17.107387, 48.15874], [17.104139, 48.160216], [17.103132, 48.159455], [17.104596, 48.150909], [17.103432, 48.149108], [17.09985, 48.148158], [17.098007, 48.145281]]]}, "properties": {}}]}