{"type": "FeatureCollection", "features": [{"type": "Feature", "geometry": {"type": "Polygon", "coordinates": [[[12.453495, 43.924036], [12.453373, 43.931735], [12.448389, 43.937414], [12.451116, 43.938498], [12.450095, 43.940389], [12.445661, 43.942016], [12.448279, 43.942859], [12.450822, 43.944086], [12.456119, 43.94444], [12.458043, 43.945404], [12.465103, 43.946827], [12.469935, 43.946932], [12.469643, 43.948962], [12.472754, 43.949937], [12.473816, 43.952256], [12.47107, 43.952809], [12.468114, 43.955471], [12.47722, 43.956868], [12.476635, 43.960188], [12.472681, 43.961031], [12.471718, 43.964476], [12.475016, 43.96618], [12.481544, 43.970729], [12.484052, 43.969112], [12.484336, 43.970533], [12.484892, 43.972248], [12.486871, 43.974019], [12.491016, 43.978502], [12.493053, 43.981421], [12.497671, 43.98015], [12.49986, 43.983469], [12.502767, 43.982287], [12.505672, 43.984623], [12.508753, 43.983235], [12.511323, 43.982058], [12.512302, 43.983075], [12.512847, 43.9843], [12.515997, 43.984564], [12.51525, 43.989236], [12.514983, 43.99049], [12.513556, 43.991287], [12.509281, 43.992256], [12.505467, 43.991129], [12.504412, 43.990416], [12.503442, 43.98827], [12.501966, 43.986786], [12.500336, 43.986947], [12.498791, 43.985851], [12.496473, 43.983629], [12.492363, 43.982961], [12.491117, 43.983444], [12.489981, 43.983189], [12.487559, 43.98049], [12.484764, 43.975673], [12.481203, 43.972752], [12.47317, 43.967563], [12.468963, 43.963977], [12.470941, 43.959482], [12.473074, 43.957849], [12.465705, 43.956453], [12.46441, 43.954396], [12.464065, 43.950428], [12.459032, 43.948861], [12.446887, 43.945485], [12.44356, 43.94327], [12.439503, 43.938286], [12.44858, 43.927416], [12.453495, 43.924036]]]}, "properties": {}}]}