{"type": "FeatureCollection", "features": [{"type": "Feature", "geometry": {"type": "Polygon", "coordinates": [[[106.791065, -6.124805], [106.79347, -6.151742], [106.787218, -6.165382], [106.786395, -6.171352], [106.791825, -6.17855], [106.795198, -6.184194], [106.795788, -6.196483], [106.79997, -6.205867], [106.810335, -6.203414], [106.837811, -6.206481], [106.843289, -6.20229], [106.852621, -6.19176], [106.853289, -6.175843], [106.854825, -6.161604], [106.846759, -6.125305], [106.820322, -6.130762], [106.812802, -6.126075], [106.804257, -6.124772], [106.802682, -6.124835], [106.791065, -6.124805]]]}, "properties": {}}]}