{"type": "FeatureCollection", "features": [{"type": "Feature", "geometry": {"type": "Polygon", "coordinates": [[[77.234164, 28.672093], [77.218461, 28.667725], [77.210593, 28.66841], [77.202566, 28.666037], [77.202606, 28.657252], [77.204767, 28.647264], [77.204753, 28.641933], [77.240256, 28.624941], [77.247958, 28.62695], [77.24739, 28.642222], [77.247502, 28.646227], [77.246741, 28.649178], [77.245621, 28.651843], [77.24571, 28.658243], [77.237776, 28.666295], [77.234164, 28.672093]]]}, "properties": {}}]}