{"type": "FeatureCollection", "features": [{"type": "Feature", "properties": {}, "geometry": {"type": "Polygon", "coordinates": [[[139.787406, 35.674456], [139.845404, 35.671522], [139.850338, 35.69941], [139.813809, 35.710545], [139.809843, 35.72522], [139.783052, 35.725199], [139.753379, 35.725981], [139.733839, 35.720737], [139.71059, 35.715845], [139.688249, 35.684004], [139.687823, 35.662475], [139.695014, 35.652323], [139.704869, 35.635824], [139.71163, 35.62636], [139.736905, 35.6146], [139.752538, 35.614471], [139.752386, 35.625028], [139.754085, 35.634908], [139.764476, 35.634377], [139.763364, 35.650511], [139.767169, 35.656651], [139.778697, 35.664045], [139.780289, 35.666633], [139.782147, 35.670484], [139.787406, 35.674456]]]}}]}