{"type": "FeatureCollection", "features": [{"type": "Feature", "geometry": {"type": "Polygon", "coordinates": [[[71.359909, 51.132026], [71.40279, 51.126551], [71.393587, 51.099025], [71.38733, 51.083627], [71.422259, 51.078793], [71.427582, 51.094557], [71.451351, 51.091212], [71.454272, 51.102061], [71.464166, 51.107837], [71.471964, 51.128479], [71.418242, 51.137799], [71.425985, 51.149875], [71.408015, 51.14692], [71.387218, 51.149947], [71.365883, 51.150273], [71.359909, 51.132026]]]}, "properties": {}}]}