{"type": "FeatureCollection", "features": [{"type": "Feature", "properties": {}, "geometry": {"type": "Polygon", "coordinates": [[[113.551855, 22.217071], [113.550529, 22.217024], [113.544198, 22.21692], [113.54253, 22.214801], [113.541387, 22.213176], [113.536062, 22.213932], [113.532735, 22.212275], [113.534786, 22.207299], [113.535226, 22.20195], [113.533203, 22.193468], [113.528314, 22.187251], [113.527956, 22.177459], [113.538481, 22.159119], [113.546175, 22.149348], [113.549586, 22.142809], [113.548755, 22.110242], [113.549152, 22.105163], [113.594201, 22.111052], [113.628218, 22.163899], [113.582346, 22.219468], [113.551855, 22.217071]]]}}]}