{"type": "FeatureCollection", "features": [{"type": "Feature", "properties": {}, "geometry": {"type": "Polygon", "coordinates": [[[58.414267, 23.607689], [58.415665, 23.590737], [58.406015, 23.582668], [58.406893, 23.575289], [58.428241, 23.573845], [58.434265, 23.575906], [58.443545, 23.583176], [58.45519, 23.585676], [58.459981, 23.591469], [58.465559, 23.602441], [58.45815, 23.617675], [58.414267, 23.607689]]]}}, {"type": "Feature", "properties": {}, "geometry": {"type": "Polygon", "coordinates": [[[58.383723, 23.598613], [58.383723, 23.593504], [58.382041, 23.58965], [58.372665, 23.591962], [58.366342, 23.590392], [58.366124, 23.581913], [58.382353, 23.581457], [58.383723, 23.587052], [58.386215, 23.594703], [58.385935, 23.598528], [58.383723, 23.598613]]]}}, {"type": "Feature", "properties": {}, "geometry": {"type": "Polygon", "coordinates": [[[58.54899, 23.604968], [58.550092, 23.610137], [58.545262, 23.614787], [58.538787, 23.608495], [58.537141, 23.604328], [58.538053, 23.600939], [58.541497, 23.595859], [58.543836, 23.594113], [58.544554, 23.590111], [58.545441, 23.587531], [58.544922, 23.584177], [58.546784, 23.584634], [58.549599, 23.585527], [58.551917, 23.587491], [58.557201, 23.582748], [58.562138, 23.586737], [58.563094, 23.58934], [58.562336, 23.59323], [58.558265, 23.59194], [58.554336, 23.59571], [58.54899, 23.604968]]]}}]}