{"type": "FeatureCollection", "features": [{"type": "Feature", "properties": {}, "geometry": {"type": "Polygon", "coordinates": [[[121.015108, 14.563387], [121.004649, 14.559069], [121.016101, 14.538258], [121.026981, 14.54663], [121.046916, 14.539921], [121.051375, 14.537603], [121.054375, 14.540587], [121.056223, 14.545626], [121.059574, 14.550731], [121.063792, 14.556116], [121.05876, 14.560104], [121.052412, 14.563273], [121.015108, 14.563387]]]}}, {"type": "Feature", "properties": {}, "geometry": {"type": "Polygon", "coordinates": [[[121.057827, 14.594084], [121.052934, 14.581119], [121.063419, 14.572531], [121.066396, 14.576891], [121.064272, 14.577857], [121.064218, 14.589324], [121.057827, 14.594084]]]}}, {"type": "Feature", "properties": {}, "geometry": {"type": "Polygon", "coordinates": [[[120.970556, 14.595831], [120.962528, 14.595744], [120.95266, 14.593834], [120.951718, 14.584849], [120.97555, 14.546005], [120.977836, 14.518144], [120.994988, 14.51617], [120.993735, 14.536287], [121.001853, 14.536287], [120.99853, 14.553431], [120.996263, 14.562738], [120.992598, 14.57196], [120.97849, 14.596346], [120.970556, 14.595831]]]}}]}