{"type": "FeatureCollection", "features": [{"type": "Feature", "geometry": {"type": "Polygon", "coordinates": [[[100.511988, 13.740782], [100.515643, 13.726049], [100.517922, 13.716997], [100.544785, 13.72513], [100.553696, 13.721713], [100.551482, 13.743365], [100.550283, 13.75038], [100.533162, 13.753655], [100.523095, 13.757186], [100.520585, 13.748609], [100.516231, 13.750196], [100.515257, 13.739011], [100.511988, 13.740782]]]}, "properties": {}}, {"type": "Feature", "properties": {}, "geometry": {"type": "Polygon", "coordinates": [[[100.49297, 13.759783], [100.491833, 13.755731], [100.488541, 13.75717], [100.488071, 13.750993], [100.490206, 13.744856], [100.494413, 13.740876], [100.495455, 13.742668], [100.493904, 13.752551], [100.495413, 13.757723], [100.49297, 13.759783]]]}}, {"type": "Feature", "properties": {}, "geometry": {"type": "Polygon", "coordinates": [[[100.501187, 13.757524], [100.49973, 13.748272], [100.503703, 13.747904], [100.504592, 13.751974], [100.50901, 13.751666], [100.509921, 13.755257], [100.501187, 13.757524]]]}}]}