{"type": "FeatureCollection", "features": [{"type": "Feature", "geometry": {"type": "Polygon", "coordinates": [[[121.451461, 25.103715], [121.410055, 25.020918], [121.437107, 24.959903], [121.482342, 24.991816], [121.521207, 24.988673], [121.523767, 24.979021], [121.539264, 24.95973], [121.571922, 24.983738], [121.587758, 25.000708], [121.562901, 24.999016], [121.556239, 25.00495], [121.541152, 25.007703], [121.553351, 25.016186], [121.573866, 25.017269], [121.579983, 25.036279], [121.590591, 25.037779], [121.594139, 25.047278], [121.613676, 25.048671], [121.623372, 25.056272], [121.613395, 25.066955], [121.604031, 25.090708], [121.57133, 25.091258], [121.529272, 25.082473], [121.543354, 25.110363], [121.54065, 25.120546], [121.529891, 25.135395], [121.512146, 25.124805], [121.516507, 25.142047], [121.494188, 25.150081], [121.464384, 25.126245], [121.451461, 25.103715]]]}, "properties": {}}]}