{"type":"FeatureCollection","features":[{"type":"Feature","properties":{},"geometry":{"type":"Polygon","coordinates":[[[174.789066,-41.265045],[174.784236,-41.262663],[174.77104,-41.27479],[174.769303,-41.295702],[174.774781,-41.317528],[174.810417,-41.32164],[174.821018,-41.317394],[174.837025,-41.316163],[174.846092,-41.281808],[174.789066,-41.265045]]]}},{"type":"Feature","properties":{},"geometry":{"type":"Polygon","coordinates":[[[174.746158,-36.825055],[174.73882,-36.837185],[174.744096,-36.841292],[174.748344,-36.844147],[174.751029,-36.845529],[174.754626,-36.85424],[174.754866,-36.860572],[174.766088,-36.861838],[174.771891,-36.855852],[174.779661,-36.849827],[174.783354,-36.850902],[174.785128,-36.847333],[174.794432,-36.836202],[174.76182,-36.828986],[174.746158,-36.825055]]]}},{"type":"Feature","properties":{},"geometry":{"type":"Polygon","coordinates":[[[172.611651,-43.524065],[172.611884,-43.539261],[172.603155,-43.540172],[172.610117,-43.549334],[172.618015,-43.548078],[172.656731,-43.549081],[172.651223,-43.520293],[172.62583,-43.520391],[172.621545,-43.522746],[172.611651,-43.524065]]]}}]}