{"type":"FeatureCollection","features":[{"type":"Feature","properties":{},"geometry":{"type":"Polygon","coordinates":[[[19.805752,41.334574],[19.801835,41.329275],[19.802628,41.325959],[19.790883,41.322585],[19.796296,41.319681],[19.804815,41.320868],[19.810489,41.317477],[19.820696,41.318637],[19.817251,41.315606],[19.831568,41.317943],[19.827294,41.319795],[19.82544,41.324045],[19.826059,41.325066],[19.834853,41.330172],[19.834127,41.333984],[19.829383,41.340451],[19.826391,41.3407],[19.820045,41.338341],[19.816056,41.336525],[19.805752,41.334574]]]}},{"type":"Feature","properties":{},"geometry":{"type":"Polygon","coordinates":[[[19.478904,40.44874],[19.490752,40.447677],[19.490377,40.451987],[19.488602,40.454655],[19.487453,40.454953],[19.49172,40.467461],[19.492209,40.47031],[19.49132,40.472241],[19.492948,40.47308],[19.487504,40.474205],[19.487819,40.471635],[19.483467,40.471624],[19.482806,40.469442],[19.489186,40.469533],[19.490474,40.468387],[19.489326,40.464791],[19.485564,40.455271],[19.482372,40.455778],[19.483695,40.465377],[19.482835,40.465427],[19.481175,40.455498],[19.478904,40.44874]]]}}]}