{"type":"FeatureCollection","features":[{"type":"Feature","geometry":{"type":"Polygon","coordinates":[[[18.400771,43.862809],[18.394935,43.859951],[18.383728,43.859262],[18.374614,43.856086],[18.366112,43.854534],[18.357787,43.852854],[18.336233,43.853199],[18.324386,43.852935],[18.327253,43.841725],[18.333253,43.841405],[18.344573,43.835769],[18.358678,43.840291],[18.376061,43.845395],[18.384599,43.844949],[18.399716,43.846567],[18.41051,43.851756],[18.416924,43.855791],[18.426963,43.856192],[18.435938,43.85871],[18.431296,43.860639],[18.412017,43.858875],[18.407583,43.856513],[18.400771,43.862809]]]},"properties":{}},{"type":"Feature","geometry":{"type":"Polygon","coordinates":[[[17.807946,43.358691],[17.794913,43.354901],[17.790626,43.35072],[17.792486,43.344808],[17.797933,43.342935],[17.808059,43.342491],[17.814293,43.344219],[17.814647,43.348712],[17.813755,43.353845],[17.81414,43.358333],[17.807946,43.358691]]]},"properties":{}}]}