{"type":"FeatureCollection","features":[{"type":"Feature","geometry":{"type":"Polygon","coordinates":[[[24.721716,42.157509],[24.716092,42.149716],[24.715908,42.14298],[24.727707,42.131264],[24.747951,42.134259],[24.767197,42.13534],[24.787592,42.143636],[24.778285,42.150501],[24.770086,42.155761],[24.765717,42.161216],[24.746119,42.160461],[24.721716,42.157509]]]},"properties":{}},{"type":"Feature","geometry":{"type":"Polygon","coordinates":[[[23.299366,42.711584],[23.296419,42.700486],[23.308814,42.69827],[23.306816,42.694954],[23.30842,42.692514],[23.29799,42.68684],[23.299257,42.685744],[23.310486,42.691106],[23.316994,42.686151],[23.31721,42.681159],[23.334097,42.68582],[23.338507,42.690665],[23.335149,42.693653],[23.336233,42.698453],[23.344618,42.699237],[23.344932,42.70114],[23.327019,42.711973],[23.309974,42.717807],[23.299366,42.711584]]]},"properties":{}},{"type":"Feature","properties":{},"geometry":{"type":"Polygon","coordinates":[[[27.903632,43.219293],[27.895554,43.214434],[27.894659,43.207301],[27.89896,43.20073],[27.911051,43.196117],[27.922828,43.195749],[27.919099,43.198638],[27.915811,43.202277],[27.911419,43.204668],[27.917142,43.206751],[27.923038,43.201677],[27.924458,43.202532],[27.919017,43.206461],[27.930903,43.215984],[27.920427,43.220884],[27.914837,43.221277],[27.909086,43.219526],[27.903632,43.219293]]]}}]}