{"type":"FeatureCollection","features":[{"type":"Feature","geometry":{"type":"Polygon","coordinates":[[[8.532895,47.36001],[8.54967,47.366431],[8.551882,47.371808],[8.550169,47.387396],[8.551676,47.395558],[8.558424,47.400942],[8.555846,47.420404],[8.541505,47.419549],[8.529059,47.417477],[8.531301,47.400455],[8.520436,47.39254],[8.50892,47.381264],[8.523008,47.369509],[8.532895,47.36001]]]},"properties":{}},{"type":"Feature","geometry":{"type":"Polygon","coordinates":[[[6.159491,46.210125],[6.145256,46.207911],[6.121834,46.203088],[6.123004,46.19609],[6.126629,46.171997],[6.15258,46.181903],[6.165683,46.191899],[6.170985,46.202585],[6.159491,46.210125]]]},"properties":{}}]}