{"type":"FeatureCollection","features":[{"type":"Feature","geometry":{"type":"Polygon","coordinates":[[[33.321219,35.180703],[33.306398,35.164168],[33.349753,35.158842],[33.374677,35.167146],[33.403233,35.170116],[33.411939,35.18517],[33.381538,35.203503],[33.321219,35.180703]]]},"properties":{}},{"type":"Feature","geometry":{"type":"Polygon","coordinates":[[[33.046026,34.671747],[33.032667,34.683233],[33.017979,34.690338],[32.999053,34.677688],[33.003757,34.672754],[33.000268,34.660767],[33.018305,34.659343],[33.024195,34.650092],[33.046026,34.671747]]]},"properties":{}}]}