{"type":"FeatureCollection","features":[{"type":"Feature","geometry":{"type":"Polygon","coordinates":[[[14.40592,50.055866],[14.430734,50.054792],[14.479614,50.066969],[14.466166,50.091698],[14.454343,50.105003],[14.400681,50.098324],[14.400937,50.084272],[14.40592,50.055866]]]},"properties":{}},{"type":"Feature","geometry":{"type":"Polygon","coordinates":[[[16.574748,49.214916],[16.567389,49.206383],[16.566159,49.189428],[16.578649,49.181471],[16.615641,49.178892],[16.621874,49.184783],[16.650731,49.18967],[16.64518,49.212468],[16.624163,49.221979],[16.599271,49.222436],[16.574748,49.214916]]]},"properties":{}}]}