{"type":"FeatureCollection","features":[{"type":"Feature","geometry":{"type":"Polygon","coordinates":[[[13.381655,52.550727],[13.355068,52.538744],[13.371006,52.517164],[13.37251,52.506094],[13.380891,52.500371],[13.445348,52.499688],[13.45067,52.506529],[13.451517,52.517939],[13.44051,52.531332],[13.426469,52.537499],[13.410261,52.54081],[13.411471,52.551842],[13.381655,52.550727]]]},"properties":{}},{"type":"Feature","geometry":{"type":"Polygon","coordinates":[[[9.95318,53.560489],[9.969948,53.543817],[9.992872,53.537815],[10.011127,53.536066],[10.028251,53.530968],[10.035539,53.542176],[10.030832,53.555579],[10.014988,53.564141],[9.999501,53.558781],[9.986483,53.564812],[9.978331,53.564881],[9.962575,53.564903],[9.95318,53.560489]]]},"properties":{}},{"type":"Feature","properties":{},"geometry":{"type":"Polygon","coordinates":[[[11.545288,48.144458],[11.544304,48.127481],[11.56833,48.115607],[11.602024,48.123676],[11.61532,48.13245],[11.594139,48.137596],[11.596811,48.14286],[11.558327,48.151526],[11.545288,48.144458]]]}},{"type":"Feature","properties":{},"geometry":{"type":"Polygon","coordinates":[[[8.66319,50.096559],[8.68869,50.106349],[8.713679,50.104173],[8.721413,50.107049],[8.715489,50.116942],[8.701749,50.111877],[8.693298,50.116037],[8.685826,50.11936],[8.67226,50.116212],[8.660559,50.120483],[8.635995,50.124257],[8.63507,50.107358],[8.653477,50.096203],[8.66319,50.096559]]]}}]}