{"type":"FeatureCollection","features":[{"type":"Feature","geometry":{"type":"Polygon","coordinates":[[[12.652976,55.67434],[12.649337,55.693782],[12.635119,55.703706],[12.611285,55.711825],[12.57623,55.70949],[12.560993,55.706486],[12.533241,55.681909],[12.527854,55.662437],[12.584555,55.66092],[12.652976,55.67434]]]},"properties":{}},{"type":"Feature","geometry":{"type":"Polygon","coordinates":[[[10.217675,56.134025],[10.267581,56.154736],[10.235599,56.167721],[10.219306,56.173242],[10.195058,56.171648],[10.179672,56.160355],[10.182049,56.149748],[10.186489,56.142142],[10.217675,56.134025]]]},"properties":{}}]}