{"type":"FeatureCollection","features":[{"type":"Feature","geometry":{"type":"Polygon","coordinates":[[[-3.699306,40.447141],[-3.710548,40.447682],[-3.711258,40.443995],[-3.722629,40.436373],[-3.725329,40.432653],[-3.723925,40.42273],[-3.719115,40.419149],[-3.721208,40.412108],[-3.720668,40.40224],[-3.70286,40.398104],[-3.688269,40.390171],[-3.681721,40.390839],[-3.676996,40.394644],[-3.667079,40.407378],[-3.664499,40.422748],[-3.666776,40.431991],[-3.680091,40.447449],[-3.699306,40.447141]]]},"properties":{}},{"type":"Feature","geometry":{"type":"Polygon","coordinates":[[[2.185347,41.448254],[2.173683,41.419251],[2.157341,41.408106],[2.12298,41.388459],[2.181643,41.353101],[2.262493,41.448005],[2.227503,41.464535],[2.209258,41.461506],[2.185347,41.448254]]]},"properties":{}},{"type":"Feature","geometry":{"type":"Polygon","coordinates":[[[-0.38391,39.482711],[-0.398223,39.476654],[-0.381022,39.453343],[-0.35739,39.463026],[-0.355903,39.46631],[-0.332033,39.458945],[-0.329513,39.461241],[-0.321873,39.46156],[-0.30965,39.46089],[-0.3194,39.49341],[-0.330202,39.494027],[-0.333903,39.477305],[-0.35287,39.482805],[-0.356213,39.47722],[-0.366435,39.480243],[-0.367745,39.478381],[-0.377758,39.484116],[-0.38391,39.482711]]]},"properties":{}}]}