{"type":"FeatureCollection","features":[{"type":"Feature","geometry":{"type":"Polygon","coordinates":[[[2.302022,48.893222],[2.28297,48.885334],[2.254462,48.855721],[2.250792,48.84402],[2.254603,48.832966],[2.275349,48.831851],[2.327708,48.817449],[2.36299,48.813174],[2.417184,48.833431],[2.417749,48.868627],[2.404341,48.885148],[2.393616,48.902036],[2.319381,48.902221],[2.302022,48.893222]]]},"properties":{}},{"type":"Feature","geometry":{"type":"Polygon","coordinates":[[[4.82748,45.795744],[4.823053,45.792888],[4.809513,45.778724],[4.815502,45.766192],[4.809903,45.732122],[4.820493,45.717512],[4.826542,45.712314],[4.839819,45.706999],[4.883987,45.717851],[4.903257,45.728304],[4.908985,45.748065],[4.911199,45.765919],[4.891669,45.788258],[4.878779,45.79543],[4.858077,45.789662],[4.82748,45.795744]]]},"properties":{}},{"type":"Feature","properties":{},"geometry":{"type":"Polygon","coordinates":[[[5.349718,43.286261],[5.378977,43.289407],[5.394428,43.263569],[5.404101,43.268969],[5.401341,43.276032],[5.387201,43.285673],[5.405233,43.290652],[5.410196,43.295726],[5.397555,43.302647],[5.393207,43.316098],[5.38282,43.317114],[5.353025,43.307803],[5.349718,43.286261]]]}}]}