{"type":"FeatureCollection","features":[{"type":"Feature","geometry":{"type":"Polygon","coordinates":[[[-6.23154,53.359271],[-6.247224,53.362371],[-6.271825,53.367054],[-6.289777,53.35899],[-6.298895,53.352558],[-6.296917,53.34883],[-6.308769,53.348694],[-6.30856,53.335989],[-6.291105,53.330691],[-6.275888,53.328997],[-6.262554,53.329221],[-6.245369,53.33368],[-6.24189,53.331612],[-6.224442,53.334141],[-6.230118,53.344739],[-6.227147,53.345974],[-6.225838,53.356189],[-6.23154,53.359271]]]},"properties":{}},{"type":"Feature","geometry":{"type":"Polygon","coordinates":[[[-8.469951,51.902785],[-8.471167,51.906982],[-8.469177,51.913615],[-8.472651,51.913928],[-8.476421,51.908127],[-8.480149,51.902262],[-8.493191,51.898769],[-8.511564,51.895924],[-8.508164,51.887533],[-8.477455,51.893671],[-8.45879,51.892157],[-8.430942,51.896429],[-8.433922,51.903738],[-8.469951,51.902785]]]},"properties":{}},{"type":"Feature","properties":{},"geometry":{"type":"Polygon","coordinates":[[[-9.049462,53.282954],[-9.051695,53.277789],[-9.0559,53.276806],[-9.055703,53.274724],[-9.055637,53.27386],[-9.056261,53.272898],[-9.055966,53.271346],[-9.055243,53.269755],[-9.050743,53.26781],[-9.04529,53.267672],[-9.044961,53.269401],[-9.034253,53.279537],[-9.032808,53.28217],[-9.034579,53.282817],[-9.044947,53.283135],[-9.049462,53.282954]]]}}]}