{"type":"FeatureCollection","features":[{"type":"Feature","geometry":{"type":"Polygon","coordinates":[[[12.453719,41.917139],[12.439768,41.903132],[12.441222,41.896744],[12.45099,41.891407],[12.454854,41.894743],[12.462324,41.890182],[12.468792,41.875258],[12.480339,41.871448],[12.499941,41.869594],[12.506304,41.870205],[12.511033,41.875506],[12.515406,41.88137],[12.517016,41.891954],[12.529655,41.895478],[12.535546,41.907755],[12.528691,41.917918],[12.519328,41.918796],[12.510476,41.911097],[12.506472,41.913871],[12.494175,41.905778],[12.485312,41.907046],[12.478717,41.911187],[12.472912,41.922765],[12.46574,41.921384],[12.453719,41.917139]]]},"properties":{}},{"type":"Feature","geometry":{"type":"Polygon","coordinates":[[[9.168865,45.495686],[9.145443,45.483911],[9.144858,45.47584],[9.158823,45.44917],[9.167218,45.444996],[9.208265,45.448242],[9.218208,45.46347],[9.219364,45.485446],[9.194247,45.497586],[9.168865,45.495686]]]},"properties":{}},{"type":"Feature","geometry":{"type":"Polygon","coordinates":[[[14.258535,40.858451],[14.243248,40.85071],[14.242263,40.840586],[14.236919,40.840435],[14.216236,40.834595],[14.220005,40.822835],[14.236613,40.830155],[14.248291,40.823336],[14.276597,40.836853],[14.277643,40.856364],[14.265628,40.86365],[14.258535,40.858451]]]},"properties":{}},{"type":"Feature","geometry":{"type":"Polygon","coordinates":[[[13.383207,38.112707],[13.36002,38.136887],[13.339051,38.132011],[13.346101,38.118665],[13.356642,38.107682],[13.368206,38.105455],[13.383207,38.112707]]]},"properties":{}}]}