{"type":"FeatureCollection","features":[{"type":"Feature","properties":{},"geometry":{"type":"Polygon","coordinates":[[[9.494965,47.068636],[9.496699,47.066317],[9.486078,47.062775],[9.485731,47.060499],[9.48696,47.059125],[9.491562,47.058159],[9.500071,47.05876],[9.502151,47.062517],[9.507572,47.064493],[9.511102,47.059447],[9.51356,47.060972],[9.51397,47.063484],[9.511732,47.069087],[9.512268,47.073101],[9.513056,47.074826],[9.514285,47.078797],[9.505271,47.076736],[9.506437,47.072422],[9.494965,47.068636]]]}},{"type":"Feature","properties":{},"geometry":{"type":"Polygon","coordinates":[[[9.519732,47.123969],[9.522363,47.097611],[9.527099,47.097897],[9.528888,47.103449],[9.525866,47.149169],[9.514616,47.152588],[9.511227,47.165256],[9.513287,47.171843],[9.520073,47.178111],[9.504675,47.178588],[9.503879,47.173275],[9.501652,47.169582],[9.502786,47.157512],[9.505385,47.150265],[9.512611,47.140755],[9.519732,47.123969]]]}},{"type":"Feature","properties":{},"geometry":{"type":"Polygon","coordinates":[[[9.537012,47.122955],[9.541577,47.109917],[9.554233,47.109659],[9.556965,47.115825],[9.54583,47.124766],[9.537012,47.122955]]]}},{"type":"Feature","properties":{},"geometry":{"type":"Polygon","coordinates":[[[9.500673,47.212955],[9.498035,47.207854],[9.519799,47.208784],[9.529388,47.205791],[9.555212,47.219542],[9.55511,47.22316],[9.551356,47.223642],[9.55374,47.226536],[9.547906,47.227536],[9.514371,47.219818],[9.500673,47.212955]]]}},{"type":"Feature","properties":{},"geometry":{"type":"Polygon","coordinates":[[[9.517718,47.234901],[9.52622,47.23241],[9.532222,47.234697],[9.530421,47.236938],[9.534556,47.240696],[9.533655,47.244725],[9.527954,47.245856],[9.521553,47.243321],[9.517718,47.234901]]]}}]}