{"type":"FeatureCollection","features":[{"type":"Feature","geometry":{"type":"Polygon","coordinates":[[[25.279197,54.714285],[25.267275,54.713559],[25.258836,54.69592],[25.254937,54.686123],[25.247202,54.683234],[25.244935,54.677902],[25.270683,54.664713],[25.294318,54.671401],[25.295816,54.680028],[25.29559,54.688494],[25.305662,54.69844],[25.308165,54.708109],[25.306482,54.718339],[25.303993,54.722643],[25.279197,54.714285]]]},"properties":{}},{"type":"Feature","geometry":{"type":"Polygon","coordinates":[[[23.910227,54.91539],[23.906453,54.911271],[23.889465,54.902081],[23.875072,54.900536],[23.878572,54.895123],[23.893849,54.893575],[23.918719,54.887306],[23.926409,54.880763],[23.940557,54.889415],[23.940248,54.897291],[23.925405,54.913783],[23.910227,54.91539]]]},"properties":{}}]}