{"type":"FeatureCollection","features":[{"type":"Feature","geometry":{"type":"Polygon","coordinates":[[[4.867187,52.4125],[4.847487,52.394664],[4.845892,52.333583],[4.891475,52.333503],[4.910732,52.34148],[4.930843,52.341078],[4.963058,52.35921],[4.950713,52.380315],[4.925397,52.389906],[4.918005,52.393116],[4.899036,52.382921],[4.885141,52.40069],[4.867187,52.4125]]]},"properties":{}},{"type":"Feature","geometry":{"type":"Polygon","coordinates":[[[4.453342,51.938682],[4.415211,51.924575],[4.401993,51.928807],[4.375645,51.918434],[4.38034,51.897919],[4.397189,51.896272],[4.422416,51.902521],[4.464491,51.899908],[4.450221,51.873256],[4.464266,51.864957],[4.515265,51.868916],[4.538553,51.866573],[4.564036,51.875315],[4.546487,51.903978],[4.540032,51.917844],[4.53451,51.930307],[4.526857,51.947901],[4.453342,51.938682]]]},"properties":{}},{"type":"Feature","properties":{},"geometry":{"type":"Polygon","coordinates":[[[4.311037,52.0902],[4.282217,52.080767],[4.301086,52.061127],[4.310696,52.058146],[4.331532,52.068949],[4.349904,52.076711],[4.335147,52.089005],[4.321579,52.083284],[4.311037,52.0902]]]}}]}