{"type":"FeatureCollection","features":[{"type":"Feature","geometry":{"type":"Polygon","coordinates":[[[10.730669,59.936365],[10.712238,59.928021],[10.704165,59.923263],[10.699681,59.910127],[10.71372,59.901294],[10.73037,59.903484],[10.750878,59.894533],[10.780365,59.908382],[10.777847,59.919091],[10.778017,59.926652],[10.768697,59.931643],[10.744813,59.936022],[10.730669,59.936365]]]},"properties":{}},{"type":"Feature","geometry":{"type":"Polygon","coordinates":[[[5.299462,60.4032],[5.28169,60.389378],[5.306456,60.381198],[5.328825,60.374435],[5.339451,60.37112],[5.365025,60.373782],[5.368128,60.38365],[5.359795,60.389552],[5.334043,60.39755],[5.33132,60.405403],[5.328448,60.415526],[5.317497,60.417211],[5.299462,60.4032]]]},"properties":{}}]}