{"type":"FeatureCollection","features":[{"type":"Feature","geometry":{"type":"Polygon","coordinates":[[[20.999628,52.260277],[20.979778,52.260749],[20.962752,52.252398],[20.973265,52.230499],[20.981834,52.214501],[20.999654,52.215424],[21.020641,52.215455],[21.056118,52.225328],[21.054807,52.237674],[21.045926,52.24855],[21.035056,52.25666],[21.019891,52.264982],[20.999628,52.260277]]]},"properties":{}},{"type":"Feature","geometry":{"type":"Polygon","coordinates":[[[19.947259,50.079631],[19.941658,50.07498],[19.931848,50.075155],[19.92187,50.06899],[19.921246,50.058971],[19.926492,50.052673],[19.934952,50.040957],[19.943352,50.04474],[19.952662,50.04894],[19.957266,50.051973],[19.977675,50.05339],[19.984883,50.059905],[19.974465,50.067163],[19.96097,50.067147],[19.959747,50.075553],[19.947259,50.079631]]]},"properties":{}},{"type":"Feature","properties":{},"geometry":{"type":"Polygon","coordinates":[[[18.641268,54.346585],[18.640947,54.341205],[18.65211,54.338517],[18.663012,54.344067],[18.677264,54.346667],[18.676406,54.349663],[18.661875,54.350786],[18.667195,54.354842],[18.656705,54.359163],[18.648753,54.359789],[18.632994,54.375251],[18.642105,54.383539],[18.652741,54.3878],[18.637616,54.39459],[18.627281,54.382608],[18.626114,54.375443],[18.642233,54.360874],[18.641181,54.352285],[18.631499,54.351105],[18.636419,54.349234],[18.641268,54.346585]]]}},{"type":"Feature","properties":{},"geometry":{"type":"Polygon","coordinates":[[[19.45063,51.77889],[19.455588,51.758483],[19.486262,51.761141],[19.510956,51.763235],[19.50984,51.767113],[19.484182,51.769003],[19.480906,51.78182],[19.45063,51.77889]]]}}]}