{"type":"FeatureCollection","features":[{"type":"Feature","geometry":{"type":"Polygon","coordinates":[[[37.596671,55.772264],[37.56561,55.787631],[37.560076,55.783624],[37.587163,55.768469],[37.578655,55.754988],[37.568572,55.758534],[37.524215,55.758974],[37.531856,55.731982],[37.576273,55.741098],[37.608055,55.726866],[37.64082,55.726303],[37.661198,55.737828],[37.660871,55.767287],[37.632713,55.774715],[37.607947,55.775337],[37.596671,55.772264]]]},"properties":{}},{"type":"Feature","geometry":{"type":"Polygon","coordinates":[[[30.16134,59.932405],[30.260664,59.916815],[30.259696,59.908249],[30.322129,59.906914],[30.35264,59.915704],[30.369158,59.930576],[30.366179,59.951317],[30.341623,59.951576],[30.334265,59.9697],[30.32705,59.976814],[30.315904,59.980346],[30.307464,59.965552],[30.282863,59.949974],[30.211594,59.968463],[30.173629,59.961055],[30.16134,59.932405]]]},"properties":{}},{"type":"Feature","geometry":{"type":"Polygon","coordinates":[[[82.89431,55.043929],[82.892908,55.040287],[82.917751,55.010598],[82.907425,55.001651],[82.869057,54.999007],[82.833299,54.996941],[82.83249,54.992198],[82.866553,54.99338],[82.897355,54.977907],[82.919842,54.992434],[82.950475,55.016145],[82.934138,55.022634],[82.941678,55.02875],[82.94655,55.036713],[82.943703,55.05367],[82.89431,55.043929]]]},"properties":{}},{"type":"Feature","geometry":{"type":"Polygon","coordinates":[[[131.950976,43.064538],[131.97353,43.080361],[131.980531,43.095529],[131.961531,43.109499],[131.948287,43.136369],[131.917929,43.134628],[131.892419,43.142124],[131.828269,43.07896],[131.900257,43.0651],[131.879535,43.039313],[131.901662,43.038105],[131.950976,43.064538]]]},"properties":{}}]}