{"type":"FeatureCollection","features":[{"type":"Feature","geometry":{"type":"Polygon","coordinates":[[[18.029125,59.326982],[18.025826,59.319337],[18.026032,59.315718],[18.032342,59.313441],[18.049746,59.315766],[18.052176,59.312452],[18.062368,59.308398],[18.072415,59.30677],[18.08229,59.308205],[18.087559,59.310033],[18.083366,59.319019],[18.075765,59.320914],[18.07859,59.32711],[18.085831,59.33061],[18.098322,59.331222],[18.104186,59.338275],[18.072203,59.346268],[18.05613,59.352536],[18.046517,59.351007],[18.031775,59.346553],[18.022309,59.341415],[18.011081,59.335332],[18.029125,59.326982]]]},"properties":{}},{"type":"Feature","geometry":{"type":"Polygon","coordinates":[[[11.944992,57.702743],[11.95168,57.689376],[11.998199,57.696574],[11.997728,57.703084],[11.998195,57.71349],[11.987535,57.722049],[11.970335,57.716424],[11.955618,57.70737],[11.944992,57.702743]]]},"properties":{}},{"type":"Feature","properties":{},"geometry":{"type":"Polygon","coordinates":[[[11.994743,57.731688],[11.991863,57.726145],[11.986313,57.721539],[11.996336,57.714322],[12.027474,57.7327],[12.022462,57.734763],[12.005267,57.736451],[11.994743,57.731688]]]}}]}