{"type":"FeatureCollection","features":[{"type":"Feature","geometry":{"type":"Polygon","coordinates":[[[30.725702,46.456032],[30.719377,46.458604],[30.728009,46.464189],[30.735028,46.463725],[30.743094,46.463241],[30.743407,46.46913],[30.753385,46.468223],[30.755527,46.474602],[30.750196,46.475144],[30.752233,46.487251],[30.741366,46.498893],[30.720506,46.495876],[30.717723,46.488837],[30.721725,46.476414],[30.724482,46.472821],[30.71303,46.465187],[30.696249,46.452929],[30.721168,46.452252],[30.725702,46.456032]]]},"properties":{}},{"type":"Feature","geometry":{"type":"Polygon","coordinates":[[[30.479054,50.448231],[30.524243,50.442788],[30.532016,50.456281],[30.527852,50.468062],[30.539603,50.477072],[30.540158,50.486257],[30.505421,50.490565],[30.478223,50.488747],[30.487766,50.480789],[30.483602,50.477621],[30.508546,50.464883],[30.500452,50.463086],[30.489831,50.46279],[30.484863,50.457755],[30.479054,50.448231]]]},"properties":{}},{"type":"Feature","properties":{},"geometry":{"type":"Polygon","coordinates":[[[24.024824,49.844725],[24.022437,49.843617],[24.015054,49.843433],[24.014759,49.841644],[24.004729,49.838356],[23.991785,49.835464],[23.993588,49.833937],[24.019904,49.840667],[24.024714,49.836911],[24.02869,49.838861],[24.03582,49.83839],[24.037992,49.84053],[24.035789,49.845705],[24.029967,49.844832],[24.027652,49.849103],[24.025353,49.848927],[24.024824,49.844725]]]}}]}