{"type":"FeatureCollection","features":[{"type":"Feature","geometry":{"type":"Polygon","coordinates":[[[-0.112046,51.534744],[-0.141115,51.52652],[-0.16143,51.52251],[-0.172659,51.520565],[-0.153133,51.504186],[-0.163938,51.502841],[-0.12849,51.486253],[-0.096096,51.49226],[-0.06041,51.497307],[-0.050985,51.518254],[-0.112046,51.534744]]]},"properties":{}},{"type":"Feature","geometry":{"type":"Polygon","coordinates":[[[-2.250935,53.49679],[-2.283658,53.481592],[-2.285212,53.463646],[-2.280868,53.458958],[-2.247098,53.466964],[-2.194106,53.464285],[-2.191426,53.48459],[-2.199746,53.502395],[-2.250935,53.49679]]]},"properties":{}},{"type":"Feature","geometry":{"type":"Polygon","coordinates":[[[-3.237453,55.968937],[-3.220292,55.946941],[-3.198684,55.940284],[-3.173565,55.94185],[-3.172855,55.952215],[-3.166022,55.97687],[-3.193919,55.982005],[-3.225628,55.981566],[-3.222084,55.970799],[-3.237453,55.968937]]]},"properties":{}},{"type":"Feature","geometry":{"type":"Polygon","coordinates":[[[-5.940158,54.601054],[-5.948913,54.591776],[-5.937044,54.588093],[-5.909486,54.591151],[-5.909222,54.605263],[-5.924307,54.608554],[-5.932457,54.60926],[-5.937533,54.60611],[-5.940158,54.601054]]]},"properties":{}},{"type":"Feature","properties":{},"geometry":{"type":"Polygon","coordinates":[[[-3.178244,51.485343],[-3.181669,51.484412],[-3.179969,51.481933],[-3.186192,51.481787],[-3.189935,51.481962],[-3.188858,51.476979],[-3.187127,51.470742],[-3.186098,51.46914],[-3.173886,51.464389],[-3.177386,51.462272],[-3.177866,51.458715],[-3.171073,51.456483],[-3.147046,51.469003],[-3.157498,51.469395],[-3.165077,51.479437],[-3.164939,51.482386],[-3.166637,51.483791],[-3.171565,51.489249],[-3.174265,51.488971],[-3.178244,51.485343]]]}},{"type":"Feature","properties":{},"geometry":{"type":"Polygon","coordinates":[[[-1.916871,52.480581],[-1.920313,52.479244],[-1.920822,52.475665],[-1.916074,52.474168],[-1.902307,52.468315],[-1.896616,52.466975],[-1.884208,52.475839],[-1.883201,52.476276],[-1.891752,52.479393],[-1.889351,52.481526],[-1.881141,52.486169],[-1.885947,52.490681],[-1.895897,52.490883],[-1.906151,52.490924],[-1.911293,52.494821],[-1.916947,52.496001],[-1.919618,52.484471],[-1.91661,52.482557],[-1.916871,52.480581]]]}}]}