{"type": "FeatureCollection", "features": [{"type": "Feature", "geometry": {"type": "Polygon", "coordinates": [[[151.219298, -33.856459], [151.215462, -33.847094], [151.213122, -33.838115], [151.210287, -33.836582], [151.206859, -33.838225], [151.207683, -33.845671], [151.204825, -33.851218], [151.199903, -33.85451], [151.196693, -33.860677], [151.187911, -33.864455], [151.185922, -33.870894], [151.190837, -33.878676], [151.192494, -33.888567], [151.202834, -33.890112], [151.21059, -33.881716], [151.214227, -33.873991], [151.2294, -33.868719], [151.233148, -33.857066], [151.219298, -33.856459]]]}, "properties": {}}]}