{"type":"FeatureCollection","features":[{"type":"Feature","geometry":{"type":"Polygon","coordinates":[[[174.789066,-41.265045],[174.784236,-41.262663],[174.77104,-41.27479],[174.769967,-41.295767],[174.77488,-41.304234],[174.779986,-41.315904],[174.810417,-41.32164],[174.821018,-41.317394],[174.824785,-41.311836],[174.826669,-41.305212],[174.816335,-41.303188],[174.797627,-41.30771],[174.795419,-41.311608],[174.791431,-41.311426],[174.794014,-41.303665],[174.787457,-41.301773],[174.790571,-41.294274],[174.798546,-41.289996],[174.804506,-41.284978],[174.789066,-41.265045]]]},"properties":{}}]}