{"type":"FeatureCollection","features":[{"type":"Feature","properties":{},"geometry":{"type":"Polygon","coordinates":[[[120.442828,23.51281],[120.445737,23.508319],[120.448532,23.496139],[120.431274,23.494448],[120.420376,23.48219],[120.419569,23.479495],[120.421046,23.472851],[120.422112,23.469309],[120.426808,23.465213],[120.432801,23.460826],[120.439831,23.46109],[120.437757,23.460033],[120.434051,23.454977],[120.434619,23.454438],[120.444711,23.452823],[120.446358,23.458051],[120.447759,23.457843],[120.447532,23.45614],[120.450448,23.455307],[120.459044,23.459666],[120.46143,23.46189],[120.468568,23.462098],[120.470708,23.465832],[120.470344,23.471598],[120.474368,23.475161],[120.480067,23.478974],[120.491473,23.481343],[120.490459,23.484348],[120.481451,23.486637],[120.475927,23.487886],[120.474545,23.489066],[120.481588,23.490716],[120.480983,23.493859],[120.474412,23.492904],[120.473863,23.495023],[120.469239,23.497041],[120.466456,23.495825],[120.464714,23.495843],[120.464032,23.495426],[120.464525,23.493724],[120.463275,23.490529],[120.461079,23.491501],[120.459128,23.496607],[120.457481,23.50126],[120.455872,23.502892],[120.455465,23.50554],[120.457869,23.50738],[120.45679,23.514707],[120.446192,23.51412],[120.442828,23.51281]]]}},{"type":"Feature","properties":{},"geometry":{"type":"Polygon","coordinates":[[[120.246181,23.058743],[120.240145,23.051098],[120.229172,23.046121],[120.221098,23.032056],[120.217997,23.031838],[120.215391,23.029972],[120.212264,23.028586],[120.202825,23.028906],[120.192871,23.029888],[120.187311,23.028449],[120.17376,23.023865],[120.17266,23.022053],[120.18042,23.015124],[120.183233,23.012411],[120.177393,23.008105],[120.178335,23.006115],[120.176487,23.005792],[120.175064,23.005724],[120.175378,22.999958],[120.173494,23.00091],[120.173251,23.002135],[120.170294,23.002321],[120.16894,23.003316],[120.163595,23.003209],[120.161179,23.004753],[120.158224,23.00529],[120.142689,22.999199],[120.139935,22.993246],[120.143352,22.985584],[120.145342,22.982241],[120.15301,22.98302],[120.151438,22.986462],[120.153489,22.986562],[120.155439,22.987717],[120.157753,22.98637],[120.157551,22.982809],[120.165561,22.97505],[120.168561,22.970755],[120.171401,22.966158],[120.176554,22.962627],[120.183183,22.962378],[120.182802,22.957708],[120.195793,22.957497],[120.19575,22.963847],[120.198025,22.967298],[120.198297,22.968651],[120.198415,22.97207],[120.203949,22.972154],[120.209075,22.967379],[120.209317,22.965368],[120.214678,22.965507],[120.217128,22.965852],[120.216223,22.970242],[120.223465,22.956714],[120.230782,22.957041],[120.237788,22.961057],[120.2381,22.963611],[120.239094,22.969457],[120.240929,22.970604],[120.245441,22.969434],[120.246425,22.970315],[120.248394,22.97003],[120.249547,22.968295],[120.247887,22.946384],[120.245797,22.942565],[120.250937,22.938021],[120.253564,22.940568],[120.252013,22.942692],[120.253591,22.944158],[120.256032,22.942431],[120.256302,22.940357],[120.262209,22.940965],[120.263289,22.94186],[120.262574,22.943077],[120.260524,22.94376],[120.258918,22.948157],[120.257233,22.949213],[120.257512,22.950563],[120.255232,22.952451],[120.255529,22.954624],[120.260364,22.952229],[120.261515,22.953677],[120.264094,22.954064],[120.264216,22.955073],[120.266114,22.969153],[120.27593,22.967663],[120.276984,22.962595],[120.285712,22.963363],[120.286319,22.960358],[120.287862,22.958285],[120.292466,22.961663],[120.295238,22.958438],[120.293998,22.954758],[120.30394,22.958229],[120.308706,22.964111],[120.303004,22.966207],[120.301182,22.969827],[120.300936,22.973018],[120.299295,22.974321],[120.29909,22.976492],[120.296137,22.97804],[120.294948,22.976964],[120.295584,22.974415],[120.295071,22.973188],[120.287401,22.974094],[120.28697,22.972697],[120.285525,22.97232],[120.272544,22.972528],[120.271805,22.973528],[120.264669,22.973453],[120.260303,22.973193],[120.259361,22.973566],[120.261003,22.975048],[120.262849,22.975163],[120.263548,22.978098],[120.260912,22.978143],[120.262305,22.98316],[120.260901,22.984698],[120.265218,22.986481],[120.265425,22.988115],[120.266208,22.991495],[120.263751,22.999303],[120.27203,23.002446],[120.274751,23.00446],[120.275152,23.011439],[120.266163,23.019616],[120.265881,23.028138],[120.268704,23.036815],[120.26416,23.042005],[120.266189,23.043593],[120.263715,23.046672],[120.265165,23.047901],[120.268049,23.040204],[120.27483,23.045166],[120.276984,23.051652],[120.272156,23.05375],[120.276143,23.056289],[120.270732,23.059335],[120.254376,23.058401],[120.246181,23.058743]]]}},{"type":"Feature","properties":{},"geometry":{"type":"Polygon","coordinates":[[[120.280462,22.927245],[120.284834,22.919168],[120.290908,22.919095],[120.29655,22.921217],[120.29003,22.934096],[120.279558,22.929853],[120.280462,22.927245]]]}},{"type":"Feature","properties":{},"geometry":{"type":"Polygon","coordinates":[[[120.317762,23.466635],[120.317311,23.459169],[120.320759,23.458831],[120.320575,23.455375],[120.326969,23.454576],[120.327494,23.460767],[120.320395,23.466165],[120.317762,23.466635]]]}},{"type":"Feature","properties":{},"geometry":{"type":"Polygon","coordinates":[[[120.276529,22.718661],[120.285102,22.704487],[120.285312,22.687165],[120.285753,22.68216],[120.285454,22.672368],[120.276874,22.664036],[120.272205,22.656962],[120.271891,22.648398],[120.275761,22.642337],[120.278308,22.635862],[120.273389,22.639372],[120.260281,22.635085],[120.256735,22.631052],[120.262032,22.619124],[120.261215,22.608115],[120.274728,22.591586],[120.291547,22.531807],[120.311988,22.512001],[120.335599,22.530241],[120.358944,22.508137],[120.363446,22.510178],[120.362696,22.514068],[120.37687,22.533553],[120.380569,22.538311],[120.379944,22.547898],[120.370564,22.558524],[120.376725,22.5585],[120.376331,22.563723],[120.374051,22.569162],[120.378777,22.574848],[120.377969,22.580746],[120.368798,22.588713],[120.368131,22.592793],[120.370499,22.596664],[120.379798,22.621415],[120.384107,22.628848],[120.378246,22.636644],[120.376898,22.641675],[120.373919,22.645987],[120.369753,22.646496],[120.361623,22.640753],[120.357936,22.64591],[120.362419,22.656743],[120.363655,22.664556],[120.379063,22.66234],[120.378445,22.66765],[120.372477,22.668231],[120.37017,22.671654],[120.367245,22.671874],[120.356366,22.686669],[120.361275,22.704754],[120.359914,22.73276],[120.352279,22.736948],[120.344248,22.736112],[120.342025,22.733833],[120.33993,22.740587],[120.333093,22.743588],[120.319009,22.740132],[120.31835,22.733409],[120.301107,22.729429],[120.297653,22.729865],[120.292601,22.73349],[120.290407,22.736075],[120.289711,22.736623],[120.285651,22.73761],[120.285069,22.735582],[120.277613,22.737866],[120.276324,22.733834],[120.270694,22.729939],[120.276529,22.718661]]]}},{"type":"Feature","properties":{},"geometry":{"type":"Polygon","coordinates":[[[120.470486,22.690066],[120.470631,22.682874],[120.469559,22.679826],[120.470689,22.677714],[120.476456,22.675655],[120.477035,22.672741],[120.469588,22.672019],[120.467759,22.67114],[120.467614,22.666674],[120.462659,22.656593],[120.460648,22.649287],[120.464646,22.648084],[120.465226,22.651507],[120.468008,22.654662],[120.480207,22.651908],[120.487481,22.651213],[120.494261,22.652202],[120.504925,22.658968],[120.502607,22.651721],[120.50423,22.650063],[120.506751,22.651721],[120.508489,22.659396],[120.511532,22.659529],[120.515183,22.65723],[120.515734,22.661722],[120.511155,22.669209],[120.511708,22.672532],[120.510896,22.67903],[120.512896,22.685099],[120.505745,22.688981],[120.50221,22.693339],[120.498675,22.68989],[120.49485,22.692858],[120.488131,22.695344],[120.480713,22.694676],[120.480945,22.690051],[120.470486,22.690066]]]}}]}