{"type":"FeatureCollection","features":[{"type":"Feature","geometry":{"type":"Polygon","coordinates":[[[25.887223,-24.639941],[25.883891,-24.645508],[25.875322,-24.66327],[25.905613,-24.682335],[25.93872,-24.677663],[25.94285,-24.657169],[25.930409,-24.65738],[25.930341,-24.638173],[25.887223,-24.639941]]]},"properties":{}},{"type":"Feature","geometry":{"type":"Polygon","coordinates":[[[27.50916,-21.156034],[27.492276,-21.163869],[27.495653,-21.170093],[27.511524,-21.175231],[27.51515,-21.177525],[27.520624,-21.170194],[27.512172,-21.157576],[27.50916,-21.156034]]]},"properties":{}}]}