{"type":"FeatureCollection","features":[{"type":"Feature","properties":{},"geometry":{"type":"Polygon","coordinates":[[[-0.233637,5.556264],[-0.226416,5.540461],[-0.223339,5.539032],[-0.222682,5.527884],[-0.163145,5.549729],[-0.16733,5.560468],[-0.1949,5.575821],[-0.225259,5.569492],[-0.233637,5.556264]]]}},{"type":"Feature","properties":{},"geometry":{"type":"Polygon","coordinates":[[[-1.639431,6.70771],[-1.645648,6.702625],[-1.647112,6.696042],[-1.64501,6.681783],[-1.643703,6.672241],[-1.633735,6.669244],[-1.616727,6.668063],[-1.598347,6.667428],[-1.591945,6.675329],[-1.594462,6.687726],[-1.594325,6.691223],[-1.591536,6.696262],[-1.596197,6.702881],[-1.598117,6.713508],[-1.606348,6.715959],[-1.630855,6.712235],[-1.639431,6.70771]]]}}]}