{"type":"FeatureCollection","features":[{"type":"Feature","geometry":{"type":"Polygon","coordinates":[[[36.793411,-1.258637],[36.800475,-1.268358],[36.795743,-1.273203],[36.782799,-1.283431],[36.786867,-1.300768],[36.798594,-1.300222],[36.809597,-1.297662],[36.823875,-1.300784],[36.839605,-1.292251],[36.83742,-1.285135],[36.830664,-1.27712],[36.818662,-1.276483],[36.812219,-1.272321],[36.800416,-1.260436],[36.793411,-1.258637]]]},"properties":{}},{"type":"Feature","geometry":{"type":"Polygon","coordinates":[[[39.656764,-4.028413],[39.650853,-4.036903],[39.640216,-4.037455],[39.640672,-4.050923],[39.651882,-4.069261],[39.666706,-4.081669],[39.685025,-4.071426],[39.681972,-4.059188],[39.67908,-4.045891],[39.67294,-4.044562],[39.670107,-4.03699],[39.668011,-4.028218],[39.656764,-4.028413]]]},"properties":{}}]}