{"type":"FeatureCollection","features":[{"type":"Feature","geometry":{"type":"Polygon","coordinates":[[[17.07425,-22.58737],[17.080718,-22.591838],[17.088561,-22.57854],[17.089609,-22.570685],[17.089043,-22.563841],[17.087355,-22.552519],[17.078252,-22.55157],[17.074475,-22.554639],[17.075053,-22.562259],[17.077264,-22.569209],[17.074828,-22.57139],[17.073224,-22.578414],[17.07425,-22.58737]]]},"properties":{}},{"type":"Feature","geometry":{"type":"Polygon","coordinates":[[[14.533756,-22.653524],[14.533524,-22.656438],[14.528056,-22.656835],[14.524298,-22.660707],[14.518441,-22.67317],[14.521233,-22.687379],[14.529306,-22.686384],[14.528922,-22.682599],[14.534915,-22.681958],[14.534583,-22.678104],[14.54497,-22.676654],[14.549247,-22.673218],[14.546716,-22.667553],[14.535093,-22.662969],[14.539186,-22.65604],[14.53676,-22.654314],[14.533756,-22.653524]]]},"properties":{}}]}