{"type":"FeatureCollection","features":[{"type":"Feature","geometry":{"type":"Polygon","coordinates":[[[31.151253,-26.33327],[31.143136,-26.318035],[31.134953,-26.314769],[31.133143,-26.3185],[31.128908,-26.31532],[31.127128,-26.312773],[31.124042,-26.311981],[31.121543,-26.306825],[31.120041,-26.304891],[31.120621,-26.300734],[31.119109,-26.299545],[31.116543,-26.298823],[31.116347,-26.297567],[31.112054,-26.298544],[31.115361,-26.300183],[31.119166,-26.300911],[31.118885,-26.305159],[31.11997,-26.307104],[31.123143,-26.312572],[31.126277,-26.313502],[31.128462,-26.316621],[31.131952,-26.319118],[31.138291,-26.321562],[31.141995,-26.323048],[31.137091,-26.327564],[31.134536,-26.32508],[31.133578,-26.325676],[31.137007,-26.329027],[31.135148,-26.335683],[31.144201,-26.335046],[31.151253,-26.33327]]]},"properties":{}},{"type":"Feature","properties":{},"geometry":{"type":"Polygon","coordinates":[[[31.370006,-26.4975],[31.364249,-26.497411],[31.364192,-26.498128],[31.37022,-26.498497],[31.372576,-26.499666],[31.373561,-26.501352],[31.37537,-26.504648],[31.379554,-26.503033],[31.378529,-26.500221],[31.38422,-26.498095],[31.383053,-26.495623],[31.387636,-26.493975],[31.389113,-26.493227],[31.387032,-26.492475],[31.38245,-26.494181],[31.38184,-26.493069],[31.375555,-26.495484],[31.370006,-26.4975]]]}}]}