{"type":"FeatureCollection","features":[{"type":"Feature","geometry":{"type":"Polygon","coordinates":[[[10.216071,36.826692],[10.218182,36.849771],[10.19251,36.85367],[10.115461,36.815564],[10.117805,36.782229],[10.199597,36.728611],[10.21582,36.73219],[10.229799,36.739077],[10.255079,36.761436],[10.233603,36.783356],[10.216071,36.826692]]]},"properties":{}},{"type":"Feature","geometry":{"type":"Polygon","coordinates":[[[10.623929,35.859029],[10.601323,35.859087],[10.580235,35.841648],[10.591074,35.819638],[10.614156,35.801849],[10.631717,35.814406],[10.660857,35.827789],[10.623929,35.859029]]]},"properties":{}},{"type":"Feature","properties":{},"geometry":{"type":"Polygon","coordinates":[[[10.815449,35.782263],[10.81336,35.774207],[10.818488,35.768603],[10.826852,35.763315],[10.828465,35.764865],[10.828337,35.769876],[10.836063,35.769342],[10.837591,35.775426],[10.832476,35.782245],[10.815449,35.782263]]]}}]}