{"type":"FeatureCollection","features":[{"type":"Feature","geometry":{"type":"Polygon","coordinates":[[[18.358407,-33.967664],[18.446122,-33.973264],[18.492174,-33.984506],[18.498108,-33.961226],[18.486843,-33.939514],[18.481614,-33.925189],[18.466965,-33.897461],[18.387009,-33.891035],[18.358407,-33.967664]]]},"properties":{}},{"type":"Feature","geometry":{"type":"Polygon","coordinates":[[[26.201389,-29.108429],[26.19713,-29.121444],[26.208426,-29.124064],[26.205873,-29.133952],[26.214625,-29.142973],[26.22819,-29.129309],[26.229741,-29.123577],[26.227548,-29.113473],[26.201389,-29.108429]]]},"properties":{}},{"type":"Feature","geometry":{"type":"Polygon","coordinates":[[[28.012193,-26.19604],[28.009604,-26.2121],[28.031672,-26.213336],[28.050538,-26.213602],[28.058514,-26.209135],[28.068028,-26.209332],[28.066844,-26.196321],[28.058441,-26.190591],[28.012193,-26.19604]]]},"properties":{}},{"type":"Feature","geometry":{"type":"Polygon","coordinates":[[[28.146918,-25.757673],[28.164293,-25.757698],[28.183631,-25.757321],[28.194053,-25.765271],[28.201087,-25.750261],[28.200696,-25.740599],[28.153449,-25.742747],[28.145361,-25.747939],[28.146918,-25.757673]]]},"properties":{}}]}