{"type":"FeatureCollection","features":[{"type":"Feature","geometry":{"type":"Polygon","coordinates":[[[-79.415605,43.664137],[-79.406686,43.630343],[-79.343967,43.650676],[-79.360617,43.678345],[-79.395794,43.670735],[-79.415605,43.664137]]]},"properties":{}},{"type":"Feature","geometry":{"type":"Polygon","coordinates":[[[-73.531384,45.535261],[-73.563573,45.540053],[-73.576381,45.507074],[-73.616022,45.473459],[-73.593855,45.461902],[-73.558904,45.461436],[-73.564552,45.444096],[-73.543645,45.448496],[-73.526046,45.460922],[-73.531384,45.535261]]]},"properties":{}},{"type":"Feature","geometry":{"type":"Polygon","coordinates":[[[-71.189231,46.826161],[-71.17993,46.850573],[-71.218897,46.861151],[-71.306882,46.827383],[-71.298024,46.789836],[-71.274987,46.771885],[-71.238466,46.778486],[-71.204745,46.787943],[-71.189231,46.826161]]]},"properties":{}},{"type":"Feature","geometry":{"type":"Polygon","coordinates":[[[-75.66503,45.436815],[-75.707392,45.422737],[-75.722691,45.413039],[-75.71161,45.394395],[-75.700994,45.398341],[-75.688572,45.375871],[-75.663688,45.377578],[-75.63657,45.379875],[-75.615324,45.388588],[-75.632878,45.423847],[-75.659722,45.423011],[-75.66503,45.436815]]]},"properties":{}},{"type":"Feature","geometry":{"type":"Polygon","coordinates":[[[-114.119908,51.068833],[-114.12044,51.035818],[-114.069468,51.036258],[-114.059627,51.02261],[-114.04389,51.036137],[-114.01311,51.034764],[-114.019117,51.04707],[-114.032669,51.068062],[-114.119908,51.068833]]]},"properties":{}},{"type":"Feature","geometry":{"type":"Polygon","coordinates":[[[-123.155871,49.295096],[-123.154368,49.27954],[-123.139753,49.263067],[-123.075957,49.261808],[-123.073795,49.285758],[-123.109938,49.295295],[-123.155871,49.295096]]]},"properties":{}}]}