{"type":"FeatureCollection","features":[{"type":"Feature","geometry":{"type":"Polygon","coordinates":[[[-84.100846,9.958023],[-84.120333,9.943633],[-84.118081,9.923486],[-84.103854,9.909488],[-84.078542,9.906537],[-84.052605,9.924093],[-84.051069,9.937203],[-84.055142,9.950785],[-84.083017,9.957418],[-84.100846,9.958023]]]},"properties":{}},{"type":"Feature","geometry":{"type":"Polygon","coordinates":[[[-83.016767,9.986195],[-83.021441,10.003899],[-83.036628,9.998096],[-83.033737,9.989992],[-83.037693,9.988724],[-83.033609,9.987398],[-83.028137,9.987738],[-83.016767,9.986195]]]},"properties":{}}]}