{"type":"FeatureCollection","features":[{"type":"Feature","properties":{},"geometry":{"type":"Polygon","coordinates":[[[-69.827732,18.465578],[-69.844727,18.494994],[-69.858363,18.513463],[-69.874787,18.513466],[-69.909471,18.497299],[-69.935189,18.487208],[-69.949355,18.483817],[-69.925677,18.441945],[-69.887374,18.462056],[-69.827732,18.465578]]]}},{"type":"Feature","properties":{},"geometry":{"type":"Polygon","coordinates":[[[-70.699118,19.480151],[-70.715019,19.467322],[-70.716177,19.455824],[-70.714575,19.448781],[-70.711148,19.448124],[-70.707933,19.448539],[-70.705872,19.448412],[-70.70474,19.447454],[-70.703846,19.439803],[-70.693107,19.430001],[-70.685581,19.441558],[-70.68335,19.454023],[-70.686475,19.470456],[-70.699118,19.480151]]]}}]}