{"type":"FeatureCollection","features":[{"type":"Feature","properties":{},"geometry":{"type":"Polygon","coordinates":[[[-79.906726,9.366761],[-79.920763,9.355731],[-79.904782,9.349556],[-79.901378,9.343335],[-79.902513,9.336078],[-79.883055,9.335747],[-79.86637,9.342174],[-79.870825,9.350841],[-79.872338,9.376758],[-79.882382,9.382728],[-79.897218,9.374228],[-79.906726,9.366761]]]}},{"type":"Feature","properties":{},"geometry":{"type":"Polygon","coordinates":[[[-79.562221,8.983436],[-79.575568,8.96605],[-79.568399,8.944805],[-79.51703,8.897151],[-79.50922,8.918628],[-79.537954,8.936535],[-79.488291,8.973585],[-79.482695,9.000815],[-79.483977,9.020444],[-79.491204,9.032705],[-79.493827,9.030172],[-79.503852,9.031784],[-79.514401,9.033338],[-79.52157,9.030172],[-79.521745,9.026891],[-79.536083,9.019523],[-79.536374,9.008529],[-79.548031,9.003405],[-79.562221,8.983436]]]}}]}