{"type":"FeatureCollection","features":[{"type":"Feature","geometry":{"type":"Polygon","coordinates":[[[151.219298,-33.856459],[151.215462,-33.847094],[151.213122,-33.838115],[151.210287,-33.836582],[151.206859,-33.838225],[151.207683,-33.845671],[151.204825,-33.851218],[151.199903,-33.85451],[151.196693,-33.860677],[151.187911,-33.864455],[151.185922,-33.870894],[151.190837,-33.878676],[151.192494,-33.888567],[151.202834,-33.890112],[151.21059,-33.881716],[151.214227,-33.873991],[151.2294,-33.868719],[151.233148,-33.857066],[151.219298,-33.856459]]]},"properties":{}},{"type":"Feature","geometry":{"type":"Polygon","coordinates":[[[144.93773,-37.784092],[144.923128,-37.846012],[144.971186,-37.867822],[144.984998,-37.855388],[144.992843,-37.809024],[144.973804,-37.807436],[144.95967,-37.803065],[144.959746,-37.789374],[144.961507,-37.77619],[144.934725,-37.772669],[144.93773,-37.784092]]]},"properties":{}},{"type":"Feature","geometry":{"type":"Polygon","coordinates":[[[153.028618,-27.439603],[153.027149,-27.449282],[153.021115,-27.454773],[153.0099,-27.456146],[153.009358,-27.470628],[153.023728,-27.488642],[153.039957,-27.491725],[153.042601,-27.47617],[153.039454,-27.469488],[153.037268,-27.46276],[153.05018,-27.449724],[153.048338,-27.441125],[153.03554,-27.437679],[153.028618,-27.439603]]]},"properties":{}},{"type":"Feature","geometry":{"type":"Polygon","coordinates":[[[115.877304,-31.970015],[115.891575,-31.966009],[115.902519,-31.961619],[115.908368,-31.955705],[115.9052,-31.953818],[115.900135,-31.953193],[115.897107,-31.951454],[115.895979,-31.943686],[115.890141,-31.938845],[115.873275,-31.945113],[115.863506,-31.940965],[115.845616,-31.938867],[115.83257,-31.950757],[115.853122,-31.959538],[115.877304,-31.970015]]]},"properties":{}},{"type":"Feature","geometry":{"type":"Polygon","coordinates":[[[130.814312,-12.445162],[130.811009,-12.464066],[130.832227,-12.461943],[130.846962,-12.475484],[130.854188,-12.466891],[130.853361,-12.45156],[130.85358,-12.443063],[130.847032,-12.437582],[130.840792,-12.437201],[130.837482,-12.437407],[130.814312,-12.445162]]]},"properties":{}},{"type":"Feature","geometry":{"type":"Polygon","coordinates":[[[147.337054,-42.883405],[147.348581,-42.883036],[147.353811,-42.862922],[147.314149,-42.861787],[147.3157,-42.864893],[147.319142,-42.868362],[147.312775,-42.871924],[147.318221,-42.877398],[147.316175,-42.879123],[147.322461,-42.883257],[147.317351,-42.886652],[147.324256,-42.891352],[147.337054,-42.883405]]]},"properties":{}},{"type":"Feature","geometry":{"type":"Polygon","coordinates":[[[138.625968,-34.940878],[138.6243,-34.927231],[138.614739,-34.927487],[138.611262,-34.920438],[138.599456,-34.913908],[138.593235,-34.91317],[138.580883,-34.919573],[138.578295,-34.92459],[138.574221,-34.930893],[138.577311,-34.942185],[138.581781,-34.942601],[138.58333,-34.949532],[138.590605,-34.948726],[138.589476,-34.942285],[138.600894,-34.942167],[138.625968,-34.940878]]]},"properties":{}}]}