{"type":"FeatureCollection","features":[{"type":"Feature","properties":{},"geometry":{"type":"Polygon","coordinates":[[[55.119074,25.228378],[54.899583,24.977905],[55.058202,24.946996],[55.105488,24.915467],[55.139404,24.955346],[55.167512,25.022301],[55.224312,25.050802],[55.221629,25.067249],[55.214192,25.077296],[55.253543,25.119269],[55.263041,25.139034],[55.264941,25.161247],[55.274439,25.174205],[55.348106,25.225646],[55.368596,25.239669],[55.39155,25.229125],[55.40519,25.229668],[55.408075,25.237658],[55.387765,25.24755],[55.387885,25.256463],[55.364652,25.268618],[55.351253,25.275193],[55.324405,25.297363],[55.275848,25.319946],[55.119074,25.228378]]]}},{"type":"Feature","properties":{},"geometry":{"type":"Polygon","coordinates":[[[56.350596,25.161745],[56.32,25.134355],[56.325174,25.128992],[56.323086,25.126926],[56.326819,25.123298],[56.328861,25.11217],[56.359267,25.101331],[56.361518,25.135463],[56.351942,25.160048],[56.350596,25.161745]]]}}]}