{"type":"FeatureCollection","features":[{"type":"Feature","properties":{},"geometry":{"type":"Polygon","coordinates":[[[90.379855,23.747321],[90.394719,23.749512],[90.401847,23.753175],[90.400337,23.756992],[90.402463,23.771414],[90.399586,23.776867],[90.400087,23.781942],[90.401178,23.791129],[90.388606,23.79181],[90.38825,23.799146],[90.381836,23.801591],[90.375422,23.807093],[90.368117,23.808152],[90.352349,23.799391],[90.353261,23.785251],[90.350938,23.781283],[90.365118,23.774682],[90.370366,23.763151],[90.376711,23.75203],[90.379855,23.747321]]]}},{"type":"Feature","properties":{},"geometry":{"type":"Polygon","coordinates":[[[91.838161,22.360033],[91.837091,22.36342],[91.829626,22.363654],[91.825767,22.359825],[91.820724,22.360164],[91.821213,22.351388],[91.815617,22.343742],[91.81121,22.336665],[91.811837,22.314936],[91.818835,22.320251],[91.831783,22.324141],[91.84686,22.327202],[91.847058,22.333686],[91.848277,22.339216],[91.850958,22.350864],[91.848866,22.35659],[91.84557,22.360528],[91.838161,22.360033]]]}}]}