{"type":"FeatureCollection","features":[{"type":"Feature","properties":{},"geometry":{"type":"Polygon","coordinates":[[[89.632301,27.518842],[89.632095,27.504958],[89.621479,27.502833],[89.623105,27.499359],[89.631541,27.499021],[89.626118,27.489663],[89.628719,27.482567],[89.627277,27.480986],[89.618535,27.479391],[89.617885,27.481533],[89.613739,27.480647],[89.612041,27.477308],[89.614503,27.475371],[89.621029,27.470387],[89.629249,27.472219],[89.629786,27.466612],[89.634082,27.465036],[89.633274,27.454965],[89.655033,27.446327],[89.633464,27.424053],[89.639699,27.419422],[89.665275,27.438057],[89.676155,27.435573],[89.679463,27.44026],[89.669729,27.443817],[89.663812,27.453189],[89.66053,27.457791],[89.656521,27.456831],[89.647869,27.46338],[89.645627,27.474582],[89.641616,27.479282],[89.640323,27.486105],[89.644649,27.492878],[89.641433,27.508132],[89.644835,27.509486],[89.646304,27.515789],[89.632301,27.518842]]]}}]}