{"type":"FeatureCollection","features":[{"type":"Feature","properties":{},"geometry":{"type":"Polygon","coordinates":[[[44.767724,41.738213],[44.73959,41.730914],[44.704534,41.726008],[44.698218,41.721947],[44.705012,41.717573],[44.742614,41.71732],[44.746264,41.71106],[44.753048,41.705772],[44.768289,41.70395],[44.763646,41.699994],[44.787153,41.699868],[44.791792,41.694556],[44.792269,41.691844],[44.786255,41.689755],[44.810949,41.685227],[44.812264,41.669512],[44.840019,41.668745],[44.904671,41.650997],[44.924109,41.667177],[44.878683,41.683589],[44.871286,41.685792],[44.830516,41.694011],[44.811574,41.704656],[44.808531,41.713765],[44.795238,41.742113],[44.78859,41.756313],[44.772532,41.752557],[44.766577,41.746591],[44.767724,41.738213]]]}},{"type":"Feature","properties":{},"geometry":{"type":"Polygon","coordinates":[[[41.63264,41.659442],[41.614792,41.645566],[41.604874,41.636424],[41.613026,41.628213],[41.62271,41.619094],[41.631598,41.618638],[41.641878,41.629018],[41.649062,41.637469],[41.666569,41.641184],[41.676153,41.649648],[41.660449,41.658457],[41.63264,41.659442]]]}}]}