{"type":"FeatureCollection","features":[{"type":"Feature","properties":{},"geometry":{"type":"Polygon","coordinates":[[[114.089308,22.528712],[114.070715,22.517289],[114.05613,22.502615],[113.971215,22.49094],[113.790277,22.330705],[113.78268,22.154528],[113.80946,22.079236],[114.116823,22.082902],[114.377381,22.137594],[114.461634,22.411301],[114.336576,22.565262],[114.243937,22.552528],[114.226345,22.54206],[114.226456,22.543613],[114.2254,22.545252],[114.225687,22.545943],[114.226969,22.547771],[114.226405,22.548282],[114.223922,22.551032],[114.194901,22.553692],[114.164243,22.555635],[114.151911,22.554637],[114.149716,22.549844],[114.149716,22.548042],[114.151772,22.547913],[114.151807,22.546755],[114.149612,22.545404],[114.148253,22.543667],[114.148668,22.541753],[114.144487,22.540949],[114.14393,22.542268],[114.141805,22.542268],[114.141248,22.542815],[114.139715,22.542847],[114.138078,22.543684],[114.12733,22.539392],[114.11263,22.529578],[114.098766,22.531959],[114.089308,22.528712]]]}}]}