{"type":"FeatureCollection","features":[{"type":"Feature","properties":{},"geometry":{"type":"Polygon","coordinates":[[[106.784915,-6.106589],[106.791085,-6.125894],[106.79347,-6.151742],[106.787218,-6.165382],[106.786395,-6.171352],[106.791825,-6.17855],[106.795198,-6.184194],[106.795788,-6.196483],[106.79997,-6.205867],[106.810335,-6.203414],[106.843736,-6.209057],[106.851219,-6.209498],[106.85089,-6.204018],[106.86323,-6.195512],[106.877545,-6.193877],[106.894027,-6.139389],[106.896088,-6.129146],[106.872051,-6.121635],[106.7895,-6.077383],[106.784915,-6.106589]]]}},{"type":"Feature","properties":{},"geometry":{"type":"Polygon","coordinates":[[[115.16818,-8.678877],[115.151312,-8.68564],[115.167266,-8.722791],[115.157628,-8.738606],[115.146279,-8.743687],[115.152726,-8.753798],[115.16449,-8.759351],[115.160945,-8.780841],[115.150845,-8.816415],[115.118641,-8.832587],[115.1248,-8.838557],[115.154988,-8.85201],[115.189633,-8.849588],[115.224594,-8.831678],[115.21732,-8.821244],[115.200985,-8.823364],[115.201955,-8.808637],[115.241637,-8.806633],[115.227349,-8.755737],[115.21615,-8.749287],[115.22139,-8.729053],[115.243434,-8.715599],[115.259847,-8.71369],[115.27214,-8.700903],[115.225606,-8.699376],[115.187051,-8.71139],[115.16818,-8.678877]]]}},{"type":"Feature","properties":{},"geometry":{"type":"Polygon","coordinates":[[[98.66871,3.607278],[98.668413,3.594118],[98.66611,3.589447],[98.667243,3.575671],[98.673383,3.574],[98.683638,3.580406],[98.686568,3.579014],[98.70394,3.581868],[98.706337,3.587593],[98.695617,3.597745],[98.686986,3.60512],[98.682313,3.606837],[98.67715,3.608188],[98.66871,3.607278]]]}},{"type":"Feature","properties":{},"geometry":{"type":"Polygon","coordinates":[[[114.572383,-3.292605],[114.567067,-3.293331],[114.5623,-3.314873],[114.5518,-3.335862],[114.566012,-3.346168],[114.575213,-3.339306],[114.58714,-3.345123],[114.599651,-3.348173],[114.604489,-3.342354],[114.6166,-3.33348],[114.619543,-3.321279],[114.620169,-3.312214],[114.610806,-3.312031],[114.604356,-3.310746],[114.593699,-3.30117],[114.581762,-3.295158],[114.572383,-3.292605]]]}}]}