{"type":"FeatureCollection","features":[{"type":"Feature","geometry":{"type":"Polygon","coordinates":[[[34.768262,32.102871],[34.752544,32.058171],[34.783905,32.044705],[34.793218,32.057803],[34.804208,32.08426],[34.810263,32.106268],[34.768262,32.102871]]]},"properties":{}},{"type":"Feature","geometry":{"type":"Polygon","coordinates":[[[34.949875,32.829337],[34.952569,32.793412],[35.014078,32.785849],[35.040716,32.783735],[35.048973,32.793697],[35.056811,32.802246],[35.073839,32.807775],[35.078491,32.812267],[35.098634,32.84357],[35.102346,32.856696],[35.103242,32.869971],[35.063711,32.861308],[35.020122,32.855306],[34.949875,32.829337]]]},"properties":{}},{"type":"Feature","properties":{},"geometry":{"type":"Polygon","coordinates":[[[35.232728,31.807286],[35.221172,31.807442],[35.203196,31.809079],[35.1954,31.794815],[35.19806,31.788345],[35.191732,31.777664],[35.19304,31.770214],[35.192125,31.760255],[35.187221,31.749749],[35.216172,31.743789],[35.227344,31.760484],[35.248224,31.773067],[35.256292,31.805283],[35.239297,31.809439],[35.232728,31.807286]]]}}]}