{"type":"FeatureCollection","features":[{"type":"Feature","properties":{},"geometry":{"type":"Polygon","coordinates":[[[104.884869,11.5918],[104.885462,11.546358],[104.916343,11.52519],[104.933253,11.529235],[104.951352,11.560377],[104.935752,11.607641],[104.918454,11.602077],[104.884869,11.5918]]]}},{"type":"Feature","properties":{},"geometry":{"type":"Polygon","coordinates":[[[103.839181,13.372809],[103.839694,13.336957],[103.84697,13.334042],[103.868677,13.335904],[103.878371,13.346098],[103.873835,13.36138],[103.86121,13.367099],[103.839181,13.372809]]]}}]}