{"type":"FeatureCollection","features":[{"type":"Feature","properties":{},"geometry":{"type":"Polygon","coordinates":[[[71.363113,51.139689],[71.355031,51.121627],[71.386347,51.117181],[71.381584,51.101431],[71.393587,51.099025],[71.38733,51.083627],[71.434831,51.076889],[71.471223,51.098063],[71.537171,51.106518],[71.548135,51.167901],[71.380324,51.224839],[71.350374,51.169769],[71.374728,51.164248],[71.363113,51.139689]]]}},{"type":"Feature","properties":{},"geometry":{"type":"Polygon","coordinates":[[[76.949751,43.294894],[76.930475,43.293398],[76.913473,43.283189],[76.837737,43.258093],[76.83396,43.247131],[76.861883,43.206407],[76.915194,43.208137],[76.94403,43.226855],[76.964911,43.22831],[76.969294,43.267367],[76.952742,43.272677],[76.949751,43.294894]]]}},{"type":"Feature","properties":{},"geometry":{"type":"Polygon","coordinates":[[[69.558143,42.345753],[69.558314,42.343451],[69.555609,42.335378],[69.560672,42.299991],[69.58758,42.287679],[69.649127,42.306473],[69.64395,42.334696],[69.577026,42.354159],[69.558143,42.345753]]]}},{"type":"Feature","properties":{},"geometry":{"type":"Polygon","coordinates":[[[57.165208,50.314717],[57.117695,50.300874],[57.140367,50.270155],[57.158792,50.265338],[57.172232,50.273534],[57.18787,50.265117],[57.226178,50.278387],[57.206168,50.297565],[57.185446,50.300108],[57.165208,50.314717]]]}}]}