{"type":"FeatureCollection","features":[{"type":"Feature","geometry":{"type":"Polygon","coordinates":[[[102.605946,17.976044],[102.592841,17.968514],[102.610819,17.951049],[102.625586,17.957439],[102.643599,17.95681],[102.641802,17.979056],[102.63637,17.988636],[102.619129,17.993993],[102.608134,17.981299],[102.605946,17.976044]]]},"properties":{}},{"type":"Feature","geometry":{"type":"Polygon","coordinates":[[[102.145347,19.901342],[102.113456,19.883233],[102.132539,19.859976],[102.163759,19.878333],[102.145347,19.901342]]]},"properties":{}}]}