{"type":"FeatureCollection","features":[{"type":"Feature","geometry":{"type":"Polygon","coordinates":[[[35.799846,34.456372],[35.805727,34.445101],[35.820073,34.439792],[35.82835,34.4463],[35.833638,34.449207],[35.814074,34.460027],[35.799846,34.456372]]]},"properties":{}},{"type":"Feature","geometry":{"type":"Polygon","coordinates":[[[35.464279,33.903219],[35.465491,33.886709],[35.495849,33.878449],[35.50266,33.893626],[35.496797,33.895544],[35.500151,33.901768],[35.49846,33.906751],[35.464279,33.903219]]]},"properties":{}}]}