{"type":"FeatureCollection","features":[{"type":"Feature","properties":{},"geometry":{"type":"Polygon","coordinates":[[[106.852679,47.921305],[106.85761,47.890745],[106.861904,47.888922],[106.874052,47.890401],[106.896227,47.897275],[106.943805,47.900783],[106.949764,47.903236],[106.980698,47.910184],[106.976063,47.927028],[106.913266,47.941122],[106.852679,47.921305]]]}},{"type":"Feature","properties":{},"geometry":{"type":"Polygon","coordinates":[[[91.633371,48.012458],[91.621024,47.996913],[91.618449,47.973172],[91.659414,47.974696],[91.667264,48.003346],[91.657652,48.01279],[91.633371,48.012458]]]}}]}