{"type":"FeatureCollection","features":[{"type":"Feature","properties":{},"geometry":{"type":"Polygon","coordinates":[[[101.661866,3.192464],[101.641327,3.150637],[101.625685,3.112261],[101.644882,3.071159],[101.700707,3.064854],[101.731883,3.113896],[101.74941,3.168116],[101.661866,3.192464]]]}},{"type":"Feature","properties":{},"geometry":{"type":"Polygon","coordinates":[[[100.317454,5.435639],[100.29332,5.397963],[100.296717,5.385102],[100.293625,5.368299],[100.285473,5.341139],[100.250657,5.284667],[100.277912,5.262211],[100.299088,5.271799],[100.334468,5.315936],[100.351755,5.370468],[100.35402,5.426718],[100.317454,5.435639]]]}},{"type":"Feature","properties":{},"geometry":{"type":"Polygon","coordinates":[[[116.072479,5.995849],[116.041288,5.964574],[116.037711,5.91252],[116.05391,5.917661],[116.06328,5.917789],[116.084998,5.934794],[116.091962,5.943774],[116.103647,5.963171],[116.115321,5.968435],[116.125974,5.995336],[116.090757,6.00987],[116.072479,5.995849]]]}},{"type":"Feature","properties":{},"geometry":{"type":"Polygon","coordinates":[[[110.393189,1.5325],[110.392466,1.551202],[110.381132,1.558608],[110.372868,1.555538],[110.361029,1.559024],[110.348938,1.559018],[110.34298,1.562164],[110.335405,1.55867],[110.330219,1.49697],[110.352538,1.500935],[110.375423,1.502487],[110.394336,1.505248],[110.394538,1.521303],[110.393189,1.5325]]]}}]}