{"type":"FeatureCollection","features":[{"type":"Feature","properties":{},"geometry":{"type":"Polygon","coordinates":[[[120.953507,14.638771],[120.952346,14.621254],[120.956553,14.59551],[120.972982,14.59486],[120.981109,14.596825],[120.989238,14.589859],[120.996387,14.595215],[121.001394,14.60008],[121.017708,14.601576],[121.017677,14.619272],[121.015474,14.627135],[121.010308,14.634177],[121.006581,14.645802],[120.962568,14.646388],[120.953507,14.638771]]]}},{"type":"Feature","properties":{},"geometry":{"type":"Polygon","coordinates":[[[123.861769,10.298998],[123.888079,10.278914],[123.933465,10.306603],[123.954984,10.320853],[123.98009,10.335374],[123.952909,10.360336],[123.888916,10.315816],[123.861769,10.298998]]]}},{"type":"Feature","properties":{},"geometry":{"type":"Polygon","coordinates":[[[125.581281,7.036054],[125.632147,7.033043],[125.657879,7.103248],[125.667728,7.120652],[125.656725,7.137326],[125.598259,7.117728],[125.570354,7.101885],[125.579082,7.079328],[125.581281,7.036054]]]}}]}