{"type":"FeatureCollection","features":[{"type":"Feature","properties":{},"geometry":{"type":"Polygon","coordinates":[[[103.715206,1.454373],[103.672464,1.420175],[103.633398,1.346459],[103.617901,1.317905],[103.601315,1.259513],[103.597929,1.195429],[103.755394,1.155769],[103.902217,1.197122],[104.090269,1.312593],[104.066569,1.35732],[104.08906,1.397211],[104.076481,1.423801],[104.040209,1.441451],[104.018445,1.433958],[103.996921,1.414134],[103.933083,1.418723],[103.898036,1.425486],[103.870467,1.439749],[103.849671,1.461749],[103.806866,1.476254],[103.7556,1.44265],[103.715206,1.454373]]]}}]}