{"type":"FeatureCollection","features":[{"type":"Feature","properties":{},"geometry":{"type":"Polygon","coordinates":[[[100.49099,13.783789],[100.487083,13.781226],[100.469344,13.75979],[100.467761,13.757124],[100.471878,13.727481],[100.477475,13.712504],[100.490885,13.719275],[100.51855,13.716506],[100.545687,13.723584],[100.553501,13.724507],[100.551122,13.751105],[100.55142,13.764356],[100.498985,13.788825],[100.49099,13.783789]]]}},{"type":"Feature","properties":{},"geometry":{"type":"Polygon","coordinates":[[[98.968897,18.805345],[98.961714,18.786188],[98.965777,18.751654],[99.005211,18.761364],[99.011591,18.787069],[99.005989,18.812597],[98.979293,18.813581],[98.968897,18.805345]]]}},{"type":"Feature","properties":{},"geometry":{"type":"Polygon","coordinates":[[[98.374101,7.908697],[98.362175,7.884012],[98.382186,7.845884],[98.423361,7.863228],[98.42599,7.90767],[98.391063,7.92259],[98.374101,7.908697]]]}}]}