{"type":"FeatureCollection","features":[{"type":"Feature","properties":{},"geometry":{"type":"Polygon","coordinates":[[[32.722533,39.964518],[32.730523,39.896313],[32.794005,39.886205],[32.81352,39.844001],[32.941985,39.887046],[32.95959,39.914433],[32.918334,39.958921],[32.777336,39.969617],[32.722533,39.964518]]]}},{"type":"Feature","properties":{},"geometry":{"type":"Polygon","coordinates":[[[28.931484,41.03108],[28.924493,41.023291],[28.918376,41.01431],[28.917688,40.981496],[29.033322,40.979067],[29.040009,41.045835],[29.009226,41.071535],[28.980079,41.071553],[28.968637,41.068515],[28.943733,41.050744],[28.931484,41.03108]]]}},{"type":"Feature","properties":{},"geometry":{"type":"Polygon","coordinates":[[[30.657724,36.872186],[30.709458,36.862969],[30.72946,36.849379],[30.74807,36.85665],[30.745201,36.865088],[30.733802,36.873402],[30.745369,36.928895],[30.73925,36.953975],[30.709748,36.960751],[30.678306,36.956645],[30.640463,36.92551],[30.657724,36.872186]]]}}]}