{"type":"FeatureCollection","features":[{"type":"Feature","geometry":{"type":"Polygon","coordinates":[[[121.444024,25.114533],[121.398634,25.027503],[121.418247,24.948494],[121.57328,24.963223],[121.644826,25.04981],[121.602447,25.099388],[121.494188,25.150081],[121.444024,25.114533]]]},"properties":{}},{"type":"Feature","geometry":{"type":"Polygon","coordinates":[[[120.638553,24.198773],[120.617997,24.160189],[120.613319,24.103587],[120.701762,24.105928],[120.727543,24.196766],[120.703669,24.206286],[120.638553,24.198773]]]},"properties":{}},{"type":"Feature","geometry":{"type":"Polygon","coordinates":[[[120.200119,23.021785],[120.19029,23.018428],[120.174851,23.007835],[120.145091,23.003442],[120.127826,22.994268],[120.166315,22.944345],[120.201394,22.934784],[120.223003,22.93905],[120.234647,22.949129],[120.241802,22.963902],[120.242785,23.01927],[120.226226,23.03309],[120.200119,23.021785]]]},"properties":{}},{"type":"Feature","geometry":{"type":"Polygon","coordinates":[[[120.25258,22.625205],[120.294095,22.560346],[120.343022,22.596427],[120.347826,22.604733],[120.336614,22.662614],[120.283522,22.679428],[120.25258,22.625205]]]},"properties":{}},{"type":"Feature","geometry":{"type":"Polygon","coordinates":[[[121.595837,24.001365],[121.574066,23.967762],[121.61337,23.95297],[121.64076,23.987084],[121.606139,24.006485],[121.595837,24.001365]]]},"properties":{}}]}