{"type":"FeatureCollection","features":[{"type":"Feature","properties":{},"geometry":{"type":"Polygon","coordinates":[[[105.879654,21.004839],[105.856287,21.050728],[105.802579,21.063837],[105.804585,21.037611],[105.795403,21.025715],[105.817439,21.002832],[105.857505,20.993957],[105.870251,20.997483],[105.879654,21.004839]]]}},{"type":"Feature","properties":{},"geometry":{"type":"Polygon","coordinates":[[[108.170686,16.081144],[108.177083,16.059995],[108.179643,16.035283],[108.205559,16.007486],[108.227385,16.027992],[108.265463,16.035989],[108.272618,16.112907],[108.212214,16.136438],[108.170686,16.081144]]]}},{"type":"Feature","properties":{},"geometry":{"type":"Polygon","coordinates":[[[106.662935,10.818527],[106.645723,10.790179],[106.66227,10.741143],[106.724168,10.736047],[106.747413,10.753888],[106.770333,10.774095],[106.752781,10.788248],[106.75673,10.806712],[106.714677,10.828406],[106.662935,10.818527]]]}}]}