{"type":"FeatureCollection","features":[{"type":"Feature","geometry":{"type":"Polygon","coordinates":[[[16.38486,48.270122],[16.34701,48.231332],[16.313145,48.183119],[16.313574,48.166331],[16.325614,48.138143],[16.364482,48.130938],[16.387096,48.157158],[16.423461,48.168835],[16.433295,48.185946],[16.462007,48.229279],[16.432026,48.264524],[16.408913,48.276605],[16.38486,48.270122]]]},"properties":{}},{"type":"Feature","geometry":{"type":"Polygon","coordinates":[[[13.05572,47.828989],[13.014458,47.82307],[12.999031,47.807833],[12.994069,47.792695],[12.997904,47.787831],[13.013517,47.790933],[13.031092,47.788033],[13.05006,47.795642],[13.081326,47.805409],[13.062758,47.829761],[13.05572,47.828989]]]},"properties":{}}]}