{"type":"FeatureCollection","features":[{"type":"Feature","geometry":{"type":"Polygon","coordinates":[[[18.39823,43.862533],[18.394935,43.859951],[18.38327,43.85965],[18.374614,43.856086],[18.357787,43.852854],[18.336233,43.853199],[18.324386,43.852935],[18.32743,43.841957],[18.32578,43.834523],[18.331593,43.828605],[18.334161,43.824001],[18.348025,43.823524],[18.35294,43.814738],[18.363173,43.815056],[18.369959,43.816167],[18.373691,43.822093],[18.381652,43.822876],[18.380904,43.825986],[18.37159,43.826256],[18.345674,43.835292],[18.358678,43.840291],[18.376832,43.844648],[18.384599,43.844949],[18.399716,43.846567],[18.41051,43.851756],[18.426815,43.853708],[18.439496,43.857318],[18.442512,43.86016],[18.424251,43.878081],[18.407237,43.87866],[18.400117,43.879066],[18.39823,43.862533]]]},"properties":{}},{"type":"Feature","geometry":{"type":"Polygon","coordinates":[[[17.811699,43.358732],[17.791783,43.35643],[17.7855,43.346081],[17.791735,43.340057],[17.810942,43.335851],[17.817205,43.325051],[17.82849,43.329318],[17.820007,43.356527],[17.830736,43.365682],[17.826738,43.368683],[17.815799,43.365026],[17.811699,43.358732]]]},"properties":{}}]}