{"type":"FeatureCollection","features":[{"type":"Feature","geometry":{"type":"Polygon","coordinates":[[[4.275282,50.825596],[4.294041,50.802753],[4.307799,50.790652],[4.344342,50.800315],[4.380666,50.798474],[4.409493,50.794471],[4.421941,50.797922],[4.431622,50.812505],[4.447754,50.855541],[4.423897,50.868313],[4.437398,50.8787],[4.490909,50.893829],[4.494694,50.910585],[4.4516,50.910355],[4.403628,50.914211],[4.387686,50.910631],[4.377439,50.897734],[4.35424,50.904497],[4.334324,50.902219],[4.280987,50.867756],[4.277959,50.845027],[4.275282,50.825596]]]},"properties":{}},{"type":"Feature","geometry":{"type":"Polygon","coordinates":[[[4.391167,51.233791],[4.381145,51.216059],[4.346604,51.203441],[4.377642,51.170509],[4.450714,51.172766],[4.469103,51.17972],[4.49073,51.203153],[4.499585,51.212297],[4.499049,51.226767],[4.517049,51.234931],[4.450399,51.262399],[4.421491,51.265184],[4.399229,51.243445],[4.395951,51.241107],[4.391167,51.233791]]]},"properties":{}},{"type":"Feature","geometry":{"type":"Polygon","coordinates":[[[16.38486,48.270122],[16.34701,48.231332],[16.313145,48.183119],[16.313574,48.166331],[16.325614,48.138143],[16.364482,48.130938],[16.387096,48.157158],[16.423461,48.168835],[16.433295,48.185946],[16.462007,48.229279],[16.432026,48.264524],[16.408913,48.276605],[16.38486,48.270122]]]},"properties":{}},{"type":"Feature","geometry":{"type":"Polygon","coordinates":[[[13.05572,47.828989],[13.014458,47.82307],[12.999031,47.807833],[12.994069,47.792695],[12.997904,47.787831],[13.013517,47.790933],[13.031092,47.788033],[13.05006,47.795642],[13.081326,47.805409],[13.062758,47.829761],[13.05572,47.828989]]]},"properties":{}}]}