{"type":"FeatureCollection","features":[{"type":"Feature","geometry":{"type":"Polygon","coordinates":[[[24.734283,42.167045],[24.727457,42.163892],[24.721716,42.157509],[24.716092,42.149716],[24.715908,42.14298],[24.725073,42.130288],[24.74706,42.133993],[24.774255,42.115064],[24.777986,42.118314],[24.767197,42.13534],[24.787592,42.143636],[24.778285,42.150501],[24.770086,42.155761],[24.765717,42.161216],[24.746119,42.160461],[24.745699,42.169478],[24.741662,42.169879],[24.734283,42.167045]]]},"properties":{}},{"type":"Feature","properties":{},"geometry":{"type":"Polygon","coordinates":[[[23.312238,42.721218],[23.308405,42.718471],[23.299366,42.711584],[23.293178,42.692583],[23.299257,42.685744],[23.301994,42.677908],[23.334097,42.68582],[23.342886,42.692809],[23.34673,42.701884],[23.333915,42.713998],[23.312238,42.721218]]]}}]}