{"type":"FeatureCollection","features":[{"type":"Feature","properties":{},"geometry":{"type":"Polygon","coordinates":[[[8.518981,47.354156],[8.576982,47.360341],[8.558424,47.400942],[8.57765,47.41358],[8.573489,47.440345],[8.577932,47.456518],[8.550143,47.467247],[8.558113,47.440348],[8.542434,47.427166],[8.529609,47.416684],[8.531301,47.400455],[8.520436,47.39254],[8.455823,47.403092],[8.456235,47.395473],[8.484554,47.372137],[8.49885,47.360075],[8.518981,47.354156]]]}},{"type":"Feature","properties":{},"geometry":{"type":"Polygon","coordinates":[[[6.169564,46.216542],[6.14548,46.228181],[6.12709,46.253316],[6.09633,46.235147],[6.079034,46.241734],[6.044553,46.223031],[6.052106,46.216896],[6.077611,46.215912],[6.099066,46.208867],[6.098426,46.182433],[6.121383,46.164354],[6.156647,46.178734],[6.169345,46.201013],[6.169564,46.216542]]]}}]}