{"type":"FeatureCollection","features":[{"type":"Feature","properties":{},"geometry":{"type":"Polygon","coordinates":[[[33.321219,35.180703],[33.295798,35.144091],[33.293764,35.129004],[33.285066,35.115483],[33.313446,35.109185],[33.367059,35.126147],[33.378928,35.137986],[33.417947,35.142364],[33.423197,35.157768],[33.381538,35.203503],[33.321219,35.180703]]]}},{"type":"Feature","properties":{},"geometry":{"type":"Polygon","coordinates":[[[33.133881,34.707606],[33.127348,34.719444],[33.094165,34.715173],[33.077982,34.728291],[33.041162,34.724692],[32.999517,34.708949],[32.984709,34.68762],[32.990574,34.66149],[33.001874,34.642118],[33.018725,34.641629],[33.133881,34.707606]]]}}]}