{"type":"FeatureCollection","features":[{"type":"Feature","properties":{},"geometry":{"type":"Polygon","coordinates":[[[14.274914,50.118384],[14.244427,50.107885],[14.261929,50.086589],[14.287608,50.070663],[14.268751,50.046523],[14.332323,50.034122],[14.361229,50.044492],[14.389143,50.054328],[14.410834,50.030663],[14.494748,50.03877],[14.569792,50.05255],[14.554449,50.066288],[14.568782,50.089867],[14.557073,50.130003],[14.514275,50.150446],[14.438772,50.129614],[14.395368,50.117448],[14.318855,50.096472],[14.274914,50.118384]]]}},{"type":"Feature","properties":{},"geometry":{"type":"Polygon","coordinates":[[[16.583858,49.258279],[16.57217,49.246628],[16.57642,49.226163],[16.567389,49.206383],[16.566159,49.189428],[16.546503,49.165813],[16.567859,49.158587],[16.635434,49.156919],[16.664771,49.188959],[16.703439,49.197974],[16.696422,49.213923],[16.681368,49.216324],[16.669234,49.211818],[16.658711,49.219952],[16.643093,49.229112],[16.611642,49.230083],[16.594855,49.256303],[16.583858,49.258279]]]}}]}