{"type":"FeatureCollection","features":[{"type":"Feature","properties":{},"geometry":{"type":"Polygon","coordinates":[[[13.363245,52.558357],[13.325614,52.539063],[13.281802,52.534239],[13.279908,52.510493],[13.25969,52.509683],[13.268003,52.497295],[13.281238,52.497336],[13.304506,52.482115],[13.311067,52.477898],[13.342412,52.476677],[13.350339,52.468962],[13.384898,52.468623],[13.39882,52.462818],[13.412522,52.459534],[13.433586,52.461236],[13.457819,52.463037],[13.466979,52.479996],[13.470018,52.498975],[13.453745,52.505029],[13.458491,52.521398],[13.440409,52.537211],[13.416903,52.543809],[13.416903,52.555904],[13.363245,52.558357]]]}},{"type":"Feature","properties":{},"geometry":{"type":"Polygon","coordinates":[[[9.899043,53.595983],[9.894826,53.585226],[9.897117,53.58336],[9.910012,53.582189],[9.894719,53.561875],[9.895305,53.549657],[9.911611,53.541741],[9.963618,53.544085],[9.992872,53.537815],[10.021351,53.534169],[10.037431,53.528485],[10.053372,53.529584],[10.067466,53.528726],[10.087588,53.546364],[10.076754,53.571791],[10.062914,53.593927],[10.03834,53.60263],[10.028189,53.602749],[10.007392,53.642032],[9.94293,53.612891],[9.899043,53.595983]]]}}]}