{"type":"FeatureCollection","features":[{"type":"Feature","properties":{},"geometry":{"type":"Polygon","coordinates":[[[12.647668,55.669685],[12.649337,55.693782],[12.649989,55.727152],[12.550835,55.729576],[12.533483,55.718628],[12.514826,55.702458],[12.483306,55.681486],[12.486505,55.671782],[12.47995,55.665476],[12.484192,55.653676],[12.505585,55.648805],[12.603713,55.654352],[12.647668,55.669685]]]}},{"type":"Feature","properties":{},"geometry":{"type":"Polygon","coordinates":[[[10.230018,56.121326],[10.267581,56.154736],[10.271819,56.184274],[10.219269,56.190932],[10.143128,56.167414],[10.138773,56.146475],[10.142036,56.120642],[10.117806,56.109663],[10.1609,56.102197],[10.230018,56.121326]]]}}]}