{"type":"FeatureCollection","features":[{"type":"Feature","properties":{},"geometry":{"type":"Polygon","coordinates":[[[24.791278,59.410395],[24.876854,59.4111],[24.885954,59.429496],[24.812847,59.460755],[24.69742,59.49325],[24.612254,59.459743],[24.628733,59.398206],[24.674924,59.388707],[24.730643,59.392576],[24.791278,59.410395]]]}},{"type":"Feature","properties":{},"geometry":{"type":"Polygon","coordinates":[[[26.711971,58.406194],[26.671139,58.398814],[26.677786,58.356577],[26.709122,58.340964],[26.717668,58.336644],[26.745364,58.337807],[26.786513,58.375171],[26.736818,58.401136],[26.711971,58.406194]]]}}]}