{"type":"FeatureCollection","features":[{"type":"Feature","properties":{},"geometry":{"type":"Polygon","coordinates":[[[-3.699306,40.447141],[-3.710548,40.447682],[-3.711258,40.443995],[-3.722629,40.436373],[-3.729977,40.420226],[-3.737203,40.398397],[-3.723294,40.374646],[-3.696375,40.371869],[-3.668787,40.376244],[-3.653476,40.401487],[-3.653289,40.407251],[-3.649929,40.419204],[-3.65183,40.445602],[-3.680091,40.447449],[-3.699306,40.447141]]]}},{"type":"Feature","properties":{},"geometry":{"type":"Polygon","coordinates":[[[2.176516,41.455132],[2.128377,41.413343],[2.09034,41.375191],[2.08316,41.361002],[2.087103,41.346244],[2.084147,41.341065],[2.089012,41.31299],[2.052838,41.300513],[2.070573,41.279361],[2.162011,41.322388],[2.296462,41.46148],[2.266118,41.466994],[2.204467,41.466045],[2.176516,41.455132]]]}}]}