{"type":"FeatureCollection","features":[{"type":"Feature","geometry":{"type":"Polygon","coordinates":[[[24.955135,60.145016],[24.982312,60.167054],[24.974333,60.173024],[24.984579,60.18363],[24.986273,60.190805],[24.966662,60.202073],[24.961876,60.202284],[24.96046,60.197237],[24.957057,60.195828],[24.947069,60.200623],[24.946373,60.209272],[24.935755,60.207725],[24.924622,60.208432],[24.924313,60.203309],[24.928591,60.193701],[24.919158,60.190678],[24.913435,60.19219],[24.898368,60.192366],[24.890927,60.175209],[24.906503,60.142265],[24.955135,60.145016]]]},"properties":{}},{"type":"Feature","geometry":{"type":"Polygon","coordinates":[[[23.751765,61.488145],[23.765027,61.489725],[23.784519,61.489423],[23.794378,61.489631],[23.816435,61.485754],[23.82607,61.490756],[23.819206,61.49798],[23.811768,61.500286],[23.798799,61.507322],[23.783238,61.518549],[23.746667,61.507975],[23.751765,61.488145]]]},"properties":{}}]}