{"type":"FeatureCollection","features":[{"type":"Feature","geometry":{"type":"Polygon","coordinates":[[[23.728383,37.990102],[23.693258,37.97142],[23.714023,37.949761],[23.746659,37.974571],[23.728383,37.990102]]]},"properties":{}},{"type":"Feature","geometry":{"type":"Polygon","coordinates":[[[22.950939,40.619185],[22.969681,40.625658],[22.965845,40.62811],[22.962949,40.633077],[22.956141,40.634986],[22.935632,40.644868],[22.93126,40.650503],[22.917013,40.649079],[22.914426,40.646181],[22.928812,40.639044],[22.950939,40.619185]]]},"properties":{}}]}