{"type":"FeatureCollection","features":[{"type":"Feature","properties":{},"geometry":{"type":"Polygon","coordinates":[[[15.925376,45.814298],[15.921716,45.793746],[15.961484,45.792748],[16.021279,45.795977],[16.006987,45.80882],[15.999123,45.818309],[15.976038,45.815773],[15.947688,45.813557],[15.933627,45.817566],[15.925376,45.814298]]]}},{"type":"Feature","properties":{},"geometry":{"type":"Polygon","coordinates":[[[18.13921,42.634534],[18.131449,42.640647],[18.107585,42.648958],[18.103282,42.63977],[18.131074,42.63063],[18.13921,42.634534]]]}}]}