{"type":"FeatureCollection","features":[{"type":"Feature","properties":{},"geometry":{"type":"Polygon","coordinates":[[[19.039184,47.523381],[19.014172,47.509536],[19.011131,47.491711],[19.024962,47.483227],[19.014368,47.468443],[19.019273,47.452593],[19.053014,47.451996],[19.084402,47.453721],[19.112958,47.45497],[19.149802,47.493859],[19.135948,47.50238],[19.110193,47.501842],[19.091114,47.523111],[19.105005,47.544834],[19.092243,47.554213],[19.076851,47.56935],[19.052974,47.540573],[19.039184,47.523381]]]}},{"type":"Feature","properties":{},"geometry":{"type":"Polygon","coordinates":[[[21.59408,47.555348],[21.586851,47.547808],[21.591131,47.511738],[21.598578,47.508039],[21.645383,47.521059],[21.646186,47.52954],[21.648887,47.543194],[21.638446,47.556387],[21.606026,47.557421],[21.59408,47.555348]]]}}]}