{"type":"FeatureCollection","features":[{"type":"Feature","properties":{},"geometry":{"type":"Polygon","coordinates":[[[-6.220146,53.361007],[-6.220939,53.414654],[-6.297813,53.410402],[-6.3628,53.389611],[-6.392915,53.351547],[-6.384198,53.325995],[-6.356459,53.300427],[-6.33625,53.2919],[-6.323174,53.270578],[-6.302964,53.266786],[-6.248281,53.266075],[-6.207466,53.266786],[-6.186861,53.279345],[-6.193993,53.292611],[-6.169029,53.310135],[-6.184483,53.353913],[-6.220146,53.361007]]]}},{"type":"Feature","properties":{},"geometry":{"type":"Polygon","coordinates":[[[-8.494131,51.924482],[-8.49706,51.913401],[-8.521832,51.905834],[-8.519696,51.896602],[-8.536173,51.893923],[-8.542029,51.871011],[-8.510926,51.868714],[-8.478246,51.862121],[-8.388577,51.880494],[-8.373979,51.906571],[-8.414422,51.90872],[-8.425185,51.921364],[-8.471992,51.926803],[-8.494131,51.924482]]]}}]}