{"type":"FeatureCollection","features":[{"type":"Feature","properties":{},"geometry":{"type":"Polygon","coordinates":[[[-21.967551,64.155587],[-21.978007,64.129718],[-21.936013,64.098543],[-21.842641,64.086043],[-21.765872,64.102387],[-21.783304,64.1277],[-21.813465,64.133578],[-21.836186,64.150415],[-21.869161,64.158655],[-21.935715,64.166629],[-21.967551,64.155587]]]}},{"type":"Feature","properties":{},"geometry":{"type":"Polygon","coordinates":[[[-18.140261,65.701797],[-18.155151,65.693642],[-18.140373,65.670038],[-18.11608,65.6687],[-18.077458,65.663995],[-18.070853,65.688987],[-18.095126,65.700262],[-18.140261,65.701797]]]}}]}