{"type":"FeatureCollection","features":[{"type":"Feature","geometry":{"type":"Polygon","coordinates":[[[12.462505,41.933637],[12.453719,41.917139],[12.439768,41.903132],[12.441222,41.896744],[12.45099,41.891407],[12.454854,41.894743],[12.462324,41.890182],[12.441749,41.875211],[12.453729,41.867674],[12.463165,41.859455],[12.47351,41.860563],[12.480349,41.867305],[12.500388,41.867362],[12.506304,41.870205],[12.524623,41.871469],[12.531098,41.864399],[12.539375,41.871535],[12.546403,41.891244],[12.538511,41.901768],[12.531496,41.917928],[12.519328,41.918796],[12.511454,41.910876],[12.489441,41.927544],[12.478331,41.936394],[12.473876,41.936581],[12.462505,41.933637]]]},"properties":{}},{"type":"Feature","geometry":{"type":"Polygon","coordinates":[[[9.168865,45.495686],[9.145443,45.483911],[9.144858,45.47584],[9.158823,45.44917],[9.167218,45.444996],[9.208265,45.448242],[9.218208,45.46347],[9.219364,45.485446],[9.194247,45.497586],[9.168865,45.495686]]]},"properties":{}},{"type":"Feature","properties":{},"geometry":{"type":"Polygon","coordinates":[[[14.258535,40.858451],[14.243248,40.85071],[14.242263,40.840586],[14.236919,40.840435],[14.216236,40.834595],[14.220005,40.822835],[14.236613,40.830155],[14.248291,40.823336],[14.276597,40.836853],[14.277347,40.855686],[14.276566,40.863753],[14.265628,40.86365],[14.258535,40.858451]]]}},{"type":"Feature","properties":{},"geometry":{"type":"Polygon","coordinates":[[[13.383207,38.112707],[13.36002,38.136887],[13.339051,38.132011],[13.346101,38.118665],[13.356642,38.107682],[13.368206,38.105455],[13.383207,38.112707]]]}}]}