{"type":"FeatureCollection","features":[{"type":"Feature","properties":{},"geometry":{"type":"Polygon","coordinates":[[[9.508455,47.081657],[9.489234,47.072675],[9.483321,47.060932],[9.490535,47.056929],[9.513808,47.059585],[9.51375,47.071831],[9.52719,47.092868],[9.527131,47.099443],[9.539931,47.101384],[9.540448,47.112477],[9.537177,47.119851],[9.529978,47.126725],[9.525701,47.148635],[9.517332,47.154941],[9.526525,47.167615],[9.52927,47.173864],[9.551836,47.199655],[9.556951,47.219274],[9.551836,47.223399],[9.549598,47.232301],[9.527858,47.252631],[9.505266,47.222169],[9.489942,47.193287],[9.487384,47.181193],[9.492819,47.160763],[9.507099,47.143796],[9.51539,47.120853],[9.519463,47.100616],[9.516719,47.088145],[9.511485,47.084103],[9.508455,47.081657]]]}}]}