{"type":"FeatureCollection","features":[{"type":"Feature","properties":{},"geometry":{"type":"Polygon","coordinates":[[[25.282266,54.72374],[25.267275,54.713559],[25.236192,54.697642],[25.247202,54.683234],[25.229929,54.662399],[25.274156,54.65383],[25.30723,54.652032],[25.319229,54.680998],[25.317378,54.721127],[25.303993,54.722643],[25.297312,54.725527],[25.282266,54.72374]]]}},{"type":"Feature","properties":{},"geometry":{"type":"Polygon","coordinates":[[[23.885846,54.942321],[23.861421,54.931449],[23.831494,54.910203],[23.834354,54.899576],[23.890907,54.889515],[23.924245,54.879705],[23.930653,54.861207],[23.944574,54.85839],[23.953363,54.861398],[23.964909,54.876244],[23.957958,54.887783],[23.976501,54.895426],[24.007465,54.897932],[24.01129,54.937018],[23.912017,54.94079],[23.885846,54.942321]]]}}]}