{"type":"FeatureCollection","features":[{"type":"Feature","properties":{},"geometry":{"type":"Polygon","coordinates":[[[24.086705,56.980884],[24.028626,56.976976],[24.035079,56.923892],[24.088498,56.915869],[24.129906,56.932989],[24.157726,56.918476],[24.191032,56.930134],[24.213337,56.954275],[24.210038,56.989333],[24.122628,57.013383],[24.094335,56.995029],[24.086705,56.980884]]]}},{"type":"Feature","properties":{},"geometry":{"type":"Polygon","coordinates":[[[26.514967,55.910438],[26.47547,55.890559],[26.498921,55.877029],[26.509581,55.865319],[26.520465,55.862863],[26.546946,55.860093],[26.584535,55.880742],[26.553454,55.912702],[26.514967,55.910438]]]}}]}