{"type":"FeatureCollection","features":[{"type":"Feature","properties":{},"geometry":{"type":"Polygon","coordinates":[[[7.436864,43.751907],[7.436785,43.751609],[7.437325,43.751272],[7.437594,43.751201],[7.436005,43.750002],[7.434793,43.749856],[7.43366,43.749482],[7.433317,43.749453],[7.43239,43.749096],[7.432113,43.748875],[7.431889,43.748801],[7.430704,43.748928],[7.430625,43.748724],[7.430511,43.748565],[7.43043,43.748254],[7.429765,43.748077],[7.429275,43.746823],[7.428772,43.746581],[7.428639,43.745847],[7.428162,43.744621],[7.428078,43.744123],[7.428036,43.743891],[7.427615,43.743539],[7.426973,43.743198],[7.426757,43.742894],[7.426697,43.74268],[7.42616,43.742254],[7.42588,43.741875],[7.425269,43.741428],[7.425053,43.741536],[7.424489,43.740868],[7.423002,43.741695],[7.421806,43.741099],[7.421514,43.740741],[7.421727,43.740566],[7.420679,43.739681],[7.420568,43.739771],[7.414635,43.736045],[7.412695,43.734701],[7.412723,43.734565],[7.412694,43.734512],[7.412331,43.734308],[7.412852,43.733919],[7.412713,43.733444],[7.413075,43.733055],[7.41314,43.732856],[7.413146,43.732752],[7.41294,43.731633],[7.412721,43.731605],[7.411553,43.731539],[7.410919,43.731287],[7.409484,43.7301],[7.409074,43.729519],[7.409577,43.729333],[7.411133,43.728582],[7.418582,43.724752],[7.438023,43.720506],[7.44078,43.748766],[7.439074,43.749272],[7.438875,43.749491],[7.438781,43.749476],[7.438724,43.749443],[7.438659,43.749436],[7.438557,43.749442],[7.438472,43.749483],[7.438409,43.749486],[7.438645,43.749929],[7.43863,43.750195],[7.438488,43.750468],[7.438694,43.750869],[7.43872,43.750991],[7.438707,43.751119],[7.438669,43.751225],[7.438362,43.7515],[7.437365,43.751831],[7.436864,43.751907]]]}}]}