{"type":"FeatureCollection","features":[{"type":"Feature","properties":{},"geometry":{"type":"Polygon","coordinates":[[[19.23854,42.456332],[19.236377,42.455042],[19.234201,42.453201],[19.231954,42.448469],[19.234587,42.446475],[19.227488,42.440276],[19.225849,42.437706],[19.228701,42.434225],[19.233582,42.426116],[19.236687,42.422299],[19.240088,42.421025],[19.248419,42.421953],[19.264316,42.417405],[19.265141,42.41728],[19.276073,42.43545],[19.27739,42.43948],[19.277424,42.442296],[19.27027,42.442785],[19.258039,42.446148],[19.248037,42.448975],[19.23854,42.456332]]]}},{"type":"Feature","properties":{},"geometry":{"type":"Polygon","coordinates":[[[18.752825,42.438892],[18.755095,42.4338],[18.756085,42.426481],[18.759067,42.422265],[18.760454,42.418983],[18.762146,42.417163],[18.763588,42.415909],[18.765346,42.412537],[18.76663,42.411883],[18.769963,42.411958],[18.769891,42.414102],[18.770379,42.416748],[18.77019,42.41895],[18.772406,42.42325],[18.772485,42.424677],[18.773229,42.426116],[18.775068,42.426585],[18.773963,42.427368],[18.771148,42.430647],[18.770642,42.435255],[18.76876,42.437262],[18.769477,42.440409],[18.7716,42.442009],[18.770477,42.444455],[18.76978,42.4517],[18.760664,42.449636],[18.752825,42.438892]]]}}]}