{"type":"FeatureCollection","features":[{"type":"Feature","properties":{},"geometry":{"type":"Polygon","coordinates":[[[21.383883,42.014728],[21.378561,42.003128],[21.370447,41.99622],[21.409714,41.989665],[21.459891,41.971232],[21.470089,41.967257],[21.484917,41.984809],[21.49609,41.994416],[21.501057,41.999624],[21.488628,42.004048],[21.481777,42.00526],[21.475634,42.00423],[21.475192,42.015473],[21.459176,42.017988],[21.452103,42.025532],[21.428157,42.027201],[21.427377,42.019742],[21.427136,42.012325],[21.412777,42.016538],[21.407269,42.015236],[21.395964,42.015378],[21.383883,42.014728]]]}},{"type":"Feature","properties":{},"geometry":{"type":"Polygon","coordinates":[[[20.816783,41.132027],[20.812523,41.133175],[20.806831,41.13404],[20.798687,41.128998],[20.786817,41.125458],[20.780281,41.119008],[20.789715,41.107841],[20.806557,41.103912],[20.815348,41.101654],[20.823095,41.115608],[20.825862,41.118966],[20.827715,41.121381],[20.826622,41.124815],[20.826159,41.126406],[20.818764,41.130618],[20.816783,41.132027]]]}}]}