{"type":"FeatureCollection","features":[{"type":"Feature","properties":{},"geometry":{"type":"Polygon","coordinates":[[[14.490888,35.930994],[14.475262,35.912899],[14.447221,35.905557],[14.456426,35.889871],[14.460033,35.886316],[14.464034,35.872734],[14.478596,35.868386],[14.455798,35.84662],[14.458844,35.846228],[14.477973,35.854743],[14.504677,35.832316],[14.509185,35.833529],[14.499277,35.848982],[14.492069,35.8572],[14.497674,35.861703],[14.515506,35.8614],[14.53348,35.86954],[14.563452,35.887553],[14.529984,35.913465],[14.490888,35.930994]]]}}]}