{"type":"FeatureCollection","features":[{"type":"Feature","properties":{},"geometry":{"type":"Polygon","coordinates":[[[4.88116,52.428275],[4.861038,52.416173],[4.837032,52.393569],[4.767787,52.394247],[4.76571,52.367632],[4.751967,52.355023],[4.759461,52.33739],[4.787353,52.323652],[4.817205,52.334826],[4.883689,52.336475],[4.912937,52.32417],[4.939486,52.292393],[5.00202,52.316761],[4.991121,52.345908],[4.959646,52.360892],[4.954076,52.378971],[4.946936,52.408077],[4.903932,52.425158],[4.88116,52.428275]]]}},{"type":"Feature","properties":{},"geometry":{"type":"Polygon","coordinates":[[[4.453342,51.938682],[4.415211,51.924575],[4.401993,51.928807],[4.358269,51.927553],[4.383436,51.867632],[4.414449,51.869359],[4.465035,51.859626],[4.567988,51.865277],[4.580444,51.875794],[4.558329,51.900112],[4.540032,51.917844],[4.543584,51.930776],[4.530901,51.955273],[4.453342,51.938682]]]}}]}