{"type":"FeatureCollection","features":[{"type":"Feature","properties":{},"geometry":{"type":"Polygon","coordinates":[[[10.730669,59.936365],[10.712238,59.928021],[10.704165,59.923263],[10.698022,59.923848],[10.686344,59.916748],[10.70786,59.898806],[10.73037,59.903484],[10.750878,59.894533],[10.786746,59.901418],[10.825454,59.90821],[10.812297,59.918773],[10.802255,59.934195],[10.783978,59.93888],[10.768697,59.931643],[10.745186,59.937275],[10.730669,59.936365]]]}},{"type":"Feature","properties":{},"geometry":{"type":"Polygon","coordinates":[[[5.299462,60.4032],[5.278905,60.388996],[5.295902,60.383512],[5.327813,60.374964],[5.337512,60.361709],[5.355917,60.356766],[5.377035,60.361753],[5.3784,60.368961],[5.365464,60.374376],[5.368128,60.38365],[5.359795,60.389552],[5.334043,60.39755],[5.336821,60.406298],[5.328448,60.415526],[5.317497,60.417211],[5.299462,60.4032]]]}}]}