{"type":"FeatureCollection","features":[{"type":"Feature","geometry":{"type":"Polygon","coordinates":[[[20.999628,52.260277],[20.979778,52.260749],[20.961122,52.250718],[20.958946,52.228852],[20.971889,52.217477],[20.981834,52.214501],[20.999654,52.215424],[21.020641,52.215455],[21.056118,52.225328],[21.054807,52.237674],[21.045926,52.24855],[21.035056,52.25666],[21.026756,52.267161],[20.999628,52.260277]]]},"properties":{}},{"type":"Feature","geometry":{"type":"Polygon","coordinates":[[[19.947259,50.079631],[19.941658,50.07498],[19.931848,50.075155],[19.92187,50.06899],[19.921246,50.058971],[19.926492,50.052673],[19.934952,50.040957],[19.943352,50.04474],[19.952662,50.04894],[19.957266,50.051973],[19.977675,50.05339],[19.984883,50.059905],[19.974465,50.067163],[19.96097,50.067147],[19.959747,50.075553],[19.947259,50.079631]]]},"properties":{}}]}