{"type":"FeatureCollection","features":[{"type":"Feature","properties":{},"geometry":{"type":"Polygon","coordinates":[[[-9.088268,38.78695],[-9.103191,38.787155],[-9.111839,38.790608],[-9.118431,38.799198],[-9.128186,38.801294],[-9.14195,38.774167],[-9.148624,38.763001],[-9.174622,38.763576],[-9.189176,38.752268],[-9.196297,38.742225],[-9.18546,38.742841],[-9.172013,38.734902],[-9.175493,38.725274],[-9.177871,38.716615],[-9.180884,38.702573],[-9.173829,38.670954],[-9.143785,38.68494],[-9.10078,38.727236],[-9.086592,38.764608],[-9.088268,38.78695]]]}},{"type":"Feature","properties":{},"geometry":{"type":"Polygon","coordinates":[[[-8.634397,41.172925],[-8.65105,41.163963],[-8.649192,41.156036],[-8.641811,41.142549],[-8.637201,41.134516],[-8.63665,41.118499],[-8.627016,41.112848],[-8.605477,41.109375],[-8.603895,41.118136],[-8.594536,41.122336],[-8.594329,41.132961],[-8.597151,41.135657],[-8.589394,41.139618],[-8.583801,41.145555],[-8.578227,41.165244],[-8.594705,41.172804],[-8.614286,41.176122],[-8.634397,41.172925]]]}}]}