{"type":"FeatureCollection","features":[{"type":"Feature","geometry":{"type":"Polygon","coordinates":[[[26.062908,44.454626],[26.057038,44.435313],[26.059748,44.427999],[26.075825,44.419058],[26.081969,44.415768],[26.0949,44.404961],[26.104759,44.412531],[26.113778,44.416234],[26.123575,44.421107],[26.131787,44.413544],[26.13741,44.418805],[26.140181,44.43033],[26.136843,44.440103],[26.128408,44.446247],[26.124819,44.452443],[26.102528,44.454032],[26.062908,44.454626]]]},"properties":{}},{"type":"Feature","geometry":{"type":"Polygon","coordinates":[[[23.579518,46.785925],[23.585307,46.774818],[23.565963,46.769104],[23.572169,46.762039],[23.594941,46.765159],[23.606262,46.767557],[23.637942,46.774424],[23.636315,46.785031],[23.614005,46.786609],[23.597034,46.788185],[23.579518,46.785925]]]},"properties":{}}]}