{"type":"FeatureCollection","features":[{"type":"Feature","geometry":{"type":"Polygon","coordinates":[[[20.450867,44.833669],[20.427678,44.843493],[20.417976,44.837192],[20.398573,44.835456],[20.393118,44.814505],[20.395526,44.80765],[20.42291,44.796397],[20.426643,44.790189],[20.448305,44.794032],[20.47656,44.782168],[20.483212,44.79445],[20.494354,44.814493],[20.495408,44.827804],[20.450867,44.833669]]]},"properties":{}},{"type":"Feature","geometry":{"type":"Polygon","coordinates":[[[19.807852,45.261308],[19.787875,45.253878],[19.795474,45.241487],[19.821297,45.23845],[19.828165,45.2251],[19.85577,45.238125],[19.858035,45.246206],[19.856434,45.257114],[19.861157,45.263066],[19.845658,45.269755],[19.820908,45.266171],[19.807852,45.261308]]]},"properties":{}}]}