{"type":"FeatureCollection","features":[{"type":"Feature","properties":{},"geometry":{"type":"Polygon","coordinates":[[[37.599811,55.782703],[37.573366,55.769435],[37.564501,55.751935],[37.571112,55.72969],[37.603717,55.716996],[37.637675,55.717081],[37.674188,55.725967],[37.671633,55.769943],[37.63452,55.783971],[37.599811,55.782703]]]}},{"type":"Feature","properties":{},"geometry":{"type":"Polygon","coordinates":[[[30.197463,59.906673],[30.322129,59.906914],[30.348121,59.90794],[30.398821,59.925316],[30.403956,59.954248],[30.390326,59.958591],[30.336162,59.987966],[30.187172,59.994343],[30.149546,59.948447],[30.197463,59.906673]]]}},{"type":"Feature","properties":{},"geometry":{"type":"Polygon","coordinates":[[[82.912982,55.061696],[82.873391,55.044882],[82.890523,55.022553],[82.867703,55.007429],[82.869057,54.999007],[82.833299,54.996941],[82.834313,54.984955],[82.834376,54.983498],[82.857419,54.985064],[82.871124,54.980609],[82.895152,54.981556],[82.910214,54.975711],[82.921118,54.979472],[82.921221,54.990781],[82.937629,55.003035],[82.945035,55.002897],[82.961077,55.010414],[82.934138,55.022634],[82.941678,55.02875],[82.94655,55.036713],[82.935871,55.068035],[82.912982,55.061696]]]}},{"type":"Feature","properties":{},"geometry":{"type":"Polygon","coordinates":[[[131.906468,43.031574],[131.950976,43.064538],[131.97353,43.080361],[131.995852,43.095359],[131.974646,43.109946],[131.981454,43.138783],[131.935025,43.138457],[131.895792,43.149143],[131.828269,43.07896],[131.900257,43.0651],[131.879535,43.039313],[131.882707,43.023121],[131.903248,43.021444],[131.906468,43.031574]]]}}]}