{"type":"FeatureCollection","features":[{"type":"Feature","properties":{},"geometry":{"type":"Polygon","coordinates":[[[17.9886,59.331215],[17.998245,59.327812],[17.994473,59.320585],[18.003595,59.309994],[18.014843,59.304152],[18.03025,59.295679],[18.051168,59.293361],[18.065573,59.294571],[18.086609,59.295157],[18.080241,59.303769],[18.099534,59.308101],[18.109293,59.317789],[18.080049,59.321931],[18.085831,59.33061],[18.110183,59.33095],[18.141716,59.342971],[18.096968,59.367655],[18.080625,59.353591],[18.047822,59.356198],[18.040483,59.369118],[18.020323,59.376635],[18.012124,59.380499],[17.984339,59.379548],[17.98011,59.371268],[17.962758,59.373506],[17.957377,59.365476],[17.943675,59.36821],[17.940401,59.362954],[17.922576,59.360711],[17.968106,59.333244],[17.9886,59.331215]]]}},{"type":"Feature","properties":{},"geometry":{"type":"Polygon","coordinates":[[[11.896202,57.691455],[11.90329,57.678807],[11.937636,57.691513],[11.959661,57.679856],[11.989428,57.674784],[12.027591,57.677232],[12.006983,57.690348],[12.000659,57.695942],[12.041118,57.725673],[12.039919,57.734988],[12.018647,57.765972],[11.991933,57.768938],[11.97681,57.730667],[11.955363,57.725479],[11.946518,57.717016],[11.924773,57.712055],[11.88961,57.699576],[11.890589,57.698773],[11.896202,57.691455]]]}}]}