{"type":"FeatureCollection","features":[{"type":"Feature","properties":{},"geometry":{"type":"Polygon","coordinates":[[[14.495711,46.087421],[14.476932,46.079679],[14.455567,46.070097],[14.444989,46.045292],[14.446974,46.036395],[14.501025,46.023361],[14.507693,46.023164],[14.511942,46.021922],[14.51511,46.039544],[14.520365,46.044176],[14.536337,46.047737],[14.545037,46.053645],[14.574224,46.054165],[14.579463,46.070392],[14.555888,46.070198],[14.532969,46.082268],[14.514186,46.085715],[14.495711,46.087421]]]}}]}