{"type":"FeatureCollection","features":[{"type":"Feature","properties":{},"geometry":{"type":"Polygon","coordinates":[[[17.078692,48.171144],[17.073699,48.162422],[17.073095,48.14234],[17.100687,48.138448],[17.087945,48.126672],[17.074271,48.124677],[17.077662,48.116699],[17.094716,48.100742],[17.104147,48.090155],[17.124707,48.08947],[17.12696,48.106147],[17.137418,48.118715],[17.144561,48.131991],[17.155053,48.14],[17.171582,48.139727],[17.181074,48.14011],[17.186562,48.140994],[17.189518,48.142613],[17.190233,48.144066],[17.182813,48.151692],[17.183595,48.159416],[17.194483,48.161595],[17.205792,48.172767],[17.188873,48.171854],[17.181544,48.177588],[17.178416,48.182432],[17.182503,48.183085],[17.184224,48.193063],[17.142294,48.188913],[17.124302,48.184972],[17.120486,48.17112],[17.109497,48.159649],[17.078692,48.171144]]]}},{"type":"Feature","properties":{},"geometry":{"type":"Polygon","coordinates":[[[21.226628,48.725337],[21.218666,48.722673],[21.219741,48.712662],[21.219351,48.700689],[21.233447,48.691848],[21.251859,48.687335],[21.266617,48.687954],[21.281488,48.690136],[21.282245,48.700473],[21.279575,48.72467],[21.278051,48.736046],[21.273237,48.747738],[21.265069,48.747469],[21.257401,48.745539],[21.247541,48.742909],[21.237776,48.739114],[21.236537,48.733468],[21.237021,48.728406],[21.226628,48.725337]]]}}]}