{"type":"FeatureCollection","features":[{"type":"Feature","properties":{},"geometry":{"type":"Polygon","coordinates":[[[12.453495,43.924036],[12.453373,43.931735],[12.451769,43.936611],[12.456566,43.937067],[12.459415,43.938575],[12.462971,43.93954],[12.463035,43.941143],[12.456119,43.94444],[12.458043,43.945404],[12.465103,43.946827],[12.469935,43.946932],[12.469643,43.948962],[12.472754,43.949937],[12.473816,43.952256],[12.47107,43.952809],[12.468325,43.954944],[12.47722,43.956868],[12.476635,43.960188],[12.472681,43.961031],[12.471718,43.964476],[12.475016,43.96618],[12.48286,43.967396],[12.484052,43.969112],[12.484336,43.970533],[12.484892,43.972248],[12.486871,43.974019],[12.491016,43.978502],[12.495989,43.977348],[12.49746,43.979272],[12.501248,43.977448],[12.507035,43.981128],[12.508753,43.983235],[12.511744,43.982546],[12.511957,43.983212],[12.512847,43.9843],[12.515997,43.984564],[12.51525,43.989236],[12.514983,43.99049],[12.513556,43.991287],[12.509281,43.992256],[12.505467,43.991129],[12.504412,43.990416],[12.503442,43.98827],[12.501966,43.986786],[12.500336,43.986947],[12.498791,43.985851],[12.496309,43.98641],[12.492363,43.982961],[12.491117,43.983444],[12.489981,43.983189],[12.48448,43.981004],[12.472313,43.970283],[12.47317,43.967563],[12.470374,43.965075],[12.46748,43.958621],[12.459032,43.948861],[12.446887,43.945485],[12.44356,43.94327],[12.439503,43.938286],[12.44858,43.927416],[12.453495,43.924036]]]}}]}