{"type":"FeatureCollection","features":[{"type":"Feature","geometry":{"type":"Polygon","coordinates":[[[30.741356,46.456145],[30.743447,46.463178],[30.755478,46.46282],[30.75598,46.476181],[30.750952,46.476181],[30.752233,46.487251],[30.741366,46.498893],[30.718859,46.495797],[30.710579,46.486146],[30.708993,46.478466],[30.688612,46.470971],[30.684756,46.466989],[30.696249,46.452929],[30.721853,46.451968],[30.741356,46.456145]]]},"properties":{}},{"type":"Feature","properties":{},"geometry":{"type":"Polygon","coordinates":[[[30.478532,50.442847],[30.521282,50.40671],[30.55117,50.418798],[30.524243,50.442788],[30.532016,50.456281],[30.527852,50.468062],[30.539603,50.477072],[30.540158,50.486257],[30.535069,50.492733],[30.477607,50.489495],[30.478532,50.442847]]]}}]}