{"type":"FeatureCollection","features":[{"type":"Feature","properties":{},"geometry":{"type":"Polygon","coordinates":[[[-0.086575,51.575926],[-0.176039,51.543839],[-0.205516,51.534969],[-0.233279,51.511798],[-0.221048,51.463374],[-0.193908,51.458489],[-0.124767,51.458433],[-0.064514,51.467125],[-0.009249,51.482493],[0.001181,51.489596],[-0.002649,51.506692],[0.001321,51.546367],[-0.059994,51.57691],[-0.086575,51.575926]]]}},{"type":"Feature","properties":{},"geometry":{"type":"Polygon","coordinates":[[[-2.246918,53.505454],[-2.277158,53.500461],[-2.291422,53.490666],[-2.331815,53.488126],[-2.369084,53.469676],[-2.324782,53.451977],[-2.313374,53.442369],[-2.279242,53.439778],[-2.197774,53.439594],[-2.188381,53.477389],[-2.2171,53.504008],[-2.246918,53.505454]]]}}]}